{"type":"FeatureCollection","features":[{"type":"Feature","properties":{"name":"Quebrada La Escopetería","kind":"stream"},"geometry":{"type":"LineString","coordinates":[[-75.565678,6.20536],[-75.565747,6.205496],[-75.565936,6.20565],[-75.566047,6.205855],[-75.566142,6.206025],[-75.566288,6.206307],[-75.566408,6.206478],[-75.566519,6.206614],[-75.566571,6.20681],[-75.566622,6.206981],[-75.566768,6.207066],[-75.56694,6.207194]]}},{"type":"Feature","properties":{"name":"Quebrada La Jabalcona","kind":"stream"},"geometry":{"type":"LineString","coordinates":[[-75.582712,6.195979],[-75.581487,6.196608]]}},{"type":"Feature","properties":{"name":"Quebrada La Ayurá","kind":"stream"},"geometry":{"type":"LineString","coordinates":[[-75.582937,6.188314],[-75.583027,6.188615],[-75.583129,6.188746]]}},{"type":"Feature","properties":{"name":"Quebrada Zúñiga","kind":"stream"},"geometry":{"type":"LineString","coordinates":[[-75.58136,6.187539],[-75.581676,6.187862]]}},{"type":"Feature","properties":{"name":"Quebrada Zúñiga","kind":"stream"},"geometry":{"type":"LineString","coordinates":[[-75.581676,6.187862],[-75.582786,6.188226],[-75.582873,6.188268],[-75.582937,6.188314]]}},{"type":"Feature","properties":{"name":"Quebrada Zúñiga","kind":"stream"},"geometry":{"type":"LineString","coordinates":[[-75.580001,6.184849],[-75.580109,6.18542],[-75.580199,6.185891],[-75.580431,6.186643],[-75.580572,6.186849],[-75.580709,6.187004],[-75.58136,6.187539]]}},{"type":"Feature","properties":{"name":"Quebrada La Presidenta","kind":"stream"},"geometry":{"type":"LineString","coordinates":[[-75.575667,6.212459],[-75.575757,6.212733],[-75.576046,6.212788],[-75.576122,6.212816],[-75.576393,6.212849],[-75.576435,6.212858],[-75.57666,6.212935]]}},{"type":"Feature","properties":{"name":"Quebrada La Sucia","kind":"stream"},"geometry":{"type":"LineString","coordinates":[[-75.568573,6.197025],[-75.568856,6.197051],[-75.569205,6.197158],[-75.569419,6.197382]]}},{"type":"Feature","properties":{"name":"Quebrada La Jabalcona","kind":"stream"},"geometry":{"type":"LineString","coordinates":[[-75.585257,6.196374],[-75.584138,6.196048],[-75.583102,6.195785],[-75.582712,6.195979]]}},{"type":"Feature","properties":{"name":"Quebrada La Jabalcona","kind":"stream"},"geometry":{"type":"LineString","coordinates":[[-75.581487,6.196608],[-75.581004,6.196863]]}},{"type":"Feature","properties":{"name":"Quebrada La Aguacatala","kind":"stream"},"geometry":{"type":"LineString","coordinates":[[-75.570048,6.188763],[-75.570285,6.188728],[-75.570456,6.188632],[-75.5707,6.18859],[-75.570883,6.188608],[-75.57118,6.188638],[-75.571331,6.18875],[-75.571476,6.188873],[-75.571572,6.188985],[-75.571618,6.189145],[-75.571725,6.18916],[-75.571867,6.189134],[-75.57206,6.189083],[-75.572192,6.18912],[-75.572382,6.189192],[-75.572554,6.189139],[-75.57272,6.189251],[-75.572886,6.189347],[-75.573128,6.189432],[-75.573337,6.189438],[-75.573511,6.189472],[-75.573946,6.189643]]}},{"type":"Feature","properties":{"name":"Quebrada La Aguacatala","kind":"stream"},"geometry":{"type":"LineString","coordinates":[[-75.580595,6.195788],[-75.581099,6.196102]]}},{"type":"Feature","properties":{"name":"Quebrada La Aguacatala","kind":"stream"},"geometry":{"type":"LineString","coordinates":[[-75.57597,6.193075],[-75.576084,6.193254],[-75.576188,6.19331],[-75.576556,6.193318],[-75.576738,6.193339],[-75.576814,6.193415],[-75.577122,6.193638],[-75.577286,6.193772],[-75.57741,6.193891],[-75.577703,6.194194],[-75.577858,6.194318],[-75.577964,6.194383],[-75.57812,6.194444],[-75.578337,6.194511],[-75.578598,6.19457],[-75.578948,6.194622],[-75.579352,6.194714],[-75.579693,6.195253]]}},{"type":"Feature","properties":{"name":"Quebrada La Aguacatala","kind":"stream"},"geometry":{"type":"LineString","coordinates":[[-75.579693,6.195253],[-75.579751,6.195316],[-75.57982,6.195367],[-75.579981,6.19544],[-75.580134,6.195516],[-75.580343,6.195636],[-75.580595,6.195788]]}},{"type":"Feature","properties":{"name":"Quebrada La Aguacatala","kind":"stream"},"geometry":{"type":"LineString","coordinates":[[-75.574262,6.189875],[-75.574254,6.19007],[-75.574257,6.190307],[-75.574595,6.190714],[-75.574777,6.190915],[-75.575063,6.191217],[-75.575121,6.191317],[-75.57515,6.191491],[-75.575172,6.191875],[-75.575271,6.191974],[-75.575424,6.191992],[-75.575542,6.192192]]}},{"type":"Feature","properties":{"name":"Quebrada La Aguacatala","kind":"stream"},"geometry":{"type":"LineString","coordinates":[[-75.573946,6.189643],[-75.574217,6.189747],[-75.574262,6.189875]]}},{"type":"Feature","properties":{"name":"Quebrada Volcana-Los Balsos","kind":"stream"},"geometry":{"type":"LineString","coordinates":[[-75.577349,6.199914],[-75.577786,6.199958]]}},{"type":"Feature","properties":{"name":"Quebrada La Sucia","kind":"stream"},"geometry":{"type":"LineString","coordinates":[[-75.572435,6.19886],[-75.573666,6.199163],[-75.575294,6.199993],[-75.575947,6.200328],[-75.576375,6.200393],[-75.579783,6.200923],[-75.579879,6.200942]]}},{"type":"Feature","properties":{"name":"Quebrada La Presidenta","kind":"stream"},"geometry":{"type":"LineString","coordinates":[[-75.578001,6.21329],[-75.578131,6.213304]]}},{"type":"Feature","properties":{"name":"Quebrada La Presidenta","kind":"stream"},"geometry":{"type":"LineString","coordinates":[[-75.577613,6.213238],[-75.578001,6.21329]]}},{"type":"Feature","properties":{"name":"Quebrada La Presidenta","kind":"stream"},"geometry":{"type":"LineString","coordinates":[[-75.577465,6.213177],[-75.57753,6.213228],[-75.577613,6.213238]]}},{"type":"Feature","properties":{"name":"Quebrada La Poblada","kind":"stream"},"geometry":{"type":"LineString","coordinates":[[-75.575735,6.213374],[-75.576121,6.213046],[-75.576435,6.212858]]}},{"type":"Feature","properties":{"name":"Quebrada La Poblada","kind":"stream"},"geometry":{"type":"LineString","coordinates":[[-75.575107,6.213227],[-75.575198,6.213248],[-75.575381,6.213299],[-75.575735,6.213374]]}},{"type":"Feature","properties":{"name":"Quebrada La Poblada","kind":"stream"},"geometry":{"type":"LineString","coordinates":[[-75.574662,6.212963],[-75.575107,6.213227]]}},{"type":"Feature","properties":{"name":"Quebrada La Jabalcona","kind":"stream"},"geometry":{"type":"LineString","coordinates":[[-75.590273,6.196302],[-75.589125,6.195934],[-75.588636,6.195789],[-75.588439,6.195755],[-75.588344,6.195755],[-75.58825,6.195772],[-75.588136,6.195854],[-75.588075,6.195964],[-75.587765,6.196737]]}},{"type":"Feature","properties":{"name":"Río Medellín","kind":"river"},"geometry":{"type":"LineString","coordinates":[[-75.583311,6.18898],[-75.583219,6.189198],[-75.583097,6.18958],[-75.582952,6.19015],[-75.582411,6.192502],[-75.582319,6.19285],[-75.582214,6.193194],[-75.581991,6.19377],[-75.581162,6.196137],[-75.580886,6.196925],[-75.580865,6.196986]]}},{"type":"Feature","properties":{"name":"Quebrada Volcana-Los Balsos","kind":"stream"},"geometry":{"type":"LineString","coordinates":[[-75.578524,6.200062],[-75.580003,6.200089]]}},{"type":"Feature","properties":{"name":"Quebrada Volcana-Los Balsos","kind":"stream"},"geometry":{"type":"LineString","coordinates":[[-75.577786,6.199958],[-75.578354,6.200065],[-75.578524,6.200062]]}},{"type":"Feature","properties":{"name":"Quebrada La Presidenta","kind":"stream"},"geometry":{"type":"LineString","coordinates":[[-75.577339,6.2131],[-75.577465,6.213177]]}},{"type":"Feature","properties":{"name":"Quebrada La Presidenta","kind":"stream"},"geometry":{"type":"LineString","coordinates":[[-75.57666,6.212935],[-75.577339,6.2131]]}},{"type":"Feature","properties":{"name":"Quebrada Volcana-Los Balsos","kind":"stream"},"geometry":{"type":"LineString","coordinates":[[-75.56643,6.194013],[-75.566569,6.194037],[-75.56683,6.194195],[-75.566878,6.194296],[-75.566969,6.194421],[-75.567173,6.194461],[-75.567366,6.194488],[-75.567495,6.194464],[-75.567701,6.194792],[-75.567763,6.194922],[-75.567983,6.195251],[-75.568029,6.195464],[-75.568305,6.195581],[-75.568468,6.195629],[-75.568517,6.195725]]}},{"type":"Feature","properties":{"name":"Quebrada Volcana-Los Balsos","kind":"stream"},"geometry":{"type":"LineString","coordinates":[[-75.568517,6.195725],[-75.56879,6.195922]]}},{"type":"Feature","properties":{"name":"Quebrada Volcana-Los Balsos","kind":"stream"},"geometry":{"type":"LineString","coordinates":[[-75.56879,6.195922],[-75.568946,6.195984],[-75.569262,6.196117],[-75.569498,6.196208],[-75.569764,6.196349],[-75.570032,6.196538],[-75.570298,6.196637],[-75.570453,6.196661],[-75.570676,6.19673],[-75.57103,6.196933],[-75.571185,6.197005],[-75.571365,6.197088],[-75.571564,6.197165],[-75.571832,6.197232],[-75.571998,6.197309],[-75.572119,6.197421],[-75.572173,6.197533],[-75.572248,6.197712],[-75.572309,6.197893],[-75.572401,6.198064],[-75.572556,6.198168]]}},{"type":"Feature","properties":{"name":"Quebrada Volcana-Los Balsos","kind":"stream"},"geometry":{"type":"LineString","coordinates":[[-75.572556,6.198168],[-75.572814,6.198261]]}},{"type":"Feature","properties":{"name":"Quebrada Volcana-Los Balsos","kind":"stream"},"geometry":{"type":"LineString","coordinates":[[-75.572814,6.198261],[-75.573009,6.198381],[-75.573224,6.198426],[-75.573696,6.19861]]}},{"type":"Feature","properties":{"name":"Quebrada Volcana-Los Balsos","kind":"stream"},"geometry":{"type":"LineString","coordinates":[[-75.573696,6.19861],[-75.574254,6.198589]]}},{"type":"Feature","properties":{"name":"Quebrada Volcana-Los Balsos","kind":"stream"},"geometry":{"type":"LineString","coordinates":[[-75.574254,6.198589],[-75.574388,6.198576],[-75.574613,6.198504],[-75.574755,6.198426],[-75.57504,6.198381],[-75.575338,6.198242]]}},{"type":"Feature","properties":{"name":"Quebrada Volcana-Los Balsos","kind":"stream"},"geometry":{"type":"LineString","coordinates":[[-75.575727,6.198225],[-75.575839,6.19824],[-75.576134,6.198508],[-75.576323,6.198923],[-75.576425,6.19901],[-75.576742,6.1992],[-75.577129,6.19929],[-75.577155,6.19943],[-75.57712,6.199587],[-75.577086,6.199688],[-75.577281,6.199903],[-75.577349,6.199914]]}},{"type":"Feature","properties":{"name":"Quebrada Volcana-Los Balsos","kind":"stream"},"geometry":{"type":"LineString","coordinates":[[-75.575338,6.198242],[-75.575727,6.198225]]}},{"type":"Feature","properties":{"name":"Quebrada La Poblada","kind":"stream"},"geometry":{"type":"LineString","coordinates":[[-75.574048,6.212759],[-75.574155,6.212782],[-75.574308,6.212867],[-75.574461,6.212904],[-75.574662,6.212963]]}},{"type":"Feature","properties":{"name":"Quebrada La Poblada","kind":"stream"},"geometry":{"type":"LineString","coordinates":[[-75.5739,6.212728],[-75.574048,6.212759]]}},{"type":"Feature","properties":{"name":"Quebrada La Aguacatala","kind":"stream"},"geometry":{"type":"LineString","coordinates":[[-75.575542,6.192192],[-75.575754,6.192632]]}},{"type":"Feature","properties":{"name":"Quebrada La Aguacatala","kind":"stream"},"geometry":{"type":"LineString","coordinates":[[-75.575754,6.192632],[-75.575797,6.192763],[-75.57597,6.193075]]}},{"type":"Feature","properties":{"name":"Quebrada La Sucia","kind":"stream"},"geometry":{"type":"LineString","coordinates":[[-75.570741,6.198122],[-75.57083,6.198176],[-75.57121,6.198377],[-75.571562,6.19853],[-75.571879,6.198642],[-75.572106,6.198724],[-75.572325,6.19881],[-75.572435,6.19886]]}},{"type":"Feature","properties":{"name":"Quebrada La Sucia","kind":"stream"},"geometry":{"type":"LineString","coordinates":[[-75.570684,6.198087],[-75.570741,6.198122]]}},{"type":"Feature","properties":{"name":"Quebrada La Ayurá","kind":"stream"},"geometry":{"type":"LineString","coordinates":[[-75.583568,6.186506],[-75.58356,6.186567],[-75.58354,6.186622],[-75.583449,6.186773],[-75.583092,6.187324],[-75.582921,6.187576],[-75.582859,6.187717],[-75.582847,6.187921],[-75.582882,6.18809],[-75.582937,6.188314]]}},{"type":"Feature","properties":{"name":"Quebrada La Jabalcona","kind":"stream"},"geometry":{"type":"LineString","coordinates":[[-75.593494,6.195857],[-75.593252,6.196175],[-75.593048,6.196352],[-75.592988,6.196378],[-75.592885,6.196412],[-75.592791,6.196412],[-75.592679,6.196404],[-75.591005,6.196455],[-75.590816,6.196446],[-75.590511,6.196379]]}},{"type":"Feature","properties":{"name":"Quebrada La Jabalcona","kind":"stream"},"geometry":{"type":"LineString","coordinates":[[-75.590511,6.196379],[-75.590273,6.196302]]}},{"type":"Feature","properties":{"name":"Quebrada Campo Amor- Guayabala Oriental","kind":"stream"},"geometry":{"type":"LineString","coordinates":[[-75.588918,6.208279],[-75.587906,6.210296]]}},{"type":"Feature","properties":{"name":"Quebrada La Sucia","kind":"stream"},"geometry":{"type":"LineString","coordinates":[[-75.568309,6.197024],[-75.568573,6.197025]]}},{"type":"Feature","properties":{"name":"Quebrada La Sucia","kind":"stream"},"geometry":{"type":"LineString","coordinates":[[-75.567913,6.197082],[-75.568109,6.197018],[-75.568309,6.197024]]}},{"type":"Feature","properties":{"name":"Quebrada La Poblada","kind":"stream"},"geometry":{"type":"LineString","coordinates":[[-75.572866,6.21263],[-75.572969,6.212574],[-75.57313,6.212617],[-75.573323,6.212681],[-75.573527,6.212694],[-75.573718,6.212736],[-75.5739,6.212728]]}},{"type":"Feature","properties":{"name":"Quebrada La Presidenta","kind":"stream"},"geometry":{"type":"LineString","coordinates":[[-75.571242,6.207713],[-75.571497,6.20773]]}},{"type":"Feature","properties":{"name":"Quebrada La Presidenta","kind":"stream"},"geometry":{"type":"LineString","coordinates":[[-75.571497,6.20773],[-75.571652,6.207758],[-75.57233,6.207749],[-75.572682,6.207886],[-75.572897,6.208048],[-75.573196,6.208099],[-75.573402,6.208099],[-75.57354,6.208031],[-75.57409,6.207817],[-75.574319,6.207779],[-75.574542,6.207796],[-75.574722,6.207856],[-75.574886,6.207962],[-75.574982,6.208048],[-75.575075,6.208167],[-75.575144,6.208295],[-75.57523,6.208534],[-75.575719,6.210018],[-75.575805,6.210394],[-75.575831,6.210675],[-75.575667,6.212459]]}},{"type":"Feature","properties":{"name":"Río Medellín","kind":"canal"},"geometry":{"type":"LineString","coordinates":[[-75.580865,6.196986],[-75.580632,6.197564],[-75.580479,6.198152],[-75.580047,6.199787],[-75.580003,6.200089],[-75.57992,6.200653],[-75.579879,6.200942],[-75.579115,6.206439],[-75.57884,6.208411],[-75.57827,6.212394],[-75.578131,6.213304],[-75.577422,6.217944],[-75.577141,6.220342],[-75.576009,6.22845],[-75.575794,6.230186],[-75.575608,6.232571],[-75.575602,6.232657],[-75.575704,6.234304],[-75.57596,6.235171],[-75.576437,6.236597],[-75.577445,6.239577],[-75.578783,6.243406],[-75.579229,6.24464],[-75.579997,6.24704],[-75.580234,6.247774],[-75.580248,6.248205],[-75.580184,6.248659],[-75.580026,6.249002],[-75.578959,6.250973],[-75.576554,6.255361],[-75.574533,6.25914],[-75.574051,6.260064],[-75.573855,6.260442],[-75.572857,6.262673],[-75.572288,6.264518],[-75.572119,6.265182],[-75.571081,6.269633],[-75.569658,6.275842],[-75.568579,6.280576],[-75.568488,6.28099],[-75.568397,6.28159],[-75.568344,6.282318],[-75.568308,6.283053],[-75.568291,6.283283],[-75.56819,6.283591],[-75.568119,6.283781],[-75.568032,6.283914],[-75.567914,6.284022],[-75.567325,6.284504],[-75.566672,6.285034],[-75.566299,6.285465],[-75.56592,6.286295],[-75.565852,6.286508],[-75.565575,6.287729],[-75.565494,6.288495],[-75.565389,6.288876],[-75.565243,6.289176],[-75.564993,6.289541],[-75.563645,6.291089],[-75.563438,6.291411],[-75.563324,6.291695],[-75.563302,6.291756],[-75.563297,6.291762],[-75.562984,6.293087],[-75.562541,6.293893],[-75.562056,6.294431],[-75.561532,6.294777],[-75.56141,6.294868],[-75.56078,6.295335],[-75.560427,6.29572],[-75.56014,6.296087],[-75.559845,6.296631],[-75.559239,6.297764],[-75.558963,6.298204],[-75.558886,6.298327],[-75.558437,6.299182],[-75.558014,6.30029],[-75.557917,6.30054],[-75.557878,6.300728],[-75.557817,6.300982],[-75.557746,6.301155],[-75.557576,6.301437],[-75.556836,6.30348],[-75.556776,6.304666],[-75.557068,6.306492],[-75.557051,6.307601],[-75.557034,6.308335],[-75.557265,6.309017],[-75.557332,6.309367],[-75.557308,6.309802],[-75.557171,6.310159]]}},{"type":"Feature","properties":{"name":"Río Medellín","kind":"river"},"geometry":{"type":"LineString","coordinates":[[-75.604928,6.163417],[-75.604468,6.163763],[-75.604095,6.164069],[-75.60379,6.164412],[-75.603607,6.164756],[-75.603386,6.16525],[-75.603234,6.165915],[-75.603071,6.1667],[-75.602909,6.167546],[-75.602568,6.169131],[-75.602415,6.169661],[-75.602316,6.169929],[-75.602181,6.170178],[-75.602101,6.170334],[-75.60187,6.170659],[-75.601543,6.171037],[-75.600736,6.1717],[-75.600032,6.172347],[-75.599801,6.172525],[-75.598912,6.173167],[-75.597812,6.173953],[-75.597084,6.174474],[-75.596084,6.175175],[-75.595166,6.175776],[-75.594954,6.175929],[-75.594224,6.176538],[-75.593739,6.17698],[-75.593279,6.177417],[-75.593108,6.177609],[-75.592513,6.1783],[-75.591851,6.17924],[-75.590997,6.180587],[-75.590886,6.180786],[-75.590585,6.181275],[-75.590092,6.182069],[-75.589506,6.18301],[-75.589128,6.183509],[-75.588889,6.183762],[-75.588369,6.184378],[-75.587447,6.185334],[-75.587218,6.185522],[-75.586364,6.186133],[-75.585547,6.18674],[-75.58502,6.187129],[-75.5843,6.18768],[-75.583872,6.188069],[-75.583671,6.188331],[-75.583491,6.188644],[-75.583311,6.18898]]}},{"type":"Feature","properties":{"name":"Quebrada La Ayurá","kind":"stream"},"geometry":{"type":"LineString","coordinates":[[-75.583247,6.1889],[-75.583311,6.18898]]}},{"type":"Feature","properties":{"name":"Quebrada La Ayurá","kind":"stream"},"geometry":{"type":"LineString","coordinates":[[-75.583129,6.188746],[-75.583247,6.1889]]}},{"type":"Feature","properties":{"name":"Quebrada La Aguacatala","kind":"stream"},"geometry":{"type":"LineString","coordinates":[[-75.581099,6.196102],[-75.581162,6.196137]]}},{"type":"Feature","properties":{"name":"Quebrada La Presidenta","kind":"stream"},"geometry":{"type":"LineString","coordinates":[[-75.566506,6.20726],[-75.566614,6.207212],[-75.566811,6.207194],[-75.56694,6.207194],[-75.566992,6.207194],[-75.567121,6.20711],[-75.567186,6.207086],[-75.567296,6.20704],[-75.567541,6.207004],[-75.56779,6.207024],[-75.567927,6.207066],[-75.568228,6.207186],[-75.568425,6.207357],[-75.568562,6.207391],[-75.568757,6.20744],[-75.568864,6.207459],[-75.568967,6.207497],[-75.569148,6.207599],[-75.569327,6.207738],[-75.569636,6.207771],[-75.569779,6.207794],[-75.569898,6.207804],[-75.570016,6.207859],[-75.57008,6.207938],[-75.570117,6.208095],[-75.570187,6.20819],[-75.570313,6.208224],[-75.570441,6.208244],[-75.57057,6.208204],[-75.570728,6.20811],[-75.570833,6.207986],[-75.57095,6.207819],[-75.571084,6.207723],[-75.571242,6.207713]]}},{"type":"Feature","properties":{"name":"Quebrada La Jabalcona","kind":"stream"},"geometry":{"type":"LineString","coordinates":[[-75.581004,6.196863],[-75.580886,6.196925]]}},{"type":"Feature","properties":{"name":"Quebrada La Jabalcona","kind":"stream"},"geometry":{"type":"LineString","coordinates":[[-75.587765,6.196737],[-75.587708,6.196807],[-75.587639,6.196881],[-75.587574,6.196925],[-75.587515,6.196961],[-75.587397,6.196967],[-75.587323,6.196955],[-75.586749,6.196799]]}},{"type":"Feature","properties":{"name":"Quebrada La Jabalcona","kind":"stream"},"geometry":{"type":"LineString","coordinates":[[-75.586749,6.196799],[-75.585257,6.196374]]}},{"type":"Feature","properties":{"name":"Quebrada La Sucia","kind":"stream"},"geometry":{"type":"LineString","coordinates":[[-75.570009,6.197675],[-75.57031,6.197819],[-75.570527,6.197993],[-75.570684,6.198087]]}},{"type":"Feature","properties":{"name":"Quebrada La Sucia","kind":"stream"},"geometry":{"type":"LineString","coordinates":[[-75.569419,6.197382],[-75.569634,6.197611],[-75.570009,6.197675]]}},{"type":"Feature","properties":{"name":"Quebrada La Olleta","kind":"stream"},"geometry":{"type":"LineString","coordinates":[[-75.567979,6.200051],[-75.567985,6.200051],[-75.568034,6.200081],[-75.568133,6.20012],[-75.56827,6.200201],[-75.568405,6.200299],[-75.568682,6.20048],[-75.568757,6.20048],[-75.568873,6.20044],[-75.569096,6.200423],[-75.569178,6.200437],[-75.569255,6.20048],[-75.569382,6.200578],[-75.569448,6.200702],[-75.569502,6.20076],[-75.569603,6.200845],[-75.569695,6.20092],[-75.569817,6.200998],[-75.56989,6.20108],[-75.569963,6.201124],[-75.569985,6.201195],[-75.570047,6.201293],[-75.570094,6.201278],[-75.570208,6.201278],[-75.570251,6.201289],[-75.570395,6.20125],[-75.570429,6.201235],[-75.570472,6.201229],[-75.570502,6.201223],[-75.570571,6.201223],[-75.570609,6.201237],[-75.57068,6.201244],[-75.570768,6.201321],[-75.570841,6.201342],[-75.570912,6.201338],[-75.570961,6.201348],[-75.571032,6.201353],[-75.571135,6.201397],[-75.571223,6.201431],[-75.5713,6.201469],[-75.571371,6.201478],[-75.571493,6.201529],[-75.571566,6.201593],[-75.571628,6.201653],[-75.571703,6.201655],[-75.57181,6.20164],[-75.571909,6.201647],[-75.571976,6.20167],[-75.572059,6.201711]]}},{"type":"Feature","properties":{"name":null,"kind":"stream"},"geometry":{"type":"LineString","coordinates":[[-75.563665,6.198345],[-75.563781,6.198409],[-75.563908,6.198466],[-75.564028,6.198539],[-75.564144,6.198633],[-75.564275,6.198635],[-75.564406,6.198581],[-75.564547,6.198517],[-75.564734,6.198548],[-75.564893,6.19862],[-75.56494,6.198686],[-75.565007,6.198831],[-75.565114,6.198855],[-75.565243,6.198799],[-75.565281,6.198813]]}},{"type":"Feature","properties":{"name":null,"kind":"stream"},"geometry":{"type":"LineString","coordinates":[[-75.565281,6.198813],[-75.56536,6.198844]]}},{"type":"Feature","properties":{"name":"Quebrada La Olleta","kind":"stream"},"geometry":{"type":"LineString","coordinates":[[-75.56536,6.198844],[-75.565871,6.199038]]}},{"type":"Feature","properties":{"name":"Quebrada La Olleta","kind":"stream"},"geometry":{"type":"LineString","coordinates":[[-75.565871,6.199038],[-75.565886,6.199081],[-75.565968,6.199109],[-75.566041,6.199124],[-75.566101,6.19917],[-75.566275,6.199211],[-75.566356,6.199266],[-75.566487,6.199318],[-75.566546,6.199356]]}},{"type":"Feature","properties":{"name":"Quebrada La Olleta","kind":"stream"},"geometry":{"type":"LineString","coordinates":[[-75.566546,6.199356],[-75.566666,6.199431],[-75.566779,6.199509]]}},{"type":"Feature","properties":{"name":"Quebrada La Olleta","kind":"stream"},"geometry":{"type":"LineString","coordinates":[[-75.566779,6.199509],[-75.566775,6.199648],[-75.566908,6.199678],[-75.567062,6.199736],[-75.567191,6.199774],[-75.567406,6.199902],[-75.567584,6.199983],[-75.567798,6.200045],[-75.567886,6.200049]]}},{"type":"Feature","properties":{"name":"Quebrada La Olleta","kind":"stream"},"geometry":{"type":"LineString","coordinates":[[-75.567886,6.200049],[-75.567979,6.200051]]}},{"type":"Feature","properties":{"name":"Quebrada La Olleta","kind":"stream"},"geometry":{"type":"LineString","coordinates":[[-75.573519,6.203026],[-75.57367,6.203206],[-75.573734,6.203316],[-75.573747,6.203415],[-75.573674,6.203607],[-75.573657,6.203944],[-75.573785,6.20414],[-75.573884,6.204255],[-75.573987,6.20434]]}},{"type":"Feature","properties":{"name":"Quebrada La Olleta","kind":"stream"},"geometry":{"type":"LineString","coordinates":[[-75.572059,6.201711],[-75.572373,6.201911]]}},{"type":"Feature","properties":{"name":"Quebrada La Olleta","kind":"stream"},"geometry":{"type":"LineString","coordinates":[[-75.572373,6.201911],[-75.573019,6.202235],[-75.573203,6.202365],[-75.57324,6.202417]]}},{"type":"Feature","properties":{"name":"Quebrada La Olleta","kind":"stream"},"geometry":{"type":"LineString","coordinates":[[-75.57324,6.202417],[-75.5733,6.202502]]}},{"type":"Feature","properties":{"name":"Quebrada La Olleta","kind":"stream"},"geometry":{"type":"LineString","coordinates":[[-75.5733,6.202502],[-75.573366,6.202596],[-75.573447,6.202788],[-75.573519,6.203026]]}},{"type":"Feature","properties":{"name":"Quebrada La Olleta","kind":"stream"},"geometry":{"type":"LineString","coordinates":[[-75.573987,6.20434],[-75.574565,6.204553]]}}]}