{"type":"FeatureCollection","features":[{"type":"Feature","properties":{"h":6.5,"c":1,"sp":"Vitex cymosa","nc":"Aceituno"},"geometry":{"type":"Polygon","coordinates":[[[-75.578827,6.202858],[-75.578836,6.202875],[-75.578856,6.202875],[-75.578865,6.202858],[-75.578856,6.202841],[-75.578836,6.202841],[-75.578827,6.202858]]]}},{"type":"Feature","properties":{"h":8.7,"c":1,"sp":"Dipteryx oleifera","nc":"Choiba"},"geometry":{"type":"Polygon","coordinates":[[[-75.578813,6.202867],[-75.578822,6.202883],[-75.57884,6.202883],[-75.578849,6.202867],[-75.57884,6.202851],[-75.578822,6.202851],[-75.578813,6.202867]]]}},{"type":"Feature","properties":{"h":6.8,"c":1,"sp":"Vitex cymosa","nc":"Aceituno"},"geometry":{"type":"Polygon","coordinates":[[[-75.578797,6.202875],[-75.578806,6.202892],[-75.578826,6.202892],[-75.578835,6.202875],[-75.578826,6.202858],[-75.578806,6.202858],[-75.578797,6.202875]]]}},{"type":"Feature","properties":{"h":5.3,"c":1,"sp":"Dipteryx oleifera","nc":"Choiba"},"geometry":{"type":"Polygon","coordinates":[[[-75.578638,6.202955],[-75.578648,6.202971],[-75.578666,6.202971],[-75.578676,6.202955],[-75.578666,6.202939],[-75.578648,6.202939],[-75.578638,6.202955]]]}},{"type":"Feature","properties":{"h":7.3,"c":1,"sp":"Cojoba arborea","nc":"Carbonero zorro"},"geometry":{"type":"Polygon","coordinates":[[[-75.577513,6.201661],[-75.577523,6.20168],[-75.577545,6.20168],[-75.577555,6.201661],[-75.577545,6.201642],[-75.577523,6.201642],[-75.577513,6.201661]]]}},{"type":"Feature","properties":{"h":4.9,"c":1,"sp":"Cojoba arborea","nc":"Carbonero zorro"},"geometry":{"type":"Polygon","coordinates":[[[-75.577518,6.201629],[-75.577527,6.201643],[-75.577543,6.201643],[-75.577552,6.201629],[-75.577543,6.201615],[-75.577527,6.201615],[-75.577518,6.201629]]]}},{"type":"Feature","properties":{"h":4.9,"c":1,"sp":"Araucaria heterophylla","nc":"Araucaria"},"geometry":{"type":"Polygon","coordinates":[[[-75.578988,6.197302],[-75.578999,6.197321],[-75.579021,6.197321],[-75.579032,6.197302],[-75.579021,6.197283],[-75.578999,6.197283],[-75.578988,6.197302]]]}},{"type":"Feature","properties":{"h":7.6,"c":1,"sp":"Jacaranda caucana","nc":"Gualanday"},"geometry":{"type":"Polygon","coordinates":[[[-75.577949,6.202591],[-75.577956,6.202603],[-75.57797,6.202603],[-75.577977,6.202591],[-75.57797,6.202579],[-75.577956,6.202579],[-75.577949,6.202591]]]}},{"type":"Feature","properties":{"h":8.9,"c":1,"sp":"Jacaranda caucana","nc":"Gualanday"},"geometry":{"type":"Polygon","coordinates":[[[-75.577943,6.202636],[-75.577954,6.202656],[-75.577978,6.202656],[-75.577989,6.202636],[-75.577978,6.202616],[-75.577954,6.202616],[-75.577943,6.202636]]]}},{"type":"Feature","properties":{"h":7.4,"c":1,"sp":"Jacaranda caucana","nc":"Gualanday"},"geometry":{"type":"Polygon","coordinates":[[[-75.577936,6.202686],[-75.577946,6.202703],[-75.577966,6.202703],[-75.577976,6.202686],[-75.577966,6.202669],[-75.577946,6.202669],[-75.577936,6.202686]]]}},{"type":"Feature","properties":{"h":5.2,"c":1,"sp":"Jacaranda caucana","nc":"Gualanday"},"geometry":{"type":"Polygon","coordinates":[[[-75.577971,6.202712],[-75.577978,6.202724],[-75.577992,6.202724],[-75.577999,6.202712],[-75.577992,6.2027],[-75.577978,6.2027],[-75.577971,6.202712]]]}},{"type":"Feature","properties":{"h":6.9,"c":1,"sp":"Jacaranda caucana","nc":"Gualanday"},"geometry":{"type":"Polygon","coordinates":[[[-75.577943,6.202749],[-75.57795,6.202761],[-75.577964,6.202761],[-75.577971,6.202749],[-75.577964,6.202737],[-75.57795,6.202737],[-75.577943,6.202749]]]}},{"type":"Feature","properties":{"h":5.4,"c":1,"sp":"Jacaranda caucana","nc":"Gualanday"},"geometry":{"type":"Polygon","coordinates":[[[-75.577955,6.202775],[-75.577963,6.202789],[-75.577979,6.202789],[-75.577987,6.202775],[-75.577979,6.202761],[-75.577963,6.202761],[-75.577955,6.202775]]]}},{"type":"Feature","properties":{"h":7.2,"c":1,"sp":"Dypsis lutescens","nc":"Palma areca"},"geometry":{"type":"Polygon","coordinates":[[[-75.578912,6.201403],[-75.578915,6.201409],[-75.578923,6.201409],[-75.578926,6.201403],[-75.578923,6.201397],[-75.578915,6.201397],[-75.578912,6.201403]]]}},{"type":"Feature","properties":{"h":6.5,"c":1,"sp":"Erythrina poeppigiana","nc":"Cambulo"},"geometry":{"type":"Polygon","coordinates":[[[-75.578037,6.200861],[-75.578048,6.20088],[-75.57807,6.20088],[-75.578081,6.200861],[-75.57807,6.200842],[-75.578048,6.200842],[-75.578037,6.200861]]]}},{"type":"Feature","properties":{"h":6.8,"c":1,"sp":"Handroanthus chrysanthus","nc":"Guayacán amarillo"},"geometry":{"type":"Polygon","coordinates":[[[-75.577789,6.200065],[-75.577799,6.200082],[-75.577819,6.200082],[-75.577829,6.200065],[-75.577819,6.200048],[-75.577799,6.200048],[-75.577789,6.200065]]]}},{"type":"Feature","properties":{"h":6.7,"c":1,"sp":"Brownea ariza","nc":"Arizá"},"geometry":{"type":"Polygon","coordinates":[[[-75.578713,6.199045],[-75.578723,6.199062],[-75.578743,6.199062],[-75.578753,6.199045],[-75.578743,6.199028],[-75.578723,6.199028],[-75.578713,6.199045]]]}},{"type":"Feature","properties":{"h":6.6,"c":1,"sp":"Brownea stenantha","nc":"Ariza"},"geometry":{"type":"Polygon","coordinates":[[[-75.578828,6.199003],[-75.578836,6.199017],[-75.578852,6.199017],[-75.57886,6.199003],[-75.578852,6.198989],[-75.578836,6.198989],[-75.578828,6.199003]]]}},{"type":"Feature","properties":{"h":9.0,"c":1,"sp":"Bischofia javanica","nc":"Biscofia"},"geometry":{"type":"Polygon","coordinates":[[[-75.579414,6.199513],[-75.579425,6.199533],[-75.579449,6.199533],[-75.57946,6.199513],[-75.579449,6.199493],[-75.579425,6.199493],[-75.579414,6.199513]]]}},{"type":"Feature","properties":{"h":8.3,"c":1,"sp":"Bischofia javanica","nc":"Biscofia"},"geometry":{"type":"Polygon","coordinates":[[[-75.579425,6.199451],[-75.579436,6.199469],[-75.579456,6.199469],[-75.579467,6.199451],[-75.579456,6.199433],[-75.579436,6.199433],[-75.579425,6.199451]]]}},{"type":"Feature","properties":{"h":5.9,"c":1,"sp":"Tabebuia rosea","nc":"Apamate"},"geometry":{"type":"Polygon","coordinates":[[[-75.579434,6.19941],[-75.579442,6.199424],[-75.579458,6.199424],[-75.579466,6.19941],[-75.579458,6.199396],[-75.579442,6.199396],[-75.579434,6.19941]]]}},{"type":"Feature","properties":{"h":5.8,"c":1,"sp":"Coccoloba acuminata","nc":"Maiz tostado"},"geometry":{"type":"Polygon","coordinates":[[[-75.578454,6.197921],[-75.578461,6.197933],[-75.578475,6.197933],[-75.578482,6.197921],[-75.578475,6.197909],[-75.578461,6.197909],[-75.578454,6.197921]]]}},{"type":"Feature","properties":{"h":7.9,"c":1,"sp":"Billia rosea","nc":"Bilia"},"geometry":{"type":"Polygon","coordinates":[[[-75.578397,6.197978],[-75.578406,6.197993],[-75.578424,6.197993],[-75.578433,6.197978],[-75.578424,6.197963],[-75.578406,6.197963],[-75.578397,6.197978]]]}},{"type":"Feature","properties":{"h":8.3,"c":1,"sp":"Handroanthus chrysanthus","nc":"Guayacán amarillo"},"geometry":{"type":"Polygon","coordinates":[[[-75.579079,6.200111],[-75.579087,6.200126],[-75.579105,6.200126],[-75.579113,6.200111],[-75.579105,6.200096],[-75.579087,6.200096],[-75.579079,6.200111]]]}},{"type":"Feature","properties":{"h":8.8,"c":1,"sp":"Handroanthus chrysanthus","nc":"Guayacán amarillo"},"geometry":{"type":"Polygon","coordinates":[[[-75.57909,6.200082],[-75.579101,6.200101],[-75.579123,6.200101],[-75.579134,6.200082],[-75.579123,6.200063],[-75.579101,6.200063],[-75.57909,6.200082]]]}},{"type":"Feature","properties":{"h":4.5,"c":1,"sp":"Handroanthus chrysanthus","nc":"Guayacán amarillo"},"geometry":{"type":"Polygon","coordinates":[[[-75.579043,6.200102],[-75.579051,6.200116],[-75.579067,6.200116],[-75.579075,6.200102],[-75.579067,6.200088],[-75.579051,6.200088],[-75.579043,6.200102]]]}},{"type":"Feature","properties":{"h":8.6,"c":1,"sp":"Handroanthus chrysanthus","nc":"Guayacán amarillo"},"geometry":{"type":"Polygon","coordinates":[[[-75.579116,6.200112],[-75.579125,6.200128],[-75.579143,6.200128],[-75.579152,6.200112],[-75.579143,6.200096],[-75.579125,6.200096],[-75.579116,6.200112]]]}},{"type":"Feature","properties":{"h":8.9,"c":1,"sp":"Handroanthus chrysanthus","nc":"Guayacán amarillo"},"geometry":{"type":"Polygon","coordinates":[[[-75.579016,6.200146],[-75.579025,6.200161],[-75.579043,6.200161],[-75.579052,6.200146],[-75.579043,6.200131],[-75.579025,6.200131],[-75.579016,6.200146]]]}},{"type":"Feature","properties":{"h":4.8,"c":1,"sp":"Libidibia punctata","nc":"Ebano"},"geometry":{"type":"Polygon","coordinates":[[[-75.579252,6.19951],[-75.579262,6.199527],[-75.579282,6.199527],[-75.579292,6.19951],[-75.579282,6.199493],[-75.579262,6.199493],[-75.579252,6.19951]]]}},{"type":"Feature","properties":{"h":8.0,"c":1,"sp":"Libidibia punctata","nc":"Ebano"},"geometry":{"type":"Polygon","coordinates":[[[-75.579171,6.199513],[-75.579179,6.199527],[-75.579195,6.199527],[-75.579203,6.199513],[-75.579195,6.199499],[-75.579179,6.199499],[-75.579171,6.199513]]]}},{"type":"Feature","properties":{"h":4.9,"c":1,"sp":"Libidibia punctata","nc":"Ebano"},"geometry":{"type":"Polygon","coordinates":[[[-75.579112,6.199513],[-75.579121,6.199528],[-75.579137,6.199528],[-75.579146,6.199513],[-75.579137,6.199498],[-75.579121,6.199498],[-75.579112,6.199513]]]}},{"type":"Feature","properties":{"h":12.8,"c":1,"sp":"Syagrus sancona","nc":"Palma sancona"},"geometry":{"type":"Polygon","coordinates":[[[-75.579156,6.199289],[-75.57916,6.199296],[-75.579168,6.199296],[-75.579172,6.199289],[-75.579168,6.199282],[-75.57916,6.199282],[-75.579156,6.199289]]]}},{"type":"Feature","properties":{"h":7.7,"c":1,"sp":"Syagrus sancona","nc":"Palma sancona"},"geometry":{"type":"Polygon","coordinates":[[[-75.579177,6.199258],[-75.57918,6.199263],[-75.579186,6.199263],[-75.579189,6.199258],[-75.579186,6.199253],[-75.57918,6.199253],[-75.579177,6.199258]]]}},{"type":"Feature","properties":{"h":7.6,"c":1,"sp":"Syagrus sancona","nc":"Palma sancona"},"geometry":{"type":"Polygon","coordinates":[[[-75.579151,6.199236],[-75.579153,6.199241],[-75.579159,6.199241],[-75.579161,6.199236],[-75.579159,6.199231],[-75.579153,6.199231],[-75.579151,6.199236]]]}},{"type":"Feature","properties":{"h":11.8,"c":1,"sp":"Syagrus sancona","nc":"Palma sancona"},"geometry":{"type":"Polygon","coordinates":[[[-75.579145,6.199264],[-75.579148,6.199269],[-75.579154,6.199269],[-75.579157,6.199264],[-75.579154,6.199259],[-75.579148,6.199259],[-75.579145,6.199264]]]}},{"type":"Feature","properties":{"h":10.4,"c":1,"sp":"Syagrus sancona","nc":"Palma sancona"},"geometry":{"type":"Polygon","coordinates":[[[-75.579125,6.199204],[-75.579129,6.19921],[-75.579135,6.19921],[-75.579139,6.199204],[-75.579135,6.199198],[-75.579129,6.199198],[-75.579125,6.199204]]]}},{"type":"Feature","properties":{"h":8.1,"c":1,"sp":"Syagrus sancona","nc":"Palma sancona"},"geometry":{"type":"Polygon","coordinates":[[[-75.5791,6.19921],[-75.579104,6.199217],[-75.579112,6.199217],[-75.579116,6.19921],[-75.579112,6.199203],[-75.579104,6.199203],[-75.5791,6.19921]]]}},{"type":"Feature","properties":{"h":7.8,"c":1,"sp":"Syagrus romanzoffiana","nc":"Palma reina"},"geometry":{"type":"Polygon","coordinates":[[[-75.579062,6.199211],[-75.579066,6.199218],[-75.579074,6.199218],[-75.579078,6.199211],[-75.579074,6.199204],[-75.579066,6.199204],[-75.579062,6.199211]]]}},{"type":"Feature","properties":{"h":7.7,"c":1,"sp":"Syagrus romanzoffiana","nc":"Palma reina"},"geometry":{"type":"Polygon","coordinates":[[[-75.579062,6.199184],[-75.579066,6.19919],[-75.579072,6.19919],[-75.579076,6.199184],[-75.579072,6.199178],[-75.579066,6.199178],[-75.579062,6.199184]]]}},{"type":"Feature","properties":{"h":8.3,"c":1,"sp":"Syagrus sancona","nc":"Palma sancona"},"geometry":{"type":"Polygon","coordinates":[[[-75.579094,6.199181],[-75.579097,6.199186],[-75.579103,6.199186],[-75.579106,6.199181],[-75.579103,6.199176],[-75.579097,6.199176],[-75.579094,6.199181]]]}},{"type":"Feature","properties":{"h":12.8,"c":1,"sp":"Syagrus romanzoffiana","nc":"Palma reina"},"geometry":{"type":"Polygon","coordinates":[[[-75.579137,6.199177],[-75.579142,6.199184],[-75.57915,6.199184],[-75.579155,6.199177],[-75.57915,6.19917],[-75.579142,6.19917],[-75.579137,6.199177]]]}},{"type":"Feature","properties":{"h":8.8,"c":1,"sp":"Syagrus romanzoffiana","nc":"Palma reina"},"geometry":{"type":"Polygon","coordinates":[[[-75.579199,6.199177],[-75.579204,6.199185],[-75.579212,6.199185],[-75.579217,6.199177],[-75.579212,6.199169],[-75.579204,6.199169],[-75.579199,6.199177]]]}},{"type":"Feature","properties":{"h":8.3,"c":1,"sp":"Syagrus romanzoffiana","nc":"Palma reina"},"geometry":{"type":"Polygon","coordinates":[[[-75.579175,6.199158],[-75.579179,6.199164],[-75.579185,6.199164],[-75.579189,6.199158],[-75.579185,6.199152],[-75.579179,6.199152],[-75.579175,6.199158]]]}},{"type":"Feature","properties":{"h":12.1,"c":1,"sp":"Syagrus romanzoffiana","nc":"Palma reina"},"geometry":{"type":"Polygon","coordinates":[[[-75.579135,6.199152],[-75.579139,6.199159],[-75.579147,6.199159],[-75.579151,6.199152],[-75.579147,6.199145],[-75.579139,6.199145],[-75.579135,6.199152]]]}},{"type":"Feature","properties":{"h":7.6,"c":1,"sp":"Syagrus romanzoffiana","nc":"Palma reina"},"geometry":{"type":"Polygon","coordinates":[[[-75.579091,6.199151],[-75.579095,6.199159],[-75.579105,6.199159],[-75.579109,6.199151],[-75.579105,6.199143],[-75.579095,6.199143],[-75.579091,6.199151]]]}},{"type":"Feature","properties":{"h":8.3,"c":1,"sp":"Syagrus sancona","nc":"Palma sancona"},"geometry":{"type":"Polygon","coordinates":[[[-75.579115,6.19914],[-75.579118,6.199145],[-75.579124,6.199145],[-75.579127,6.19914],[-75.579124,6.199135],[-75.579118,6.199135],[-75.579115,6.19914]]]}},{"type":"Feature","properties":{"h":11.6,"c":1,"sp":"Syagrus romanzoffiana","nc":"Palma reina"},"geometry":{"type":"Polygon","coordinates":[[[-75.579178,6.199121],[-75.579181,6.199127],[-75.579187,6.199127],[-75.57919,6.199121],[-75.579187,6.199115],[-75.579181,6.199115],[-75.579178,6.199121]]]}},{"type":"Feature","properties":{"h":8.8,"c":1,"sp":"Syagrus sancona","nc":"Palma sancona"},"geometry":{"type":"Polygon","coordinates":[[[-75.579142,6.199107],[-75.579144,6.199112],[-75.57915,6.199112],[-75.579152,6.199107],[-75.57915,6.199102],[-75.579144,6.199102],[-75.579142,6.199107]]]}},{"type":"Feature","properties":{"h":7.5,"c":1,"sp":"Syagrus sancona","nc":"Palma sancona"},"geometry":{"type":"Polygon","coordinates":[[[-75.579101,6.199111],[-75.579105,6.199118],[-75.579113,6.199118],[-75.579117,6.199111],[-75.579113,6.199104],[-75.579105,6.199104],[-75.579101,6.199111]]]}},{"type":"Feature","properties":{"h":8.5,"c":1,"sp":"Syagrus romanzoffiana","nc":"Palma reina"},"geometry":{"type":"Polygon","coordinates":[[[-75.579064,6.199122],[-75.579068,6.199129],[-75.579076,6.199129],[-75.57908,6.199122],[-75.579076,6.199115],[-75.579068,6.199115],[-75.579064,6.199122]]]}},{"type":"Feature","properties":{"h":6.2,"c":1,"sp":"Spathodea campanulata","nc":"Tulipán Africano"},"geometry":{"type":"Polygon","coordinates":[[[-75.578669,6.199883],[-75.578678,6.199899],[-75.578696,6.199899],[-75.578705,6.199883],[-75.578696,6.199867],[-75.578678,6.199867],[-75.578669,6.199883]]]}},{"type":"Feature","properties":{"h":8.8,"c":1,"sp":"Spathodea campanulata","nc":"Tulipán Africano"},"geometry":{"type":"Polygon","coordinates":[[[-75.578668,6.199853],[-75.578677,6.199869],[-75.578695,6.199869],[-75.578704,6.199853],[-75.578695,6.199837],[-75.578677,6.199837],[-75.578668,6.199853]]]}},{"type":"Feature","properties":{"h":7.1,"c":1,"sp":"Spathodea campanulata","nc":"Tulipán Africano"},"geometry":{"type":"Polygon","coordinates":[[[-75.578664,6.199785],[-75.578675,6.199804],[-75.578697,6.199804],[-75.578708,6.199785],[-75.578697,6.199766],[-75.578675,6.199766],[-75.578664,6.199785]]]}},{"type":"Feature","properties":{"h":5.3,"c":1,"sp":"Pithecellobium dulce","nc":"Chiminango"},"geometry":{"type":"Polygon","coordinates":[[[-75.579301,6.200011],[-75.579308,6.200024],[-75.579324,6.200024],[-75.579331,6.200011],[-75.579324,6.199998],[-75.579308,6.199998],[-75.579301,6.200011]]]}},{"type":"Feature","properties":{"h":8.6,"c":1,"sp":"Erythrina poeppigiana","nc":"Cambulo"},"geometry":{"type":"Polygon","coordinates":[[[-75.579321,6.199834],[-75.579332,6.199853],[-75.579354,6.199853],[-75.579365,6.199834],[-75.579354,6.199815],[-75.579332,6.199815],[-75.579321,6.199834]]]}},{"type":"Feature","properties":{"h":5.6,"c":1,"sp":"Lafoensia punicifolia","nc":"Guayacán de Manizales"},"geometry":{"type":"Polygon","coordinates":[[[-75.5792,6.199875],[-75.579207,6.199888],[-75.579223,6.199888],[-75.57923,6.199875],[-75.579223,6.199862],[-75.579207,6.199862],[-75.5792,6.199875]]]}},{"type":"Feature","properties":{"h":7.8,"c":1,"sp":"Melicoccus bijugatus","nc":"Mamoncillo"},"geometry":{"type":"Polygon","coordinates":[[[-75.578978,6.199239],[-75.57899,6.199259],[-75.579012,6.199259],[-75.579024,6.199239],[-75.579012,6.199219],[-75.57899,6.199219],[-75.578978,6.199239]]]}},{"type":"Feature","properties":{"h":5.4,"c":1,"sp":"Jacaranda mimosifolia","nc":"Jacaranda"},"geometry":{"type":"Polygon","coordinates":[[[-75.578029,6.201513],[-75.578041,6.201533],[-75.578063,6.201533],[-75.578075,6.201513],[-75.578063,6.201493],[-75.578041,6.201493],[-75.578029,6.201513]]]}},{"type":"Feature","properties":{"h":8.5,"c":1,"sp":"Jacaranda mimosifolia","nc":"Jacaranda"},"geometry":{"type":"Polygon","coordinates":[[[-75.578003,6.201899],[-75.578013,6.201916],[-75.578033,6.201916],[-75.578043,6.201899],[-75.578033,6.201882],[-75.578013,6.201882],[-75.578003,6.201899]]]}},{"type":"Feature","properties":{"h":6.4,"c":1,"sp":"Spathodea campanulata","nc":"Tulipán Africano"},"geometry":{"type":"Polygon","coordinates":[[[-75.578015,6.201954],[-75.578023,6.201967],[-75.578037,6.201967],[-75.578045,6.201954],[-75.578037,6.201941],[-75.578023,6.201941],[-75.578015,6.201954]]]}},{"type":"Feature","properties":{"h":4.7,"c":1,"sp":"Jacaranda mimosifolia","nc":"Jacaranda"},"geometry":{"type":"Polygon","coordinates":[[[-75.577982,6.202085],[-75.577993,6.202105],[-75.578017,6.202105],[-75.578028,6.202085],[-75.578017,6.202065],[-75.577993,6.202065],[-75.577982,6.202085]]]}},{"type":"Feature","properties":{"h":5.6,"c":1,"sp":"Jacaranda mimosifolia","nc":"Jacaranda"},"geometry":{"type":"Polygon","coordinates":[[[-75.577944,6.202175],[-75.577955,6.202193],[-75.577975,6.202193],[-75.577986,6.202175],[-75.577975,6.202157],[-75.577955,6.202157],[-75.577944,6.202175]]]}},{"type":"Feature","properties":{"h":5.7,"c":1,"sp":"Jacaranda mimosifolia","nc":"Jacaranda"},"geometry":{"type":"Polygon","coordinates":[[[-75.577922,6.20246],[-75.577933,6.202479],[-75.577955,6.202479],[-75.577966,6.20246],[-75.577955,6.202441],[-75.577933,6.202441],[-75.577922,6.20246]]]}},{"type":"Feature","properties":{"h":7.2,"c":1,"sp":"Jacaranda mimosifolia","nc":"Jacaranda"},"geometry":{"type":"Polygon","coordinates":[[[-75.577926,6.202534],[-75.577934,6.202548],[-75.57795,6.202548],[-75.577958,6.202534],[-75.57795,6.20252],[-75.577934,6.20252],[-75.577926,6.202534]]]}},{"type":"Feature","properties":{"h":5.3,"c":1,"sp":"Jacaranda mimosifolia","nc":"Jacaranda"},"geometry":{"type":"Polygon","coordinates":[[[-75.57795,6.202849],[-75.577961,6.202867],[-75.577981,6.202867],[-75.577992,6.202849],[-75.577981,6.202831],[-75.577961,6.202831],[-75.57795,6.202849]]]}},{"type":"Feature","properties":{"h":4.8,"c":1,"sp":"Triplaris americana","nc":"Vara santa"},"geometry":{"type":"Polygon","coordinates":[[[-75.577855,6.202907],[-75.577863,6.202921],[-75.577879,6.202921],[-75.577887,6.202907],[-75.577879,6.202893],[-75.577863,6.202893],[-75.577855,6.202907]]]}},{"type":"Feature","properties":{"h":7.0,"c":1,"sp":"Anacardium excelsum","nc":"Caracolí"},"geometry":{"type":"Polygon","coordinates":[[[-75.578796,6.202251],[-75.578807,6.20227],[-75.578829,6.20227],[-75.57884,6.202251],[-75.578829,6.202232],[-75.578807,6.202232],[-75.578796,6.202251]]]}},{"type":"Feature","properties":{"h":7.3,"c":1,"sp":"Fraxinus uhdei","nc":"Urapán"},"geometry":{"type":"Polygon","coordinates":[[[-75.578725,6.200597],[-75.578733,6.200611],[-75.578749,6.200611],[-75.578757,6.200597],[-75.578749,6.200583],[-75.578733,6.200583],[-75.578725,6.200597]]]}},{"type":"Feature","properties":{"h":8.6,"c":1,"sp":"Fraxinus uhdei","nc":"Urapán"},"geometry":{"type":"Polygon","coordinates":[[[-75.578782,6.200598],[-75.57879,6.200612],[-75.578806,6.200612],[-75.578814,6.200598],[-75.578806,6.200584],[-75.57879,6.200584],[-75.578782,6.200598]]]}},{"type":"Feature","properties":{"h":4.6,"c":1,"sp":"Schinus terebinthifolia","nc":"Turibinto"},"geometry":{"type":"Polygon","coordinates":[[[-75.578609,6.200607],[-75.578617,6.200621],[-75.578633,6.200621],[-75.578641,6.200607],[-75.578633,6.200593],[-75.578617,6.200593],[-75.578609,6.200607]]]}},{"type":"Feature","properties":{"h":6.5,"c":1,"sp":"Schinus terebinthifolia","nc":"Turibinto"},"geometry":{"type":"Polygon","coordinates":[[[-75.578576,6.200657],[-75.578583,6.200669],[-75.578597,6.200669],[-75.578604,6.200657],[-75.578597,6.200645],[-75.578583,6.200645],[-75.578576,6.200657]]]}},{"type":"Feature","properties":{"h":5.3,"c":1,"sp":"Schinus terebinthifolia","nc":"Turibinto"},"geometry":{"type":"Polygon","coordinates":[[[-75.578657,6.200627],[-75.578665,6.200642],[-75.578683,6.200642],[-75.578691,6.200627],[-75.578683,6.200612],[-75.578665,6.200612],[-75.578657,6.200627]]]}},{"type":"Feature","properties":{"h":7.1,"c":1,"sp":"Schinus terebinthifolia","nc":"Turibinto"},"geometry":{"type":"Polygon","coordinates":[[[-75.578691,6.200675],[-75.578699,6.200688],[-75.578713,6.200688],[-75.578721,6.200675],[-75.578713,6.200662],[-75.578699,6.200662],[-75.578691,6.200675]]]}},{"type":"Feature","properties":{"h":6.1,"c":1,"sp":"Schinus terebinthifolia","nc":"Turibinto"},"geometry":{"type":"Polygon","coordinates":[[[-75.578627,6.200747],[-75.578638,6.200766],[-75.57866,6.200766],[-75.578671,6.200747],[-75.57866,6.200728],[-75.578638,6.200728],[-75.578627,6.200747]]]}},{"type":"Feature","properties":{"h":8.9,"c":1,"sp":"Schinus terebinthifolia","nc":"Turibinto"},"geometry":{"type":"Polygon","coordinates":[[[-75.578581,6.200803],[-75.578591,6.20082],[-75.578611,6.20082],[-75.578621,6.200803],[-75.578611,6.200786],[-75.578591,6.200786],[-75.578581,6.200803]]]}},{"type":"Feature","properties":{"h":7.6,"c":1,"sp":"Schinus terebinthifolia","nc":"Turibinto"},"geometry":{"type":"Polygon","coordinates":[[[-75.578734,6.200806],[-75.578743,6.200823],[-75.578763,6.200823],[-75.578772,6.200806],[-75.578763,6.200789],[-75.578743,6.200789],[-75.578734,6.200806]]]}},{"type":"Feature","properties":{"h":5.1,"c":1,"sp":"Schinus terebinthifolia","nc":"Turibinto"},"geometry":{"type":"Polygon","coordinates":[[[-75.578821,6.200785],[-75.578828,6.200797],[-75.578842,6.200797],[-75.578849,6.200785],[-75.578842,6.200773],[-75.578828,6.200773],[-75.578821,6.200785]]]}},{"type":"Feature","properties":{"h":4.6,"c":1,"sp":"Schinus terebinthifolia","nc":"Turibinto"},"geometry":{"type":"Polygon","coordinates":[[[-75.578748,6.200762],[-75.57876,6.200782],[-75.578782,6.200782],[-75.578794,6.200762],[-75.578782,6.200742],[-75.57876,6.200742],[-75.578748,6.200762]]]}},{"type":"Feature","properties":{"h":7.7,"c":1,"sp":"Schinus terebinthifolia","nc":"Turibinto"},"geometry":{"type":"Polygon","coordinates":[[[-75.578757,6.20069],[-75.578768,6.20071],[-75.578792,6.20071],[-75.578803,6.20069],[-75.578792,6.20067],[-75.578768,6.20067],[-75.578757,6.20069]]]}},{"type":"Feature","properties":{"h":4.6,"c":1,"sp":"Schinus terebinthifolia","nc":"Turibinto"},"geometry":{"type":"Polygon","coordinates":[[[-75.578809,6.200733],[-75.578819,6.20075],[-75.578839,6.20075],[-75.578849,6.200733],[-75.578839,6.200716],[-75.578819,6.200716],[-75.578809,6.200733]]]}},{"type":"Feature","properties":{"h":6.7,"c":1,"sp":"Schinus terebinthifolia","nc":"Turibinto"},"geometry":{"type":"Polygon","coordinates":[[[-75.578818,6.200699],[-75.578829,6.200717],[-75.578849,6.200717],[-75.57886,6.200699],[-75.578849,6.200681],[-75.578829,6.200681],[-75.578818,6.200699]]]}},{"type":"Feature","properties":{"h":5.9,"c":1,"sp":"Schinus terebinthifolia","nc":"Turibinto"},"geometry":{"type":"Polygon","coordinates":[[[-75.578808,6.200625],[-75.578819,6.200645],[-75.578843,6.200645],[-75.578854,6.200625],[-75.578843,6.200605],[-75.578819,6.200605],[-75.578808,6.200625]]]}},{"type":"Feature","properties":{"h":4.8,"c":1,"sp":"Schinus terebinthifolia","nc":"Turibinto"},"geometry":{"type":"Polygon","coordinates":[[[-75.578844,6.200641],[-75.578854,6.200657],[-75.578872,6.200657],[-75.578882,6.200641],[-75.578872,6.200625],[-75.578854,6.200625],[-75.578844,6.200641]]]}},{"type":"Feature","properties":{"h":7.8,"c":1,"sp":"Schinus terebinthifolia","nc":"Turibinto"},"geometry":{"type":"Polygon","coordinates":[[[-75.578895,6.200622],[-75.578907,6.200642],[-75.578929,6.200642],[-75.578941,6.200622],[-75.578929,6.200602],[-75.578907,6.200602],[-75.578895,6.200622]]]}},{"type":"Feature","properties":{"h":7.8,"c":1,"sp":"Schinus terebinthifolia","nc":"Turibinto"},"geometry":{"type":"Polygon","coordinates":[[[-75.578887,6.200703],[-75.578898,6.200721],[-75.578918,6.200721],[-75.578929,6.200703],[-75.578918,6.200685],[-75.578898,6.200685],[-75.578887,6.200703]]]}},{"type":"Feature","properties":{"h":8.1,"c":1,"sp":"Schinus terebinthifolia","nc":"Turibinto"},"geometry":{"type":"Polygon","coordinates":[[[-75.578937,6.200729],[-75.578949,6.200749],[-75.578971,6.200749],[-75.578983,6.200729],[-75.578971,6.200709],[-75.578949,6.200709],[-75.578937,6.200729]]]}},{"type":"Feature","properties":{"h":6.1,"c":1,"sp":"Schinus terebinthifolia","nc":"Turibinto"},"geometry":{"type":"Polygon","coordinates":[[[-75.578928,6.200795],[-75.578938,6.200813],[-75.578958,6.200813],[-75.578968,6.200795],[-75.578958,6.200777],[-75.578938,6.200777],[-75.578928,6.200795]]]}},{"type":"Feature","properties":{"h":8.6,"c":1,"sp":"Schinus terebinthifolia","nc":"Turibinto"},"geometry":{"type":"Polygon","coordinates":[[[-75.578863,6.200834],[-75.578874,6.200853],[-75.578896,6.200853],[-75.578907,6.200834],[-75.578896,6.200815],[-75.578874,6.200815],[-75.578863,6.200834]]]}},{"type":"Feature","properties":{"h":6.4,"c":1,"sp":"Jacaranda mimosifolia","nc":"Jacaranda"},"geometry":{"type":"Polygon","coordinates":[[[-75.577944,6.200987],[-75.577954,6.201006],[-75.577976,6.201006],[-75.577986,6.200987],[-75.577976,6.200968],[-75.577954,6.200968],[-75.577944,6.200987]]]}},{"type":"Feature","properties":{"h":8.4,"c":1,"sp":"Jacaranda mimosifolia","nc":"Jacaranda"},"geometry":{"type":"Polygon","coordinates":[[[-75.577946,6.201045],[-75.577955,6.201062],[-75.577975,6.201062],[-75.577984,6.201045],[-75.577975,6.201028],[-75.577955,6.201028],[-75.577946,6.201045]]]}},{"type":"Feature","properties":{"h":7.3,"c":1,"sp":"Jacaranda mimosifolia","nc":"Jacaranda"},"geometry":{"type":"Polygon","coordinates":[[[-75.577952,6.201075],[-75.57796,6.20109],[-75.577978,6.20109],[-75.577986,6.201075],[-75.577978,6.20106],[-75.57796,6.20106],[-75.577952,6.201075]]]}},{"type":"Feature","properties":{"h":7.1,"c":1,"sp":"Jacaranda mimosifolia","nc":"Jacaranda"},"geometry":{"type":"Polygon","coordinates":[[[-75.577949,6.201117],[-75.577959,6.201134],[-75.577979,6.201134],[-75.577989,6.201117],[-75.577979,6.2011],[-75.577959,6.2011],[-75.577949,6.201117]]]}},{"type":"Feature","properties":{"h":4.9,"c":1,"sp":"Jacaranda mimosifolia","nc":"Jacaranda"},"geometry":{"type":"Polygon","coordinates":[[[-75.577951,6.20118],[-75.577961,6.201197],[-75.577981,6.201197],[-75.577991,6.20118],[-75.577981,6.201163],[-75.577961,6.201163],[-75.577951,6.20118]]]}},{"type":"Feature","properties":{"h":9.0,"c":1,"sp":"Jacaranda mimosifolia","nc":"Jacaranda"},"geometry":{"type":"Polygon","coordinates":[[[-75.577947,6.201255],[-75.577958,6.201274],[-75.57798,6.201274],[-75.577991,6.201255],[-75.57798,6.201236],[-75.577958,6.201236],[-75.577947,6.201255]]]}},{"type":"Feature","properties":{"h":7.8,"c":1,"sp":"Jacaranda mimosifolia","nc":"Jacaranda"},"geometry":{"type":"Polygon","coordinates":[[[-75.577952,6.201311],[-75.57796,6.201326],[-75.577978,6.201326],[-75.577986,6.201311],[-75.577978,6.201296],[-75.57796,6.201296],[-75.577952,6.201311]]]}},{"type":"Feature","properties":{"h":7.8,"c":1,"sp":"Jacaranda mimosifolia","nc":"Jacaranda"},"geometry":{"type":"Polygon","coordinates":[[[-75.577958,6.20146],[-75.577967,6.201477],[-75.577987,6.201477],[-75.577996,6.20146],[-75.577987,6.201443],[-75.577967,6.201443],[-75.577958,6.20146]]]}},{"type":"Feature","properties":{"h":6.5,"c":1,"sp":"Jacaranda mimosifolia","nc":"Jacaranda"},"geometry":{"type":"Polygon","coordinates":[[[-75.57796,6.201505],[-75.577971,6.201524],[-75.577993,6.201524],[-75.578004,6.201505],[-75.577993,6.201486],[-75.577971,6.201486],[-75.57796,6.201505]]]}},{"type":"Feature","properties":{"h":4.9,"c":1,"sp":"Jacaranda mimosifolia","nc":"Jacaranda"},"geometry":{"type":"Polygon","coordinates":[[[-75.577953,6.201564],[-75.577963,6.201582],[-75.577985,6.201582],[-75.577995,6.201564],[-75.577985,6.201546],[-75.577963,6.201546],[-75.577953,6.201564]]]}},{"type":"Feature","properties":{"h":4.6,"c":1,"sp":"Jacaranda mimosifolia","nc":"Jacaranda"},"geometry":{"type":"Polygon","coordinates":[[[-75.577959,6.201617],[-75.577969,6.201634],[-75.577989,6.201634],[-75.577999,6.201617],[-75.577989,6.2016],[-75.577969,6.2016],[-75.577959,6.201617]]]}},{"type":"Feature","properties":{"h":6.7,"c":1,"sp":"Jacaranda mimosifolia","nc":"Jacaranda"},"geometry":{"type":"Polygon","coordinates":[[[-75.577962,6.20168],[-75.57797,6.201694],[-75.577986,6.201694],[-75.577994,6.20168],[-75.577986,6.201666],[-75.57797,6.201666],[-75.577962,6.20168]]]}},{"type":"Feature","properties":{"h":7.6,"c":1,"sp":"Jacaranda mimosifolia","nc":"Jacaranda"},"geometry":{"type":"Polygon","coordinates":[[[-75.577951,6.201727],[-75.57796,6.201743],[-75.577978,6.201743],[-75.577987,6.201727],[-75.577978,6.201711],[-75.57796,6.201711],[-75.577951,6.201727]]]}},{"type":"Feature","properties":{"h":7.3,"c":1,"sp":"Jacaranda mimosifolia","nc":"Jacaranda"},"geometry":{"type":"Polygon","coordinates":[[[-75.577947,6.201759],[-75.577959,6.201779],[-75.577981,6.201779],[-75.577993,6.201759],[-75.577981,6.201739],[-75.577959,6.201739],[-75.577947,6.201759]]]}},{"type":"Feature","properties":{"h":5.7,"c":1,"sp":"Anacardium excelsum","nc":"Caracolí"},"geometry":{"type":"Polygon","coordinates":[[[-75.578665,6.202199],[-75.578672,6.202211],[-75.578686,6.202211],[-75.578693,6.202199],[-75.578686,6.202187],[-75.578672,6.202187],[-75.578665,6.202199]]]}},{"type":"Feature","properties":{"h":5.9,"c":1,"sp":"Calliandra pittieri","nc":"Carbonero"},"geometry":{"type":"Polygon","coordinates":[[[-75.57876,6.201353],[-75.57877,6.201371],[-75.57879,6.201371],[-75.5788,6.201353],[-75.57879,6.201335],[-75.57877,6.201335],[-75.57876,6.201353]]]}},{"type":"Feature","properties":{"h":5.4,"c":1,"sp":"Calliandra pittieri","nc":"Carbonero"},"geometry":{"type":"Polygon","coordinates":[[[-75.578771,6.201405],[-75.578778,6.201418],[-75.578794,6.201418],[-75.578801,6.201405],[-75.578794,6.201392],[-75.578778,6.201392],[-75.578771,6.201405]]]}},{"type":"Feature","properties":{"h":8.6,"c":1,"sp":"Calliandra pittieri","nc":"Carbonero"},"geometry":{"type":"Polygon","coordinates":[[[-75.57863,6.201351],[-75.57864,6.201368],[-75.57866,6.201368],[-75.57867,6.201351],[-75.57866,6.201334],[-75.57864,6.201334],[-75.57863,6.201351]]]}},{"type":"Feature","properties":{"h":6.5,"c":1,"sp":"Palicourea guianensis","nc":"_"},"geometry":{"type":"Polygon","coordinates":[[[-75.577847,6.20291],[-75.577858,6.202929],[-75.57788,6.202929],[-75.577891,6.20291],[-75.57788,6.202891],[-75.577858,6.202891],[-75.577847,6.20291]]]}},{"type":"Feature","properties":{"h":6.0,"c":1,"sp":"Cananga odorata","nc":"Cadmio"},"geometry":{"type":"Polygon","coordinates":[[[-75.577952,6.202933],[-75.577962,6.20295],[-75.577982,6.20295],[-75.577992,6.202933],[-75.577982,6.202916],[-75.577962,6.202916],[-75.577952,6.202933]]]}},{"type":"Feature","properties":{"h":5.4,"c":1,"sp":"Jacaranda mimosifolia","nc":"Jacaranda"},"geometry":{"type":"Polygon","coordinates":[[[-75.577962,6.202673],[-75.577971,6.202688],[-75.577989,6.202688],[-75.577998,6.202673],[-75.577989,6.202658],[-75.577971,6.202658],[-75.577962,6.202673]]]}},{"type":"Feature","properties":{"h":8.1,"c":1,"sp":"Jacaranda mimosifolia","nc":"Jacaranda"},"geometry":{"type":"Polygon","coordinates":[[[-75.577962,6.20259],[-75.577974,6.20261],[-75.577996,6.20261],[-75.578008,6.20259],[-75.577996,6.20257],[-75.577974,6.20257],[-75.577962,6.20259]]]}},{"type":"Feature","properties":{"h":8.5,"c":1,"sp":"Jacaranda mimosifolia","nc":"Jacaranda"},"geometry":{"type":"Polygon","coordinates":[[[-75.577968,6.202634],[-75.577976,6.202649],[-75.577994,6.202649],[-75.578002,6.202634],[-75.577994,6.202619],[-75.577976,6.202619],[-75.577968,6.202634]]]}},{"type":"Feature","properties":{"h":7.1,"c":1,"sp":"Jacaranda mimosifolia","nc":"Jacaranda"},"geometry":{"type":"Polygon","coordinates":[[[-75.577986,6.202054],[-75.577995,6.202068],[-75.578011,6.202068],[-75.57802,6.202054],[-75.578011,6.20204],[-75.577995,6.20204],[-75.577986,6.202054]]]}},{"type":"Feature","properties":{"h":5.1,"c":1,"sp":"Jacaranda mimosifolia","nc":"Jacaranda"},"geometry":{"type":"Polygon","coordinates":[[[-75.577962,6.201748],[-75.577971,6.201764],[-75.577989,6.201764],[-75.577998,6.201748],[-75.577989,6.201732],[-75.577971,6.201732],[-75.577962,6.201748]]]}},{"type":"Feature","properties":{"h":8.3,"c":1,"sp":"Jacaranda mimosifolia","nc":"Jacaranda"},"geometry":{"type":"Polygon","coordinates":[[[-75.577971,6.201695],[-75.577982,6.201714],[-75.578004,6.201714],[-75.578015,6.201695],[-75.578004,6.201676],[-75.577982,6.201676],[-75.577971,6.201695]]]}},{"type":"Feature","properties":{"h":7.7,"c":1,"sp":"Jacaranda mimosifolia","nc":"Jacaranda"},"geometry":{"type":"Polygon","coordinates":[[[-75.577963,6.201645],[-75.577975,6.201665],[-75.577997,6.201665],[-75.578009,6.201645],[-75.577997,6.201625],[-75.577975,6.201625],[-75.577963,6.201645]]]}},{"type":"Feature","properties":{"h":5.7,"c":1,"sp":"Jacaranda mimosifolia","nc":"Jacaranda"},"geometry":{"type":"Polygon","coordinates":[[[-75.577974,6.201493],[-75.577981,6.201506],[-75.577997,6.201506],[-75.578004,6.201493],[-75.577997,6.20148],[-75.577981,6.20148],[-75.577974,6.201493]]]}},{"type":"Feature","properties":{"h":6.5,"c":1,"sp":"Wodyetia bifurcata","nc":"Cola de zorro"},"geometry":{"type":"Polygon","coordinates":[[[-75.578797,6.200211],[-75.578805,6.200225],[-75.578821,6.200225],[-75.578829,6.200211],[-75.578821,6.200197],[-75.578805,6.200197],[-75.578797,6.200211]]]}},{"type":"Feature","properties":{"h":5.5,"c":1,"sp":"Hibiscus tiliaceus","nc":"Majaguo"},"geometry":{"type":"Polygon","coordinates":[[[-75.577525,6.201596],[-75.577534,6.201611],[-75.577552,6.201611],[-75.577561,6.201596],[-75.577552,6.201581],[-75.577534,6.201581],[-75.577525,6.201596]]]}},{"type":"Feature","properties":{"h":7.3,"c":1,"sp":"Calliandra pittieri","nc":"Carbonero"},"geometry":{"type":"Polygon","coordinates":[[[-75.578698,6.20135],[-75.578707,6.201366],[-75.578725,6.201366],[-75.578734,6.20135],[-75.578725,6.201334],[-75.578707,6.201334],[-75.578698,6.20135]]]}},{"type":"Feature","properties":{"h":5.9,"c":1,"sp":"Calliandra pittieri","nc":"Carbonero"},"geometry":{"type":"Polygon","coordinates":[[[-75.578697,6.201405],[-75.578708,6.201424],[-75.57873,6.201424],[-75.578741,6.201405],[-75.57873,6.201386],[-75.578708,6.201386],[-75.578697,6.201405]]]}},{"type":"Feature","properties":{"h":8.9,"c":1,"sp":"Calliandra pittieri","nc":"Carbonero"},"geometry":{"type":"Polygon","coordinates":[[[-75.578625,6.201407],[-75.578634,6.201423],[-75.578652,6.201423],[-75.578661,6.201407],[-75.578652,6.201391],[-75.578634,6.201391],[-75.578625,6.201407]]]}},{"type":"Feature","properties":{"h":4.8,"c":1,"sp":"Calliandra pittieri","nc":"Carbonero"},"geometry":{"type":"Polygon","coordinates":[[[-75.578207,6.201365],[-75.578214,6.201377],[-75.578228,6.201377],[-75.578235,6.201365],[-75.578228,6.201353],[-75.578214,6.201353],[-75.578207,6.201365]]]}},{"type":"Feature","properties":{"h":8.4,"c":1,"sp":"Calliandra pittieri","nc":"Carbonero"},"geometry":{"type":"Polygon","coordinates":[[[-75.57821,6.201411],[-75.578217,6.201423],[-75.578231,6.201423],[-75.578238,6.201411],[-75.578231,6.201399],[-75.578217,6.201399],[-75.57821,6.201411]]]}},{"type":"Feature","properties":{"h":7.7,"c":1,"sp":"Calliandra pittieri","nc":"Carbonero"},"geometry":{"type":"Polygon","coordinates":[[[-75.578114,6.201337],[-75.578123,6.201354],[-75.578143,6.201354],[-75.578152,6.201337],[-75.578143,6.20132],[-75.578123,6.20132],[-75.578114,6.201337]]]}},{"type":"Feature","properties":{"h":5.9,"c":1,"sp":"Calliandra pittieri","nc":"Carbonero"},"geometry":{"type":"Polygon","coordinates":[[[-75.578123,6.201413],[-75.578133,6.201432],[-75.578155,6.201432],[-75.578165,6.201413],[-75.578155,6.201394],[-75.578133,6.201394],[-75.578123,6.201413]]]}},{"type":"Feature","properties":{"h":4.6,"c":1,"sp":"Isertia haenkeana","nc":"Coralillo"},"geometry":{"type":"Polygon","coordinates":[[[-75.578948,6.202363],[-75.578956,6.202376],[-75.57897,6.202376],[-75.578978,6.202363],[-75.57897,6.20235],[-75.578956,6.20235],[-75.578948,6.202363]]]}},{"type":"Feature","properties":{"h":6.5,"c":1,"sp":"Isertia haenkeana","nc":"Coralillo"},"geometry":{"type":"Polygon","coordinates":[[[-75.578947,6.202342],[-75.578954,6.202354],[-75.578968,6.202354],[-75.578975,6.202342],[-75.578968,6.20233],[-75.578954,6.20233],[-75.578947,6.202342]]]}},{"type":"Feature","properties":{"h":8.2,"c":1,"sp":"Hamelia patens","nc":"Coralito"},"geometry":{"type":"Polygon","coordinates":[[[-75.578946,6.202583],[-75.578954,6.202597],[-75.57897,6.202597],[-75.578978,6.202583],[-75.57897,6.202569],[-75.578954,6.202569],[-75.578946,6.202583]]]}},{"type":"Feature","properties":{"h":5.1,"c":1,"sp":"Hamelia patens","nc":"Coralito"},"geometry":{"type":"Polygon","coordinates":[[[-75.578945,6.202677],[-75.578952,6.202689],[-75.578966,6.202689],[-75.578973,6.202677],[-75.578966,6.202665],[-75.578952,6.202665],[-75.578945,6.202677]]]}},{"type":"Feature","properties":{"h":7.3,"c":1,"sp":"Dracaena reflexa","nc":"Yuca"},"geometry":{"type":"Polygon","coordinates":[[[-75.578875,6.200057],[-75.578884,6.200073],[-75.578902,6.200073],[-75.578911,6.200057],[-75.578902,6.200041],[-75.578884,6.200041],[-75.578875,6.200057]]]}},{"type":"Feature","properties":{"h":7.3,"c":1,"sp":"Dracaena reflexa","nc":"Yuca"},"geometry":{"type":"Polygon","coordinates":[[[-75.578932,6.200046],[-75.578942,6.200063],[-75.578962,6.200063],[-75.578972,6.200046],[-75.578962,6.200029],[-75.578942,6.200029],[-75.578932,6.200046]]]}},{"type":"Feature","properties":{"h":8.1,"c":1,"sp":"Dracaena reflexa","nc":"Yuca"},"geometry":{"type":"Polygon","coordinates":[[[-75.578898,6.200058],[-75.578909,6.200078],[-75.578933,6.200078],[-75.578944,6.200058],[-75.578933,6.200038],[-75.578909,6.200038],[-75.578898,6.200058]]]}},{"type":"Feature","properties":{"h":7.6,"c":1,"sp":"Dracaena reflexa","nc":"Yuca"},"geometry":{"type":"Polygon","coordinates":[[[-75.578892,6.200037],[-75.5789,6.20005],[-75.578916,6.20005],[-75.578924,6.200037],[-75.578916,6.200024],[-75.5789,6.200024],[-75.578892,6.200037]]]}},{"type":"Feature","properties":{"h":6.6,"c":1,"sp":"Schinus molle","nc":"Falso pimiento"},"geometry":{"type":"Polygon","coordinates":[[[-75.578519,6.200048],[-75.578526,6.200061],[-75.578542,6.200061],[-75.578549,6.200048],[-75.578542,6.200035],[-75.578526,6.200035],[-75.578519,6.200048]]]}},{"type":"Feature","properties":{"h":4.5,"c":1,"sp":"Erythrina fusca","nc":"Búcaro"},"geometry":{"type":"Polygon","coordinates":[[[-75.578256,6.197994],[-75.578265,6.19801],[-75.578283,6.19801],[-75.578292,6.197994],[-75.578283,6.197978],[-75.578265,6.197978],[-75.578256,6.197994]]]}},{"type":"Feature","properties":{"h":7.7,"c":1,"sp":"Ardisia elliptica","nc":"Ardisia"},"geometry":{"type":"Polygon","coordinates":[[[-75.579814,6.197303],[-75.579821,6.197316],[-75.579837,6.197316],[-75.579844,6.197303],[-75.579837,6.19729],[-75.579821,6.19729],[-75.579814,6.197303]]]}},{"type":"Feature","properties":{"h":5.7,"c":1,"sp":"Ardisia elliptica","nc":"Ardisia"},"geometry":{"type":"Polygon","coordinates":[[[-75.579747,6.197291],[-75.579756,6.197306],[-75.579772,6.197306],[-75.579781,6.197291],[-75.579772,6.197276],[-75.579756,6.197276],[-75.579747,6.197291]]]}},{"type":"Feature","properties":{"h":7.6,"c":1,"sp":"Hibiscus tiliaceus","nc":"Majaguo"},"geometry":{"type":"Polygon","coordinates":[[[-75.578278,6.200545],[-75.578288,6.200561],[-75.578306,6.200561],[-75.578316,6.200545],[-75.578306,6.200529],[-75.578288,6.200529],[-75.578278,6.200545]]]}},{"type":"Feature","properties":{"h":7.3,"c":1,"sp":"Desconocida","nc":"_"},"geometry":{"type":"Polygon","coordinates":[[[-75.577787,6.2001],[-75.577797,6.200118],[-75.577819,6.200118],[-75.577829,6.2001],[-75.577819,6.200082],[-75.577797,6.200082],[-75.577787,6.2001]]]}},{"type":"Feature","properties":{"h":6.3,"c":1,"sp":"Terminalia ivorensis","nc":"Terminalia"},"geometry":{"type":"Polygon","coordinates":[[[-75.57938,6.197501],[-75.57939,6.19752],[-75.579412,6.19752],[-75.579422,6.197501],[-75.579412,6.197482],[-75.57939,6.197482],[-75.57938,6.197501]]]}},{"type":"Feature","properties":{"h":8.6,"c":1,"sp":"Terminalia ivorensis","nc":"Terminalia"},"geometry":{"type":"Polygon","coordinates":[[[-75.579154,6.197465],[-75.579161,6.197477],[-75.579175,6.197477],[-75.579182,6.197465],[-75.579175,6.197453],[-75.579161,6.197453],[-75.579154,6.197465]]]}},{"type":"Feature","properties":{"h":8.7,"c":1,"sp":"Terminalia ivorensis","nc":"Terminalia"},"geometry":{"type":"Polygon","coordinates":[[[-75.579002,6.197447],[-75.579013,6.197465],[-75.579033,6.197465],[-75.579044,6.197447],[-75.579033,6.197429],[-75.579013,6.197429],[-75.579002,6.197447]]]}},{"type":"Feature","properties":{"h":5.1,"c":1,"sp":"Terminalia buceras","nc":"Olivo negro"},"geometry":{"type":"Polygon","coordinates":[[[-75.578418,6.197927],[-75.578427,6.197943],[-75.578445,6.197943],[-75.578454,6.197927],[-75.578445,6.197911],[-75.578427,6.197911],[-75.578418,6.197927]]]}},{"type":"Feature","properties":{"h":7.3,"c":1,"sp":"Terminalia buceras","nc":"Olivo negro"},"geometry":{"type":"Polygon","coordinates":[[[-75.578407,6.197957],[-75.578419,6.197977],[-75.578441,6.197977],[-75.578453,6.197957],[-75.578441,6.197937],[-75.578419,6.197937],[-75.578407,6.197957]]]}},{"type":"Feature","properties":{"h":6.2,"c":1,"sp":"Terminalia buceras","nc":"Olivo negro"},"geometry":{"type":"Polygon","coordinates":[[[-75.578365,6.197941],[-75.578374,6.197958],[-75.578394,6.197958],[-75.578403,6.197941],[-75.578394,6.197924],[-75.578374,6.197924],[-75.578365,6.197941]]]}},{"type":"Feature","properties":{"h":8.5,"c":1,"sp":"Terminalia buceras","nc":"Olivo negro"},"geometry":{"type":"Polygon","coordinates":[[[-75.578351,6.197972],[-75.578361,6.197991],[-75.578383,6.197991],[-75.578393,6.197972],[-75.578383,6.197953],[-75.578361,6.197953],[-75.578351,6.197972]]]}},{"type":"Feature","properties":{"h":8.7,"c":1,"sp":"Jacaranda mimosifolia","nc":"Jacaranda"},"geometry":{"type":"Polygon","coordinates":[[[-75.577962,6.201142],[-75.577971,6.201158],[-75.577989,6.201158],[-75.577998,6.201142],[-75.577989,6.201126],[-75.577971,6.201126],[-75.577962,6.201142]]]}},{"type":"Feature","properties":{"h":7.4,"c":1,"sp":"Jacaranda mimosifolia","nc":"Jacaranda"},"geometry":{"type":"Polygon","coordinates":[[[-75.577968,6.201214],[-75.577976,6.201228],[-75.577992,6.201228],[-75.578,6.201214],[-75.577992,6.2012],[-75.577976,6.2012],[-75.577968,6.201214]]]}},{"type":"Feature","properties":{"h":7.7,"c":1,"sp":"Jacaranda mimosifolia","nc":"Jacaranda"},"geometry":{"type":"Polygon","coordinates":[[[-75.577966,6.201272],[-75.577977,6.201291],[-75.577999,6.201291],[-75.57801,6.201272],[-75.577999,6.201253],[-75.577977,6.201253],[-75.577966,6.201272]]]}},{"type":"Feature","properties":{"h":7.4,"c":1,"sp":"Jacaranda mimosifolia","nc":"Jacaranda"},"geometry":{"type":"Polygon","coordinates":[[[-75.577968,6.20132],[-75.577979,6.201338],[-75.577999,6.201338],[-75.57801,6.20132],[-75.577999,6.201302],[-75.577979,6.201302],[-75.577968,6.20132]]]}},{"type":"Feature","properties":{"h":5.5,"c":1,"sp":"Jacaranda mimosifolia","nc":"Jacaranda"},"geometry":{"type":"Polygon","coordinates":[[[-75.577918,6.202472],[-75.577929,6.202491],[-75.577951,6.202491],[-75.577962,6.202472],[-75.577951,6.202453],[-75.577929,6.202453],[-75.577918,6.202472]]]}},{"type":"Feature","properties":{"h":8.9,"c":1,"sp":"Jacaranda mimosifolia","nc":"Jacaranda"},"geometry":{"type":"Polygon","coordinates":[[[-75.577921,6.202508],[-75.577932,6.202528],[-75.577956,6.202528],[-75.577967,6.202508],[-75.577956,6.202488],[-75.577932,6.202488],[-75.577921,6.202508]]]}},{"type":"Feature","properties":{"h":6.9,"c":1,"sp":"Jacaranda mimosifolia","nc":"Jacaranda"},"geometry":{"type":"Polygon","coordinates":[[[-75.577933,6.20274],[-75.577943,6.202759],[-75.577965,6.202759],[-75.577975,6.20274],[-75.577965,6.202721],[-75.577943,6.202721],[-75.577933,6.20274]]]}},{"type":"Feature","properties":{"h":5.9,"c":1,"sp":"Jacaranda mimosifolia","nc":"Jacaranda"},"geometry":{"type":"Polygon","coordinates":[[[-75.577933,6.202804],[-75.577945,6.202824],[-75.577967,6.202824],[-75.577979,6.202804],[-75.577967,6.202784],[-75.577945,6.202784],[-75.577933,6.202804]]]}},{"type":"Feature","properties":{"h":8.4,"c":1,"sp":"Jacaranda mimosifolia","nc":"Jacaranda"},"geometry":{"type":"Polygon","coordinates":[[[-75.577937,6.202848],[-75.577945,6.202863],[-75.577963,6.202863],[-75.577971,6.202848],[-75.577963,6.202833],[-75.577945,6.202833],[-75.577937,6.202848]]]}},{"type":"Feature","properties":{"h":4.9,"c":1,"sp":"Jacaranda mimosifolia","nc":"Jacaranda"},"geometry":{"type":"Polygon","coordinates":[[[-75.577927,6.202883],[-75.577936,6.202899],[-75.577954,6.202899],[-75.577963,6.202883],[-75.577954,6.202867],[-75.577936,6.202867],[-75.577927,6.202883]]]}},{"type":"Feature","properties":{"h":7.0,"c":1,"sp":"Jacaranda mimosifolia","nc":"Jacaranda"},"geometry":{"type":"Polygon","coordinates":[[[-75.577961,6.202809],[-75.577971,6.202827],[-75.577993,6.202827],[-75.578003,6.202809],[-75.577993,6.202791],[-75.577971,6.202791],[-75.577961,6.202809]]]}},{"type":"Feature","properties":{"h":6.7,"c":1,"sp":"Jacaranda mimosifolia","nc":"Jacaranda"},"geometry":{"type":"Polygon","coordinates":[[[-75.577972,6.202856],[-75.577979,6.202868],[-75.577993,6.202868],[-75.578,6.202856],[-75.577993,6.202844],[-75.577979,6.202844],[-75.577972,6.202856]]]}},{"type":"Feature","properties":{"h":8.1,"c":1,"sp":"Psidium guajava","nc":"Guayabo"},"geometry":{"type":"Polygon","coordinates":[[[-75.580037,6.196276],[-75.580044,6.196288],[-75.580058,6.196288],[-75.580065,6.196276],[-75.580058,6.196264],[-75.580044,6.196264],[-75.580037,6.196276]]]}},{"type":"Feature","properties":{"h":8.1,"c":1,"sp":"Calliandra magdalenae","nc":"Carbonero"},"geometry":{"type":"Polygon","coordinates":[[[-75.57747,6.202095],[-75.577477,6.202108],[-75.577493,6.202108],[-75.5775,6.202095],[-75.577493,6.202082],[-75.577477,6.202082],[-75.57747,6.202095]]]}},{"type":"Feature","properties":{"h":6.0,"c":1,"sp":"Mangifera indica","nc":"Mango"},"geometry":{"type":"Polygon","coordinates":[[[-75.57843,6.197528],[-75.57844,6.197547],[-75.578462,6.197547],[-75.578472,6.197528],[-75.578462,6.197509],[-75.57844,6.197509],[-75.57843,6.197528]]]}},{"type":"Feature","properties":{"h":5.1,"c":1,"sp":"Mangifera indica","nc":"Mango"},"geometry":{"type":"Polygon","coordinates":[[[-75.578421,6.197584],[-75.578428,6.197597],[-75.578444,6.197597],[-75.578451,6.197584],[-75.578444,6.197571],[-75.578428,6.197571],[-75.578421,6.197584]]]}},{"type":"Feature","properties":{"h":6.8,"c":1,"sp":"Mangifera indica","nc":"Mango"},"geometry":{"type":"Polygon","coordinates":[[[-75.578373,6.19768],[-75.578384,6.197698],[-75.578404,6.197698],[-75.578415,6.19768],[-75.578404,6.197662],[-75.578384,6.197662],[-75.578373,6.19768]]]}},{"type":"Feature","properties":{"h":8.3,"c":1,"sp":"Mangifera indica","nc":"Mango"},"geometry":{"type":"Polygon","coordinates":[[[-75.578358,6.197722],[-75.578368,6.19774],[-75.578388,6.19774],[-75.578398,6.197722],[-75.578388,6.197704],[-75.578368,6.197704],[-75.578358,6.197722]]]}},{"type":"Feature","properties":{"h":8.8,"c":1,"sp":"Mangifera indica","nc":"Mango"},"geometry":{"type":"Polygon","coordinates":[[[-75.578347,6.197765],[-75.578356,6.197781],[-75.578374,6.197781],[-75.578383,6.197765],[-75.578374,6.197749],[-75.578356,6.197749],[-75.578347,6.197765]]]}},{"type":"Feature","properties":{"h":12.7,"c":1,"sp":"Ptychosperma macarthurii","nc":"Palma McArthur"},"geometry":{"type":"Polygon","coordinates":[[[-75.578967,6.198262],[-75.578969,6.198267],[-75.578975,6.198267],[-75.578977,6.198262],[-75.578975,6.198257],[-75.578969,6.198257],[-75.578967,6.198262]]]}},{"type":"Feature","properties":{"h":8.3,"c":1,"sp":"Ptychosperma macarthurii","nc":"Palma McArthur"},"geometry":{"type":"Polygon","coordinates":[[[-75.578947,6.198249],[-75.57895,6.198255],[-75.578958,6.198255],[-75.578961,6.198249],[-75.578958,6.198243],[-75.57895,6.198243],[-75.578947,6.198249]]]}},{"type":"Feature","properties":{"h":8.7,"c":1,"sp":"Ravenea rivularis","nc":"Palma majestad"},"geometry":{"type":"Polygon","coordinates":[[[-75.578961,6.198237],[-75.578965,6.198244],[-75.578973,6.198244],[-75.578977,6.198237],[-75.578973,6.19823],[-75.578965,6.19823],[-75.578961,6.198237]]]}},{"type":"Feature","properties":{"h":7.4,"c":1,"sp":"Inga densiflora","nc":"Guamo macheto"},"geometry":{"type":"Polygon","coordinates":[[[-75.579314,6.200056],[-75.579324,6.200072],[-75.579342,6.200072],[-75.579352,6.200056],[-75.579342,6.20004],[-75.579324,6.20004],[-75.579314,6.200056]]]}}]}