{"type":"FeatureCollection","features":[{"type":"Feature","properties":{"id":31021505,"name":"Biblioteca Luis Echavarría Villegas","ref":null,"levels":null,"h":20.6,"area_m2":2617,"kind":"library"},"geometry":{"type":"Polygon","coordinates":[[[-75.5788,6.201264],[-75.57807,6.201274],[-75.578066,6.200974],[-75.578388,6.20097],[-75.578389,6.201027],[-75.578418,6.201026],[-75.578446,6.201026],[-75.578446,6.200973],[-75.578796,6.200969],[-75.5788,6.201264]]]}},{"type":"Feature","properties":{"id":240992600,"name":"Edificio de Ingenierías - Bloque 19","ref":"19","levels":"8","h":46.5,"area_m2":1809,"kind":"university"},"geometry":{"type":"Polygon","coordinates":[[[-75.579518,6.198171],[-75.579518,6.198156],[-75.579477,6.198156],[-75.579478,6.198105],[-75.579482,6.197888],[-75.579442,6.197888],[-75.579442,6.197858],[-75.579488,6.197858],[-75.579488,6.197791],[-75.579455,6.197786],[-75.579459,6.197614],[-75.5796,6.197686],[-75.579857,6.197768],[-75.579764,6.197958],[-75.579743,6.198119],[-75.579722,6.198165],[-75.579625,6.198171],[-75.579546,6.198171],[-75.579518,6.198171]]]}},{"type":"Feature","properties":{"id":240992601,"name":"Bloque 26","ref":null,"levels":null,"h":22.5,"area_m2":837,"kind":"university"},"geometry":{"type":"Polygon","coordinates":[[[-75.579022,6.200029],[-75.579022,6.199927],[-75.579022,6.199892],[-75.579022,6.199731],[-75.579266,6.19973],[-75.579266,6.199851],[-75.579187,6.199851],[-75.579187,6.199911],[-75.579268,6.199911],[-75.579268,6.200029],[-75.579022,6.200029]]]}},{"type":"Feature","properties":{"id":320912818,"name":"Casa 9 - Universidad EAFIT","ref":null,"levels":null,"h":null,"area_m2":177,"kind":"university"},"geometry":{"type":"Polygon","coordinates":[[[-75.579254,6.197251],[-75.579248,6.197295],[-75.579282,6.1973],[-75.579264,6.197422],[-75.57924,6.197419],[-75.57917,6.197409],[-75.579181,6.197335],[-75.579194,6.197242],[-75.579254,6.197251]]]}},{"type":"Feature","properties":{"id":320913904,"name":"Bloque 11","ref":"11","levels":"2","h":9.8,"area_m2":573,"kind":"university"},"geometry":{"type":"Polygon","coordinates":[[[-75.580027,6.197374],[-75.579972,6.197555],[-75.579866,6.197533],[-75.579737,6.197508],[-75.579775,6.197322],[-75.579864,6.19734],[-75.579907,6.197349],[-75.580027,6.197374]]]}},{"type":"Feature","properties":{"id":320913933,"name":"Bloque 12 Departamento de desarrollo artistico","ref":"12","levels":null,"h":9.7,"area_m2":339,"kind":"university"},"geometry":{"type":"Polygon","coordinates":[[[-75.579122,6.197434],[-75.57898,6.197409],[-75.579012,6.19722],[-75.579155,6.197245],[-75.579122,6.197434]]]}},{"type":"Feature","properties":{"id":320914821,"name":"Gimnasio VIVO","ref":null,"levels":null,"h":18.0,"area_m2":762,"kind":"yes"},"geometry":{"type":"Polygon","coordinates":[[[-75.577995,6.198805],[-75.578201,6.198812],[-75.578185,6.19906],[-75.57792,6.199058],[-75.577929,6.198945],[-75.577995,6.198805]]]}},{"type":"Feature","properties":{"id":320914841,"name":"Bloque 7","ref":"7","levels":null,"h":14.6,"area_m2":711,"kind":"university"},"geometry":{"type":"Polygon","coordinates":[[[-75.578194,6.19908],[-75.578194,6.199323],[-75.578193,6.199524],[-75.578062,6.199524],[-75.578063,6.19908],[-75.578194,6.19908]]]}},{"type":"Feature","properties":{"id":320914857,"name":"cafetería principal","ref":null,"levels":null,"h":10.8,"area_m2":2413,"kind":"cafe"},"geometry":{"type":"Polygon","coordinates":[[[-75.578619,6.199494],[-75.578369,6.199491],[-75.578368,6.199254],[-75.578282,6.199253],[-75.578283,6.199192],[-75.578286,6.199027],[-75.578282,6.198889],[-75.578664,6.198892],[-75.578665,6.199023],[-75.578658,6.199169],[-75.57864,6.199174],[-75.578619,6.199494]]]}},{"type":"Feature","properties":{"id":320914925,"name":"Portería Las Vegas (Peatonal)","ref":null,"levels":null,"h":6.3,"area_m2":140,"kind":"university"},"geometry":{"type":"Polygon","coordinates":[[[-75.577796,6.200282],[-75.57773,6.200274],[-75.577744,6.200164],[-75.577749,6.200133],[-75.577753,6.200102],[-75.577819,6.200111],[-75.57781,6.200173],[-75.577796,6.200282]]]}},{"type":"Feature","properties":{"id":320915041,"name":"Portería Las Vegas","ref":null,"levels":null,"h":null,"area_m2":42,"kind":"university"},"geometry":{"type":"Polygon","coordinates":[[[-75.577798,6.199497],[-75.577841,6.199505],[-75.577833,6.199546],[-75.577826,6.199583],[-75.577783,6.199574],[-75.57779,6.199538],[-75.577798,6.199497]]]}},{"type":"Feature","properties":{"id":320915124,"name":"Bloque 29","ref":"29","levels":null,"h":26.9,"area_m2":961,"kind":"university"},"geometry":{"type":"Polygon","coordinates":[[[-75.578579,6.200248],[-75.578775,6.200245],[-75.578834,6.200244],[-75.578836,6.200388],[-75.578845,6.200443],[-75.578856,6.200489],[-75.578855,6.200573],[-75.578705,6.200574],[-75.578703,6.200538],[-75.578757,6.200536],[-75.578757,6.200515],[-75.578578,6.200518],[-75.578579,6.200248]]]}},{"type":"Feature","properties":{"id":320915406,"name":"Bloque 28 - Auditorio Fundadores","ref":"28","levels":null,"h":8.9,"area_m2":686,"kind":"university"},"geometry":{"type":"Polygon","coordinates":[[[-75.579026,6.200241],[-75.579025,6.200389],[-75.579013,6.20048],[-75.579013,6.200572],[-75.578859,6.200571],[-75.578861,6.200488],[-75.57884,6.200383],[-75.57884,6.200243],[-75.578934,6.200247],[-75.579026,6.200241]]]}},{"type":"Feature","properties":{"id":320915464,"name":"Bloque 27","ref":null,"levels":null,"h":14.1,"area_m2":404,"kind":"university"},"geometry":{"type":"Polygon","coordinates":[[[-75.579029,6.200264],[-75.579094,6.200264],[-75.579154,6.200264],[-75.579215,6.200263],[-75.579216,6.200451],[-75.57909,6.200452],[-75.57906,6.200452],[-75.57906,6.200387],[-75.57903,6.200387],[-75.579029,6.200264]]]}},{"type":"Feature","properties":{"id":320915514,"name":"Bloque 30","ref":"30","levels":null,"h":8.7,"area_m2":608,"kind":"university"},"geometry":{"type":"Polygon","coordinates":[[[-75.579183,6.200471],[-75.579176,6.200688],[-75.579073,6.200689],[-75.579074,6.200718],[-75.579132,6.200746],[-75.57913,6.200824],[-75.579,6.200823],[-75.578999,6.200725],[-75.579038,6.200717],[-75.579038,6.200693],[-75.57897,6.200694],[-75.57897,6.200578],[-75.579043,6.200577],[-75.579043,6.200504],[-75.579112,6.200506],[-75.579113,6.200473],[-75.579183,6.200471]]]}},{"type":"Feature","properties":{"id":320915651,"name":"Bloque 33","ref":"33","levels":null,"h":15.1,"area_m2":325,"kind":"university"},"geometry":{"type":"Polygon","coordinates":[[[-75.579131,6.200866],[-75.579131,6.200968],[-75.578871,6.200968],[-75.578871,6.20092],[-75.578871,6.200866],[-75.579131,6.200866]]]}},{"type":"Feature","properties":{"id":320915652,"name":"Bloque 34","ref":"34","levels":null,"h":17.2,"area_m2":262,"kind":"university"},"geometry":{"type":"Polygon","coordinates":[[[-75.579128,6.20107],[-75.579128,6.201167],[-75.578908,6.201168],[-75.578908,6.201101],[-75.578908,6.20107],[-75.579128,6.20107]]]}},{"type":"Feature","properties":{"id":320915653,"name":"Bloque 35","ref":"35","levels":null,"h":17.1,"area_m2":283,"kind":"university"},"geometry":{"type":"Polygon","coordinates":[[[-75.579099,6.201262],[-75.579101,6.201363],[-75.578873,6.201368],[-75.578871,6.201288],[-75.578871,6.201266],[-75.579099,6.201262]]]}},{"type":"Feature","properties":{"id":320915697,"name":"Bloque 36 - Cafeterías","ref":"36","levels":null,"h":4.3,"area_m2":575,"kind":"yes"},"geometry":{"type":"Polygon","coordinates":[[[-75.579056,6.201441],[-75.579059,6.20172],[-75.578891,6.201722],[-75.578889,6.201544],[-75.578888,6.201442],[-75.579056,6.201441]]]}},{"type":"Feature","properties":{"id":320915815,"name":"Bloque 38","ref":"38","levels":null,"h":23.9,"area_m2":1846,"kind":"university"},"geometry":{"type":"Polygon","coordinates":[[[-75.578749,6.20176],[-75.578112,6.201766],[-75.578103,6.201597],[-75.578147,6.201597],[-75.578147,6.201482],[-75.578298,6.201483],[-75.578298,6.201589],[-75.578429,6.201591],[-75.578556,6.20159],[-75.578557,6.201465],[-75.57875,6.201466],[-75.578749,6.20176]]]}},{"type":"Feature","properties":{"id":320916865,"name":"Bloque 37","ref":"37","levels":null,"h":14.4,"area_m2":778,"kind":"university"},"geometry":{"type":"Polygon","coordinates":[[[-75.578926,6.201879],[-75.578924,6.202184],[-75.578679,6.202183],[-75.57868,6.201963],[-75.578812,6.201963],[-75.578813,6.201878],[-75.578827,6.201878],[-75.578926,6.201879]]]}},{"type":"Feature","properties":{"id":320916887,"name":"Bloque 39","ref":"39","levels":"1","h":8.9,"area_m2":609,"kind":"university"},"geometry":{"type":"Polygon","coordinates":[[[-75.578565,6.202053],[-75.578475,6.202055],[-75.578474,6.201995],[-75.578204,6.202001],[-75.578204,6.201963],[-75.578121,6.201964],[-75.57812,6.201915],[-75.57812,6.201895],[-75.578505,6.201887],[-75.578562,6.201886],[-75.578565,6.202053]]]}},{"type":"Feature","properties":{"id":320918935,"name":"Bloque 18","ref":"18","levels":null,"h":24.7,"area_m2":824,"kind":"university"},"geometry":{"type":"Polygon","coordinates":[[[-75.579082,6.199322],[-75.579078,6.199535],[-75.578994,6.199532],[-75.578918,6.199537],[-75.578889,6.19951],[-75.578775,6.19951],[-75.578771,6.199319],[-75.578791,6.199319],[-75.57888,6.199323],[-75.578886,6.19928],[-75.578913,6.199279],[-75.578997,6.199284],[-75.579012,6.199318],[-75.579082,6.199322]]]}},{"type":"Feature","properties":{"id":320918950,"name":"Bloque 17","ref":"17","levels":null,"h":10.7,"area_m2":376,"kind":"university"},"geometry":{"type":"Polygon","coordinates":[[[-75.578733,6.199199],[-75.578735,6.199068],[-75.578969,6.19907],[-75.578968,6.199201],[-75.578733,6.199199]]]}},{"type":"Feature","properties":{"id":320918980,"name":"Bloque 16","ref":"16","levels":null,"h":7.6,"area_m2":405,"kind":"university"},"geometry":{"type":"Polygon","coordinates":[[[-75.578716,6.198984],[-75.578716,6.198974],[-75.578715,6.198866],[-75.578995,6.198865],[-75.578995,6.198972],[-75.578995,6.198983],[-75.578716,6.198984]]]}},{"type":"Feature","properties":{"id":320919004,"name":"Bloque 15","ref":"15","levels":null,"h":13.1,"area_m2":237,"kind":"university"},"geometry":{"type":"Polygon","coordinates":[[[-75.578955,6.198777],[-75.578773,6.198775],[-75.578774,6.198669],[-75.578957,6.198671],[-75.578955,6.198764],[-75.578955,6.198777]]]}},{"type":"Feature","properties":{"id":320919026,"name":"Bloque 14","ref":"14","levels":null,"h":14.0,"area_m2":244,"kind":"university"},"geometry":{"type":"Polygon","coordinates":[[[-75.578775,6.198607],[-75.578775,6.198495],[-75.578952,6.198496],[-75.578952,6.198551],[-75.578952,6.198608],[-75.578775,6.198607]]]}},{"type":"Feature","properties":{"id":320919181,"name":"Bloque 13","ref":"13","levels":null,"h":14.0,"area_m2":362,"kind":"university"},"geometry":{"type":"Polygon","coordinates":[[[-75.578778,6.198401],[-75.578778,6.198364],[-75.5787,6.198364],[-75.5787,6.198218],[-75.578767,6.198218],[-75.578767,6.198293],[-75.578953,6.198292],[-75.578953,6.19835],[-75.578953,6.198401],[-75.578778,6.198401]]]}},{"type":"Feature","properties":{"id":320921302,"name":"Bloque 23","ref":"23","levels":null,"h":8.4,"area_m2":472,"kind":"university"},"geometry":{"type":"Polygon","coordinates":[[[-75.579407,6.199033],[-75.579064,6.199031],[-75.579064,6.198941],[-75.579065,6.198918],[-75.579408,6.198921],[-75.579407,6.199033]]]}},{"type":"Feature","properties":{"id":320921304,"name":"Bloque 20","ref":"20","levels":null,"h":20.4,"area_m2":1680,"kind":"university"},"geometry":{"type":"Polygon","coordinates":[[[-75.579051,6.198748],[-75.579046,6.198541],[-75.579053,6.198408],[-75.57905,6.198308],[-75.579112,6.19831],[-75.579139,6.198309],[-75.579275,6.198311],[-75.579361,6.198312],[-75.579362,6.198545],[-75.579362,6.198753],[-75.579144,6.198748],[-75.579051,6.198748]]]}},{"type":"Feature","properties":{"id":320921305,"name":"Bloque 21","ref":null,"levels":null,"h":15.6,"area_m2":693,"kind":"university"},"geometry":{"type":"Polygon","coordinates":[[[-75.579622,6.198632],[-75.579473,6.198576],[-75.579479,6.198402],[-75.579484,6.198277],[-75.579573,6.198312],[-75.579708,6.198351],[-75.579622,6.198632]]]}},{"type":"Feature","properties":{"id":320921306,"name":"edificio de cargas","ref":null,"levels":null,"h":8.6,"area_m2":500,"kind":"university"},"geometry":{"type":"Polygon","coordinates":[[[-75.579586,6.198628],[-75.579588,6.1988],[-75.579525,6.198801],[-75.579528,6.198989],[-75.579444,6.19899],[-75.579439,6.19863],[-75.579586,6.198628]]]}},{"type":"Feature","properties":{"id":417636671,"name":"Bloque Argos","ref":null,"levels":"6","h":24.0,"area_m2":1663,"kind":"university"},"geometry":{"type":"Polygon","coordinates":[[[-75.579079,6.199065],[-75.579522,6.199067],[-75.579455,6.199441],[-75.579377,6.199438],[-75.579227,6.199433],[-75.579229,6.199348],[-75.57911,6.199343],[-75.579082,6.199206],[-75.579079,6.199065]]]}},{"type":"Feature","properties":{"id":1076174770,"name":"entrada 25","ref":null,"levels":null,"h":8.7,"area_m2":201,"kind":"yes"},"geometry":{"type":"Polygon","coordinates":[[[-75.579397,6.199524],[-75.579395,6.199588],[-75.579384,6.199753],[-75.579312,6.199748],[-75.579323,6.199588],[-75.579328,6.199519],[-75.579397,6.199524]]]}},{"type":"Feature","properties":{"id":1311266389,"name":"Casa 10 - Universidad EAFIT","ref":null,"levels":"3","h":7.8,"area_m2":323,"kind":"house"},"geometry":{"type":"Polygon","coordinates":[[[-75.580231,6.196319],[-75.580229,6.196334],[-75.579997,6.196247],[-75.580034,6.19614],[-75.580232,6.196213],[-75.58022,6.196262],[-75.580246,6.196267],[-75.580231,6.196319]]]}},{"type":"Feature","properties":{"id":1311267181,"name":"Casa 8 - Universidad EAFIT","ref":null,"levels":"3","h":5.1,"area_m2":308,"kind":"house"},"geometry":{"type":"Polygon","coordinates":[[[-75.580227,6.19619],[-75.580087,6.19614],[-75.580054,6.196057],[-75.580072,6.195998],[-75.580268,6.196061],[-75.580227,6.19619]]]}},{"type":"Feature","properties":{"id":1311269133,"name":"Casa 7 - Universidad EAFIT","ref":null,"levels":"2","h":null,"area_m2":178,"kind":"house"},"geometry":{"type":"Polygon","coordinates":[[[-75.579876,6.196148],[-75.579739,6.196102],[-75.579742,6.196072],[-75.579727,6.196065],[-75.579747,6.196007],[-75.579896,6.196064],[-75.579892,6.196076],[-75.579906,6.196085],[-75.579876,6.196148]]]}},{"type":"Feature","properties":{"id":1311269713,"name":"Casa 5 - Universidad EAFIT","ref":null,"levels":"2","h":6.1,"area_m2":210,"kind":"house"},"geometry":{"type":"Polygon","coordinates":[[[-75.579783,6.196412],[-75.579617,6.196363],[-75.579633,6.196306],[-75.579651,6.196312],[-75.579665,6.196267],[-75.579816,6.196321],[-75.579783,6.196412]]]}},{"type":"Feature","properties":{"id":1311270017,"name":"Casa 4 - Universidad EAFIT","ref":null,"levels":"3","h":6.3,"area_m2":218,"kind":"house"},"geometry":{"type":"Polygon","coordinates":[[[-75.579529,6.19633],[-75.579406,6.196284],[-75.579385,6.196255],[-75.579418,6.196162],[-75.57956,6.19622],[-75.579529,6.19633]]]}},{"type":"Feature","properties":{"id":1311270544,"name":"Casa 6 - Universidad EAFIT","ref":null,"levels":"2","h":6.9,"area_m2":210,"kind":"house"},"geometry":{"type":"Polygon","coordinates":[[[-75.579521,6.196368],[-75.57948,6.196466],[-75.579325,6.196413],[-75.579348,6.196331],[-75.579399,6.196356],[-75.579412,6.196322],[-75.579521,6.196368]]]}},{"type":"Feature","properties":{"id":1433174958,"name":"Las Hermosas","ref":null,"levels":null,"h":null,"area_m2":46,"kind":"cafe"},"geometry":{"type":"Polygon","coordinates":[[[-75.579318,6.199515],[-75.579321,6.199475],[-75.579322,6.199455],[-75.579384,6.199459],[-75.57938,6.199519],[-75.579318,6.199515]]]}},{"type":"Feature","properties":{"id":1500884072,"name":"Librería Acentos","ref":null,"levels":null,"h":null,"area_m2":191,"kind":"retail"},"geometry":{"type":"Polygon","coordinates":[[[-75.578792,6.199497],[-75.578791,6.199319],[-75.57888,6.199323],[-75.578881,6.199496],[-75.578792,6.199497]]]}},{"type":"Feature","properties":{"id":1500948781,"name":"Domo de visitantes","ref":null,"levels":null,"h":4.3,"area_m2":143,"kind":"events_venue"},"geometry":{"type":"Polygon","coordinates":[[[-75.578137,6.200494],[-75.578039,6.200497],[-75.578036,6.200378],[-75.578086,6.200377],[-75.578134,6.200375],[-75.578134,6.200382],[-75.578137,6.200494]]]}},{"type":"Feature","properties":{"id":1500948782,"name":"Madelo EAFIT","ref":null,"levels":null,"h":4.6,"area_m2":142,"kind":"ice_cream"},"geometry":{"type":"Polygon","coordinates":[[[-75.578239,6.200366],[-75.578117,6.200367],[-75.578116,6.200272],[-75.578238,6.20027],[-75.578239,6.200366]]]}},{"type":"Feature","properties":{"id":1500948785,"name":"Tienda EAFIT","ref":null,"levels":"1","h":4.8,"area_m2":79,"kind":"retail"},"geometry":{"type":"Polygon","coordinates":[[[-75.577979,6.200372],[-75.577943,6.200325],[-75.577974,6.200301],[-75.57803,6.200259],[-75.578066,6.200305],[-75.577979,6.200372]]]}},{"type":"Feature","properties":{"id":1503771784,"name":"Dogger EAFIT","ref":null,"levels":null,"h":null,"area_m2":95,"kind":"fast_food"},"geometry":{"type":"Polygon","coordinates":[[[-75.57835,6.200211],[-75.578351,6.200152],[-75.578482,6.200153],[-75.578481,6.200212],[-75.57835,6.200211]]]}},{"type":"Feature","properties":{"id":1504770587,"name":"Torre técnica","ref":null,"levels":"5","h":24.2,"area_m2":221,"kind":"library"},"geometry":{"type":"Polygon","coordinates":[[[-75.578481,6.201417],[-75.578372,6.201418],[-75.578352,6.201416],[-75.578337,6.201409],[-75.578328,6.201399],[-75.578322,6.201389],[-75.578322,6.201367],[-75.578328,6.20135],[-75.578335,6.201339],[-75.578349,6.201329],[-75.578378,6.201327],[-75.578417,6.201327],[-75.57843,6.201327],[-75.578443,6.201326],[-75.578485,6.201327],[-75.578502,6.20133],[-75.578518,6.201337],[-75.578532,6.201347],[-75.57854,6.201363],[-75.578541,6.20138],[-75.578535,6.201398],[-75.578525,6.201408],[-75.578512,6.201414],[-75.578496,6.201417],[-75.578481,6.201417]]]}}]}