{"type":"FeatureCollection","features":[{"type":"Feature","properties":{"cat":"parqueadero","name":"Parqueadero Norte","desc":"Parqueadero para carros"},"geometry":{"coordinates":[[[-75.577631,6.200552],[-75.578263,6.200553],[-75.578266,6.20084],[-75.577931,6.200835],[-75.577936,6.201075],[-75.577931,6.201325],[-75.577928,6.201571],[-75.577934,6.201821],[-75.577925,6.202043],[-75.577926,6.202843],[-75.57792,6.202928],[-75.577904,6.202971],[-75.577869,6.202997],[-75.577781,6.202965],[-75.5777,6.202931],[-75.577641,6.202899],[-75.577599,6.202861],[-75.577531,6.202806],[-75.577451,6.202699],[-75.577424,6.202611],[-75.577416,6.202547],[-75.577631,6.200552]]],"type":"Polygon"}},{"type":"Feature","properties":{"cat":"parqueadero","name":"Parqueadero de profesores, directivos y empleados","desc":"Parqueadero para carros"},"geometry":{"coordinates":[[[-75.577875,6.199896],[-75.577725,6.199875],[-75.577886,6.199083],[-75.57806,6.199078],[-75.578049,6.19991],[-75.577875,6.199896]]],"type":"Polygon"}},{"type":"Feature","properties":{"cat":"parqueadero","name":"Parqueadero de Argos","desc":"Parqueadero para carros"},"geometry":{"coordinates":[[[-75.579299,6.199534],[-75.57906,6.199536],[-75.579063,6.199678],[-75.579302,6.19968],[-75.579299,6.199534]]],"type":"Polygon"}},{"type":"Feature","properties":{"cat":"parqueadero","name":"Paraqueadero sur","desc":"Parqueadero para carros"},"geometry":{"coordinates":[[[-75.578561,6.197406],[-75.578687,6.197454],[-75.57943,6.197555],[-75.57942,6.197766],[-75.57939,6.197774],[-75.57939,6.19787],[-75.579337,6.197875],[-75.579339,6.198102],[-75.578977,6.198086],[-75.579007,6.197747],[-75.578953,6.197731],[-75.578891,6.197939],[-75.578781,6.197926],[-75.578856,6.197715],[-75.578792,6.197691],[-75.578698,6.197936],[-75.578363,6.197886],[-75.578561,6.197406]]],"type":"Polygon"}},{"type":"Feature","properties":{"cat":"parqueadero","name":"Parqueadero sur","desc":"Parqueadero para motos"},"geometry":{"coordinates":[[[-75.578671,6.198139],[-75.578929,6.198155],[-75.57894,6.197984],[-75.57835,6.197899],[-75.578288,6.198142],[-75.578671,6.198139]]],"type":"Polygon"}},{"type":"Feature","properties":{"cat":"parqueadero","name":"Parqueadero del Parque Los Guayabos","desc":"Parqueadero para carros"},"geometry":{"coordinates":[[[-75.576306,6.202248],[-75.576719,6.201427],[-75.576542,6.201331],[-75.576488,6.201392],[-75.576314,6.201304],[-75.576271,6.201365],[-75.575871,6.201189],[-75.575614,6.201741],[-75.576306,6.202248]]],"type":"Polygon"}},{"type":"Feature","properties":{"cat":"parqueadero","name":"Parqueadero del Parque Los Guayabos","desc":"Parqueadero para motos"},"geometry":{"coordinates":[[[-75.576265,6.201355],[-75.576308,6.201275],[-75.575954,6.201085],[-75.575895,6.201187],[-75.576265,6.201355]]],"type":"Polygon"}},{"type":"Feature","properties":{"cat":"porteria","name":"Portería 1","desc":"- Ingreso y salida peatonal y para bicicletas desde la avenida Las Vegas","tipo":"peatonal"},"geometry":{"coordinates":[[[-75.577794,6.20028],[-75.577658,6.200259],[-75.577692,6.200043],[-75.577824,6.200054],[-75.577794,6.20028]]],"type":"Polygon"}},{"type":"Feature","properties":{"cat":"porteria","name":"Portería 2","desc":"- Ingreso y salida vehicular desde la avenida Las Vegas (solo para empleados administrativos, profesores, proveedores, prensa y autoridades)","tipo":"vehicular"},"geometry":{"coordinates":[[[-75.577835,6.199587],[-75.577773,6.199576],[-75.577789,6.199486],[-75.577851,6.199507],[-75.577835,6.199587]]],"type":"Polygon"}},{"type":"Feature","properties":{"cat":"porteria","name":"Portería 3","desc":"- Ingreso y salida peatonal y para bicicletas desde la avenida Las Vegas\n- Punto de registro para visitantes\n- Ingreso y salida para motos desde la avenida Las Vegas\n- Ingreso y salida para carros desde la avenida Las Vegas","tipo":"peatonal"},"geometry":{"coordinates":[[[-75.578494,6.197366],[-75.57858,6.197403],[-75.578529,6.197523],[-75.578446,6.197488],[-75.578494,6.197366]]],"type":"Polygon"}},{"type":"Feature","properties":{"cat":"porteria","name":"Portería 4","desc":"- Ingreso y salida peatonal y para bicicletas desde la avenida Regional\n- Punto de registro para visitantes\n- Ingreso y salida vehicular para motos desde la avenida Regional\n- Ingreso y salida vehicular para carros desde la avenida Regional","tipo":"peatonal"},"geometry":{"coordinates":[[[-75.579642,6.197656],[-75.57968,6.197504],[-75.579945,6.197582],[-75.579905,6.197731],[-75.579642,6.197656]]],"type":"Polygon"}},{"type":"Feature","properties":{"cat":"porteria","name":"Portería 5","desc":"- Ingreso y salida vehicular para carros desde la avenida Regional (solo para empleados administrativos, profesores, proveedores, prensa, autoridades y personal del Centro de Investigaciones Argos para la Innovación)","tipo":"vehicular"},"geometry":{"coordinates":[[[-75.579315,6.199747],[-75.579382,6.199755],[-75.579393,6.19952],[-75.57932,6.19952],[-75.579315,6.199747]]],"type":"Polygon"}},{"type":"Feature","properties":{"cat":"porteria","name":"Portería 6","desc":"- Ingreso vehicular para carros desde la avenida Regional\n- Punto de registro para visitantes","tipo":"vehicular"},"geometry":{"coordinates":[[[-75.57905,6.201853],[-75.579055,6.201771],[-75.57898,6.201773],[-75.578983,6.201853],[-75.57905,6.201853]]],"type":"Polygon"}},{"type":"Feature","properties":{"cat":"porteria","name":"Portería 7","desc":"- Ingreso y salida peatonal y para bicicletas desde la calle 4 sur\n- Punto de registro para visitantes","tipo":"peatonal"},"geometry":{"coordinates":[[[-75.577886,6.203011],[-75.577886,6.202963],[-75.577931,6.202963],[-75.577934,6.203029],[-75.577886,6.203011]]],"type":"Polygon"}},{"type":"Feature","properties":{"cat":"porteria","name":"Portería 8","desc":"- Salida vehicular para carros desde el parqueadero norte","tipo":"vehicular"},"geometry":{"coordinates":[[[-75.57754,6.201845],[-75.577545,6.201773],[-75.577491,6.201773],[-75.577478,6.201851],[-75.57754,6.201845]]],"type":"Polygon"}},{"type":"Feature","properties":{"cat":"porteria","name":"Portería 9","desc":"- Ingreso y salida peatonal y para bicicletas desde la calle 5 sur\n- Punto de registro para visitantes\n- Ingreso y salida vehicular para motos desde la calle 5 sur\n- Ingreso y salida para carros desde la calle 5 sur","tipo":"peatonal"},"geometry":{"coordinates":[[[-75.576526,6.201325],[-75.576485,6.201397],[-75.576308,6.201291],[-75.576327,6.201229],[-75.576526,6.201325]]],"type":"Polygon"}},{"type":"Feature","properties":{"cat":"porteria","name":"Portería 10","desc":"- Ingreso y salida peatonal y para bicicletas desde la avenida Las Vegas","tipo":"peatonal"},"geometry":{"coordinates":[[[-75.577202,6.201973],[-75.57721,6.201864],[-75.577172,6.201869],[-75.577153,6.201979],[-75.577202,6.201973]]],"type":"Polygon"}},{"type":"Feature","properties":{"cat":"deporte","name":"Placas polideportivas","desc":"Placas polideportivas"},"geometry":{"coordinates":[[[-75.578875,6.202789],[-75.578776,6.202787],[-75.578771,6.202565],[-75.578867,6.202557],[-75.578875,6.202789]]],"type":"Polygon"}},{"type":"Feature","properties":{"cat":"deporte","name":"Placas polideportivas","desc":"Placas polideportivas"},"geometry":{"coordinates":[[[-75.57869,6.202904],[-75.578687,6.20268],[-75.57858,6.20268],[-75.578583,6.202909],[-75.57869,6.202904]]],"type":"Polygon"}},{"type":"Feature","properties":{"cat":"deporte","name":"Placas polideportivas","desc":"Placas polideportivas"},"geometry":{"coordinates":[[[-75.57869,6.202581],[-75.57869,6.202357],[-75.578586,6.20236],[-75.578586,6.202584],[-75.57869,6.202581]]],"type":"Polygon"}},{"type":"Feature","properties":{"cat":"deporte","name":"Cancha norte","desc":"Cancha norte"},"geometry":{"coordinates":[[[-75.578524,6.202995],[-75.578519,6.202139],[-75.578502,6.202115],[-75.578465,6.202083],[-75.578392,6.202048],[-75.578312,6.202037],[-75.578237,6.202032],[-75.578156,6.20204],[-75.57806,6.202064],[-75.578012,6.20208],[-75.577966,6.202128],[-75.577979,6.202979],[-75.578022,6.203016],[-75.578071,6.203053],[-75.578156,6.203088],[-75.578223,6.203099],[-75.578325,6.203088],[-75.578403,6.203064],[-75.578492,6.203019],[-75.578524,6.202995]]],"type":"Polygon"}},{"type":"Feature","properties":{"cat":"deporte","name":"Cancha sintética","desc":"Cancha sintética"},"geometry":{"coordinates":[[[-75.578674,6.198848],[-75.578671,6.198176],[-75.578293,6.198176],[-75.578293,6.198848],[-75.578674,6.198848]]],"type":"Polygon"}},{"type":"Feature","properties":{"cat":"deporte","name":"Gimnasio Vivo","desc":"Gimnasio Vivo"},"geometry":{"coordinates":[[[-75.578215,6.199075],[-75.578226,6.198827],[-75.578022,6.198819],[-75.577961,6.198971],[-75.577953,6.199072],[-75.578215,6.199075]]],"type":"Polygon"}},{"type":"Feature","properties":{"cat":"deporte","name":"Piscina","desc":"- Piscina\n- Baños"},"geometry":{"coordinates":[[[-75.578478,6.199798],[-75.578473,6.199566],[-75.578363,6.19956],[-75.578368,6.199795],[-75.578478,6.199798]]],"type":"Polygon"}},{"type":"Feature","properties":{"cat":"deporte","name":"Placa polideportiva","desc":"- Placa deportiva\n- Equipos de Tenis de mesa\n- Baños"},"geometry":{"coordinates":[[[-75.578307,6.199904],[-75.578315,6.199595],[-75.578063,6.199595],[-75.57806,6.199902],[-75.578307,6.199904]]],"type":"Polygon"}},{"type":"Feature","properties":{"cat":"deporte","name":"Placa polideportiva","desc":"Placa polideportiva cubierta"},"geometry":{"coordinates":[[[-75.576829,6.202149],[-75.576689,6.202075],[-75.576638,6.202179],[-75.576775,6.202253],[-75.576829,6.202149]]],"type":"Polygon"}},{"type":"Feature","properties":{"cat":"alimentacion","name":"Bloque 36","desc":"Cafetería norte:\n- El Tejadito\n- Juan Valdez\n- Recanto\n- Pimientos"},"geometry":{"coordinates":[[[-75.578891,6.201723],[-75.57906,6.20172],[-75.579055,6.20144],[-75.578886,6.201437],[-75.578891,6.201723]]],"type":"Polygon"}},{"type":"Feature","properties":{"cat":"alimentacion","name":"Parque Los Pimientos","desc":"Parque Los Pimientos"},"geometry":{"coordinates":[[[-75.578996,6.200853],[-75.578991,6.20072],[-75.578953,6.200723],[-75.578953,6.200555],[-75.578572,6.200552],[-75.578572,6.200867],[-75.578996,6.200853]]],"type":"Polygon"}},{"type":"Feature","properties":{"cat":"alimentacion","name":"Plazoleta del Estudiante","desc":"Plazoleta del Estudiante"},"geometry":{"coordinates":[[[-75.578561,6.200877],[-75.578559,6.200254],[-75.578256,6.200248],[-75.57828,6.200877],[-75.578561,6.200877]]],"type":"Polygon"}},{"type":"Feature","properties":{"cat":"alimentacion","name":"Domo y jardin","desc":"Domo y jardin"},"geometry":{"coordinates":[[[-75.578253,6.20052],[-75.578237,6.200243],[-75.577953,6.200238],[-75.577945,6.20051],[-75.578253,6.20052]]],"type":"Polygon"}},{"type":"Feature","properties":{"cat":"alimentacion","name":"Quioscos","desc":"Quioscos"},"geometry":{"coordinates":[[[-75.578293,6.200019],[-75.57803,6.199995],[-75.57803,6.199931],[-75.578293,6.199942],[-75.578293,6.200019]]],"type":"Polygon"}},{"type":"Feature","properties":{"cat":"alimentacion","name":"Parque de la Ceiba","desc":"Parque de la Ceiba"},"geometry":{"coordinates":[[[-75.578974,6.200056],[-75.578969,6.19972],[-75.578714,6.19972],[-75.578717,6.200051],[-75.578974,6.200056]]],"type":"Polygon"}},{"type":"Feature","properties":{"cat":"alimentacion","name":"Parque Los Guayabos","desc":"Parque Los Guayabos"},"geometry":{"coordinates":[[[-75.576829,6.202352],[-75.577011,6.202424],[-75.577129,6.202053],[-75.576979,6.201997],[-75.576829,6.202352]]],"type":"Polygon"}},{"type":"Feature","properties":{"cat":"alimentacion","name":"Cafetería Central","desc":"Piso 1:\n-Aldea Nikei\n-Home Food\n-Bigos\n-Frisby\n\nPiso 2:\n-El Corral\n-Taco Factory\n-Mi Buñuelo\n-Dunkin"},"geometry":{"coordinates":[[[-75.578679,6.199512],[-75.578374,6.19951],[-75.578368,6.198883],[-75.578658,6.198878],[-75.578679,6.199512]]],"type":"Polygon"}}]}