{"type":"FeatureCollection","features":[{"type":"Feature","properties":{"name":"Universidad EAFIT · sede Medellín","area_m2":111362},"geometry":{"type":"MultiPolygon","coordinates":[[[[-75.580416,6.196407],[-75.579946,6.196248],[-75.580051,6.195964],[-75.580309,6.196055],[-75.580261,6.196205],[-75.58046,6.196276],[-75.580416,6.196407]]],[[[-75.579838,6.196305],[-75.5798,6.19643],[-75.579568,6.19635],[-75.579507,6.19649],[-75.579292,6.196416],[-75.579394,6.196115],[-75.579838,6.196305]]],[[[-75.578249,6.203122],[-75.578138,6.203117],[-75.577891,6.203011],[-75.577681,6.202921],[-75.577597,6.202866],[-75.577525,6.202793],[-75.577451,6.202682],[-75.57742,6.202561],[-75.57749,6.201904],[-75.577501,6.201805],[-75.577636,6.200545],[-75.57767,6.200149],[-75.577783,6.199574],[-75.57779,6.199538],[-75.577798,6.199497],[-75.577889,6.199044],[-75.577987,6.198768],[-75.578129,6.19879],[-75.578213,6.198252],[-75.578185,6.19818],[-75.578473,6.197428],[-75.578508,6.197327],[-75.578693,6.197405],[-75.57895,6.197462],[-75.579008,6.197201],[-75.579198,6.197232],[-75.579181,6.197335],[-75.57917,6.197409],[-75.579181,6.19742],[-75.579706,6.197511],[-75.57975,6.197283],[-75.580077,6.197354],[-75.579971,6.197651],[-75.579905,6.197637],[-75.579886,6.197691],[-75.579876,6.197719],[-75.579907,6.19773],[-75.57974,6.198327],[-75.579603,6.198838],[-75.579445,6.199526],[-75.579397,6.199524],[-75.579395,6.199588],[-75.579384,6.199753],[-75.579409,6.199754],[-75.579294,6.200255],[-75.579071,6.201731],[-75.578945,6.202808],[-75.578588,6.203001],[-75.578348,6.203102],[-75.578249,6.203122]]]]}}]}