{"type":"FeatureCollection","features":[{"type":"Feature","properties":{"name":"Carrera 52"},"geometry":{"type":"LineString","coordinates":[[-75.586616,6.205352],[-75.586563,6.205369],[-75.586534,6.205386],[-75.586513,6.205407],[-75.586499,6.205436],[-75.586263,6.205985],[-75.58621,6.206122],[-75.586079,6.206463]]}},{"type":"Feature","properties":{"name":"Carrera 52"},"geometry":{"type":"LineString","coordinates":[[-75.584655,6.210457],[-75.584669,6.210435],[-75.584758,6.210303],[-75.584899,6.210045],[-75.584963,6.209891],[-75.585007,6.209783],[-75.58503,6.209728],[-75.585047,6.209687],[-75.58507,6.209632],[-75.585212,6.209287],[-75.585228,6.209249],[-75.585253,6.209189],[-75.585651,6.20822]]}},{"type":"Feature","properties":{"name":"Carrera 52"},"geometry":{"type":"LineString","coordinates":[[-75.586002,6.206647],[-75.585976,6.206713]]}},{"type":"Feature","properties":{"name":"Carrera 50"},"geometry":{"type":"LineString","coordinates":[[-75.57897,6.212516],[-75.578969,6.212443],[-75.578968,6.212373],[-75.578986,6.212213],[-75.579046,6.211864],[-75.579095,6.211182],[-75.579143,6.210855],[-75.579195,6.210494],[-75.579259,6.210082],[-75.579407,6.209143]]}},{"type":"Feature","properties":{"name":null},"geometry":{"type":"LineString","coordinates":[[-75.577647,6.200043],[-75.577589,6.200024],[-75.57753,6.200016],[-75.577482,6.200006],[-75.577426,6.199997]]}},{"type":"Feature","properties":{"name":"Carrera 52"},"geometry":{"type":"LineString","coordinates":[[-75.583784,6.211337],[-75.583583,6.21166],[-75.58338,6.211985],[-75.583158,6.212343],[-75.583,6.212597],[-75.582904,6.21275],[-75.582815,6.212896],[-75.582558,6.213316]]}},{"type":"Feature","properties":{"name":"Calle 5"},"geometry":{"type":"LineString","coordinates":[[-75.574061,6.206348],[-75.574327,6.206454],[-75.574895,6.206734],[-75.575259,6.206902],[-75.575674,6.207091],[-75.576079,6.207288],[-75.576623,6.207535],[-75.576733,6.207585]]}},{"type":"Feature","properties":{"name":"Carrera 52"},"geometry":{"type":"LineString","coordinates":[[-75.583836,6.211763],[-75.584094,6.21136]]}},{"type":"Feature","properties":{"name":"Carrera 52"},"geometry":{"type":"LineString","coordinates":[[-75.583626,6.212093],[-75.583836,6.211763]]}},{"type":"Feature","properties":{"name":"Carrera 52"},"geometry":{"type":"LineString","coordinates":[[-75.586294,6.206684],[-75.586511,6.206165],[-75.58664,6.205861],[-75.5868,6.205471],[-75.586811,6.205434],[-75.586819,6.205395],[-75.586827,6.205228]]}},{"type":"Feature","properties":{"name":"Carrera 52"},"geometry":{"type":"LineString","coordinates":[[-75.58597,6.207469],[-75.585997,6.207405],[-75.586193,6.206925]]}},{"type":"Feature","properties":{"name":"Carrera 52"},"geometry":{"type":"LineString","coordinates":[[-75.585831,6.207791],[-75.58597,6.207469]]}},{"type":"Feature","properties":{"name":"Carrera 52"},"geometry":{"type":"LineString","coordinates":[[-75.585651,6.20822],[-75.585831,6.207791]]}},{"type":"Feature","properties":{"name":"Carrera 52"},"geometry":{"type":"LineString","coordinates":[[-75.58464,6.210486],[-75.584655,6.210457]]}},{"type":"Feature","properties":{"name":"Carrera 52"},"geometry":{"type":"LineString","coordinates":[[-75.584288,6.211048],[-75.584311,6.21101],[-75.58464,6.210486]]}},{"type":"Feature","properties":{"name":"Carrera 52"},"geometry":{"type":"LineString","coordinates":[[-75.584094,6.21136],[-75.584288,6.211048]]}},{"type":"Feature","properties":{"name":"Carrera 52"},"geometry":{"type":"LineString","coordinates":[[-75.584221,6.210636],[-75.584059,6.210896],[-75.583989,6.211008]]}},{"type":"Feature","properties":{"name":"Carrera 52"},"geometry":{"type":"LineString","coordinates":[[-75.584406,6.210333],[-75.584221,6.210636]]}},{"type":"Feature","properties":{"name":"Carrera 52"},"geometry":{"type":"LineString","coordinates":[[-75.5857,6.207369],[-75.585515,6.207809],[-75.585488,6.207874],[-75.585414,6.20805],[-75.585234,6.208474],[-75.585013,6.208994],[-75.584933,6.209183],[-75.584814,6.209463],[-75.584694,6.209746],[-75.584617,6.209928],[-75.584519,6.21015],[-75.584406,6.210333]]}},{"type":"Feature","properties":{"name":"Carrera 52"},"geometry":{"type":"LineString","coordinates":[[-75.583883,6.211178],[-75.583855,6.211224],[-75.58382,6.211279],[-75.583784,6.211337]]}},{"type":"Feature","properties":{"name":"Carrera 52"},"geometry":{"type":"LineString","coordinates":[[-75.583989,6.211008],[-75.583922,6.211116],[-75.583883,6.211178]]}},{"type":"Feature","properties":{"name":"Calle 5"},"geometry":{"type":"LineString","coordinates":[[-75.573898,6.206271],[-75.574061,6.206348]]}},{"type":"Feature","properties":{"name":"Calle 5"},"geometry":{"type":"LineString","coordinates":[[-75.573898,6.206271],[-75.573458,6.206078]]}},{"type":"Feature","properties":{"name":null},"geometry":{"type":"LineString","coordinates":[[-75.5772,6.203427],[-75.577238,6.203433],[-75.577281,6.203446],[-75.577343,6.203478]]}},{"type":"Feature","properties":{"name":"Ciclorruta Las Vegas"},"geometry":{"type":"LineString","coordinates":[[-75.576301,6.21277],[-75.576424,6.211475],[-75.576579,6.209943],[-75.576603,6.209692],[-75.576694,6.208814],[-75.576724,6.208515],[-75.576772,6.207996],[-75.576886,6.206803],[-75.576924,6.206384]]}},{"type":"Feature","properties":{"name":null},"geometry":{"type":"LineString","coordinates":[[-75.596253,6.202517],[-75.596095,6.202459],[-75.595788,6.202367],[-75.595512,6.202261],[-75.595189,6.202108],[-75.594985,6.20203],[-75.594773,6.201971],[-75.594615,6.201958],[-75.594365,6.201954],[-75.59396,6.20198],[-75.593542,6.202],[-75.593452,6.202003],[-75.593289,6.202025],[-75.593091,6.202049],[-75.592941,6.202079],[-75.592828,6.20211],[-75.59272,6.202139],[-75.592647,6.202187],[-75.592545,6.202247],[-75.592227,6.202433],[-75.5921,6.202462],[-75.591952,6.202435],[-75.591785,6.202351],[-75.591584,6.202184],[-75.591521,6.202138],[-75.59132,6.20205],[-75.591236,6.202019],[-75.59104,6.201946],[-75.590977,6.201926],[-75.590916,6.201953],[-75.590897,6.201969],[-75.590865,6.201998],[-75.590806,6.202081],[-75.590757,6.202113],[-75.590706,6.202123],[-75.590642,6.202123],[-75.590593,6.202112]]}},{"type":"Feature","properties":{"name":"Calle 9 Sur"},"geometry":{"type":"LineString","coordinates":[[-75.588622,6.200961],[-75.588832,6.201016],[-75.589086,6.201084],[-75.589313,6.201137]]}},{"type":"Feature","properties":{"name":"Carrera 52"},"geometry":{"type":"LineString","coordinates":[[-75.582824,6.213366],[-75.583199,6.212772],[-75.583287,6.212633]]}},{"type":"Feature","properties":{"name":"Carrera 52"},"geometry":{"type":"LineString","coordinates":[[-75.583287,6.212633],[-75.583506,6.212299]]}},{"type":"Feature","properties":{"name":"Carrera 52"},"geometry":{"type":"LineString","coordinates":[[-75.583506,6.212299],[-75.583626,6.212093]]}},{"type":"Feature","properties":{"name":"Carrera 52"},"geometry":{"type":"LineString","coordinates":[[-75.586079,6.206463],[-75.586031,6.206579],[-75.586002,6.206647]]}},{"type":"Feature","properties":{"name":"Carrera 52"},"geometry":{"type":"LineString","coordinates":[[-75.585976,6.206713],[-75.585933,6.206816],[-75.585882,6.206938],[-75.585719,6.207329],[-75.5857,6.207369]]}},{"type":"Feature","properties":{"name":"Carrera 52"},"geometry":{"type":"LineString","coordinates":[[-75.586248,6.206792],[-75.586294,6.206684]]}},{"type":"Feature","properties":{"name":"Carrera 52"},"geometry":{"type":"LineString","coordinates":[[-75.586193,6.206925],[-75.586248,6.206792]]}},{"type":"Feature","properties":{"name":"Calle 9 Sur"},"geometry":{"type":"LineString","coordinates":[[-75.589313,6.201137],[-75.589475,6.201188]]}},{"type":"Feature","properties":{"name":"Calle 9 Sur"},"geometry":{"type":"LineString","coordinates":[[-75.5886,6.200955],[-75.588622,6.200961]]}},{"type":"Feature","properties":{"name":null},"geometry":{"type":"LineString","coordinates":[[-75.576931,6.205529],[-75.576965,6.20554],[-75.577002,6.205551]]}},{"type":"Feature","properties":{"name":"Ciclorruta Las Vegas"},"geometry":{"type":"LineString","coordinates":[[-75.577441,6.201165],[-75.577551,6.200313],[-75.577589,6.200024]]}},{"type":"Feature","properties":{"name":"Ciclorruta Las Vegas"},"geometry":{"type":"LineString","coordinates":[[-75.57753,6.200016],[-75.577398,6.201206],[-75.57727,6.202308],[-75.577228,6.202655],[-75.577217,6.202764],[-75.577217,6.202766]]}},{"type":"Feature","properties":{"name":"Ciclorruta Las Vegas"},"geometry":{"type":"LineString","coordinates":[[-75.576982,6.205761],[-75.576989,6.205683],[-75.577002,6.205551],[-75.577095,6.204506]]}},{"type":"Feature","properties":{"name":"Ciclorruta Las Vegas"},"geometry":{"type":"LineString","coordinates":[[-75.577217,6.202766],[-75.577174,6.203293],[-75.57717,6.20336],[-75.577166,6.203425]]}},{"type":"Feature","properties":{"name":"Ciclorruta Las Vegas"},"geometry":{"type":"LineString","coordinates":[[-75.577252,6.202785],[-75.577252,6.202778],[-75.577267,6.202668],[-75.577441,6.201165]]}},{"type":"Feature","properties":{"name":"Ciclorruta Las Vegas"},"geometry":{"type":"LineString","coordinates":[[-75.5772,6.203427],[-75.577207,6.203316],[-75.577252,6.202785]]}},{"type":"Feature","properties":{"name":"Ciclorruta Las Vegas"},"geometry":{"type":"LineString","coordinates":[[-75.577165,6.203731],[-75.5772,6.203427]]}},{"type":"Feature","properties":{"name":"Ciclorruta Las Vegas"},"geometry":{"type":"LineString","coordinates":[[-75.577166,6.203425],[-75.577165,6.203731]]}},{"type":"Feature","properties":{"name":"Ciclorruta Las Vegas"},"geometry":{"type":"LineString","coordinates":[[-75.577095,6.204506],[-75.577165,6.203731]]}},{"type":"Feature","properties":{"name":"Ciclorruta Las Vegas"},"geometry":{"type":"LineString","coordinates":[[-75.57697,6.205864],[-75.576982,6.205761]]}},{"type":"Feature","properties":{"name":"Ciclorruta Las Vegas"},"geometry":{"type":"LineString","coordinates":[[-75.577095,6.204506],[-75.577046,6.204657],[-75.577002,6.205133],[-75.576965,6.20554],[-75.576951,6.205702],[-75.576951,6.205758],[-75.57697,6.205864]]}},{"type":"Feature","properties":{"name":"Ciclorruta Las Vegas"},"geometry":{"type":"LineString","coordinates":[[-75.576208,6.213694],[-75.576293,6.212872]]}},{"type":"Feature","properties":{"name":"Ciclorruta Las Vegas"},"geometry":{"type":"LineString","coordinates":[[-75.576924,6.206384],[-75.57697,6.205864]]}},{"type":"Feature","properties":{"name":"Ciclorruta Las Vegas"},"geometry":{"type":"LineString","coordinates":[[-75.576924,6.206384],[-75.576878,6.206479],[-75.576847,6.206796],[-75.57672,6.208255],[-75.576586,6.20958],[-75.576545,6.209941],[-75.576377,6.211642],[-75.576263,6.212768]]}},{"type":"Feature","properties":{"name":"Ciclorruta Las Vegas"},"geometry":{"type":"LineString","coordinates":[[-75.576253,6.21287],[-75.576175,6.21369]]}},{"type":"Feature","properties":{"name":"Ciclorruta Las Vegas"},"geometry":{"type":"LineString","coordinates":[[-75.576293,6.212872],[-75.576301,6.21277]]}},{"type":"Feature","properties":{"name":"Ciclorruta Las Vegas"},"geometry":{"type":"LineString","coordinates":[[-75.576263,6.212768],[-75.576253,6.21287]]}},{"type":"Feature","properties":{"name":null},"geometry":{"type":"LineString","coordinates":[[-75.585702,6.18743],[-75.585268,6.187717],[-75.584984,6.187934],[-75.584678,6.188163],[-75.58452,6.188309],[-75.584503,6.188326],[-75.584419,6.188414],[-75.584293,6.188604],[-75.584059,6.188969],[-75.583916,6.189228],[-75.583812,6.189452],[-75.583756,6.189688]]}}]}