{"type":"FeatureCollection","features":[{"type":"Feature","properties":{"name":"UNIDAD DEPORTIVA MARÍA LUISA CALLE","free":12,"slots":15},"geometry":{"type":"Point","coordinates":[-75.59309,6.21553]}},{"type":"Feature","properties":{"name":"TELEMEDELLÍN","free":1,"slots":16},"geometry":{"type":"Point","coordinates":[-75.57145,6.21989]}},{"type":"Feature","properties":{"name":"POLITÉCNICO JIC","free":0,"slots":11},"geometry":{"type":"Point","coordinates":[-75.57634,6.20982]}},{"type":"Feature","properties":{"name":"CAMPO AMOR","free":5,"slots":25},"geometry":{"type":"Point","coordinates":[-75.587836,6.213033]}},{"type":"Feature","properties":{"name":"VILLA CARLOTA","free":2,"slots":12},"geometry":{"type":"Point","coordinates":[-75.57531,6.22021]}},{"type":"Feature","properties":{"name":"VEGAS CALLE 4SUR","free":6,"slots":21},"geometry":{"type":"Point","coordinates":[-75.577467,6.203247]}},{"type":"Feature","properties":{"name":"TERMINAL DEL SUR","free":1,"slots":31},"geometry":{"type":"Point","coordinates":[-75.586644,6.216762]}}]}