{"type":"FeatureCollection","features":[{"type":"Feature","properties":{"nombre":"Parroquia Santa María de Los Angeles - Sede Alterna","tipo":"Espacios para el culto","componentes":"Equipamientos de Culto (CL)","nivel":"Barrial-veredal"},"geometry":{"type":"Polygon","coordinates":[[[-75.580762,6.19253],[-75.580806,6.192365],[-75.581024,6.192416],[-75.580984,6.192595],[-75.580762,6.19253]]]}},{"type":"Feature","properties":{"nombre":"Escuela de Música El Poblado","tipo":"Centros de desarrollo cultural","componentes":"Equipamientos Culturales (CU)","nivel":"Zonal-corregimental"},"geometry":{"type":"Polygon","coordinates":[[[-75.578621,6.190635],[-75.578598,6.190629],[-75.578546,6.190635],[-75.578501,6.190605],[-75.578546,6.190442],[-75.578594,6.190446],[-75.578642,6.190468],[-75.578627,6.190525],[-75.578737,6.190549],[-75.578708,6.190656],[-75.578673,6.1907],[-75.578609,6.190685],[-75.578621,6.190635]]]}},{"type":"Feature","properties":{"nombre":"Defensa Civil Colombiana Sede El Diamante","tipo":"Sede defensa civil","componentes":"Equipamientos de prevención y atención de desastres (PA)","nivel":"Municipal"},"geometry":{"type":"Polygon","coordinates":[[[-75.570801,6.211055],[-75.570829,6.210985],[-75.571021,6.211061],[-75.570999,6.211133],[-75.570801,6.211055]]]}},{"type":"Feature","properties":{"nombre":"Lote servicios colectivos Urbanización Bagatela Campestre U-8750","tipo":"No aplica","componentes":"Uso dotacional sin equipamiento construido","nivel":"No aplica"},"geometry":{"type":"Polygon","coordinates":[[[-75.573307,6.190901],[-75.573644,6.190888],[-75.573514,6.191216],[-75.57335,6.191235],[-75.573326,6.19122],[-75.573307,6.190901]]]}},{"type":"Feature","properties":{"nombre":"Colegio de La Compañia de María La Enseñanza","tipo":"Educación básica","componentes":"Equipamientos de Educación (ED)","nivel":"Zonal-corregimental"},"geometry":{"type":"Polygon","coordinates":[[[-75.573475,6.193049],[-75.573612,6.192715],[-75.57497,6.193218],[-75.575268,6.193681],[-75.575485,6.193733],[-75.575766,6.193741],[-75.575852,6.193753],[-75.575878,6.193882],[-75.575867,6.194047],[-75.575847,6.194151],[-75.575782,6.194325],[-75.575734,6.194412],[-75.57565,6.194533],[-75.575563,6.194628],[-75.574793,6.195296],[-75.574737,6.195315],[-75.574707,6.195314],[-75.574665,6.195292],[-75.574632,6.195253],[-75.574616,6.195209],[-75.574533,6.195149],[-75.574023,6.194875],[-75.573549,6.194637],[-75.573111,6.194456],[-75.573656,6.19313],[-75.573475,6.193049]]]}},{"type":"Feature","properties":{"nombre":"Colegio Gimnasio Los Pinares","tipo":"Educación básica","componentes":"Equipamientos de Educación (ED)","nivel":"Zonal-corregimental"},"geometry":{"type":"Polygon","coordinates":[[[-75.570968,6.1912],[-75.570643,6.191116],[-75.570531,6.191407],[-75.570296,6.191333],[-75.570366,6.191067],[-75.570382,6.191071],[-75.57039,6.191058],[-75.570663,6.190001],[-75.570872,6.190053],[-75.570913,6.190104],[-75.570972,6.190119],[-75.571326,6.190045],[-75.571389,6.190013],[-75.571688,6.189929],[-75.572134,6.189754],[-75.572112,6.190106],[-75.572221,6.190176],[-75.572092,6.190553],[-75.57204,6.190835],[-75.572022,6.191063],[-75.571942,6.19149],[-75.571686,6.191548],[-75.57147,6.191562],[-75.571512,6.191356],[-75.57107,6.191279],[-75.571079,6.191221],[-75.570968,6.1912]]]}},{"type":"Feature","properties":{"nombre":"Iglesia San José - El Poblado","tipo":"Espacios para el culto","componentes":"Equipamientos de Culto (CL)","nivel":"Zonal-corregimental"},"geometry":{"type":"Polygon","coordinates":[[[-75.570455,6.210216],[-75.57022,6.210126],[-75.570212,6.210147],[-75.570189,6.210143],[-75.569967,6.210058],[-75.570051,6.209827],[-75.57053,6.210011],[-75.570455,6.210216]]]}},{"type":"Feature","properties":{"nombre":"Clínica Medellín Sede Poblado","tipo":"Equipamientos de tercer nivel de atención","componentes":"Equipamientos de Salud (SA)","nivel":"Supramunicipal"},"geometry":{"type":"Polygon","coordinates":[[[-75.570746,6.207016],[-75.570641,6.206585],[-75.570757,6.206567],[-75.570754,6.206547],[-75.571332,6.206421],[-75.571344,6.206437],[-75.571355,6.206516],[-75.57127,6.206961],[-75.570866,6.207007],[-75.570865,6.206998],[-75.570746,6.207016]]]}},{"type":"Feature","properties":{"nombre":"Iglesia La Divina Eucaristía","tipo":"Espacios para el culto","componentes":"Equipamientos de Culto (CL)","nivel":"Barrial-veredal"},"geometry":{"type":"Polygon","coordinates":[[[-75.566471,6.207252],[-75.566271,6.206661],[-75.566418,6.206531],[-75.566797,6.207093],[-75.566905,6.207194],[-75.566791,6.207197],[-75.566595,6.207247],[-75.566471,6.207252]]]}},{"type":"Feature","properties":{"nombre":"Centro Preescolar Eugenia Ravasco","tipo":"Educación básica","componentes":"Equipamientos de Educación (ED)","nivel":"Zonal-corregimental"},"geometry":{"type":"Polygon","coordinates":[[[-75.572981,6.211215],[-75.573143,6.210798],[-75.573167,6.210807],[-75.573088,6.210995],[-75.573136,6.211014],[-75.573205,6.210838],[-75.573385,6.21091],[-75.573275,6.211199],[-75.573517,6.211298],[-75.573389,6.211645],[-75.573037,6.211503],[-75.573126,6.211273],[-75.572981,6.211215]]]}},{"type":"Feature","properties":{"nombre":"Sección Escuela Guillermo Echavarría Misas","tipo":"Educación básica","componentes":"Equipamientos de Educación (ED)","nivel":"Barrial-veredal"},"geometry":{"type":"Polygon","coordinates":[[[-75.571211,6.210783],[-75.571269,6.210626],[-75.57163,6.210767],[-75.571567,6.210935],[-75.571223,6.210803],[-75.571211,6.210783]]]}},{"type":"Feature","properties":{"nombre":"Iglesia Santa María de Los Dolores","tipo":"Espacios para el culto","componentes":"Equipamientos de Culto (CL)","nivel":"Barrial-veredal"},"geometry":{"type":"Polygon","coordinates":[[[-75.574518,6.209342],[-75.574485,6.20924],[-75.574477,6.209242],[-75.574464,6.209202],[-75.574473,6.209199],[-75.574417,6.209019],[-75.574464,6.209003],[-75.574448,6.208898],[-75.574583,6.208866],[-75.574713,6.209284],[-75.574518,6.209342]]]}},{"type":"Feature","properties":{"nombre":"Centro Cultural Timonel","tipo":"Centros de desarrollo cultural","componentes":"Equipamientos Culturales (CU)","nivel":"Barrial-veredal"},"geometry":{"type":"Polygon","coordinates":[[[-75.573581,6.202877],[-75.57385,6.202602],[-75.574069,6.202802],[-75.574049,6.202863],[-75.57382,6.203335],[-75.573781,6.203359],[-75.573718,6.203369],[-75.573655,6.203366],[-75.573424,6.203285],[-75.573426,6.203279],[-75.573378,6.20326],[-75.573581,6.202877]]]}},{"type":"Feature","properties":{"nombre":"Parroquia Santa María de los Ángeles","tipo":"Espacios para el culto","componentes":"Equipamientos de Culto (CL)","nivel":"Barrial-veredal"},"geometry":{"type":"Polygon","coordinates":[[[-75.579253,6.191009],[-75.579282,6.190896],[-75.57965,6.190995],[-75.579599,6.191108],[-75.579253,6.191009]]]}},{"type":"Feature","properties":{"nombre":"Cancha de Futbol Manila","tipo":"Escenario deportivo-recreativo","componentes":"Equipamientos de Recreación y Deporte (RE)","nivel":"Barrial-veredal"},"geometry":{"type":"Polygon","coordinates":[[[-75.572306,6.212269],[-75.572396,6.212051],[-75.572803,6.212219],[-75.572713,6.212437],[-75.572306,6.212269]]]}},{"type":"Feature","properties":{"nombre":"Centro de Fé y Culturas","tipo":"Centros de integración barrial o unidades básicas de servicios","componentes":"Equipamientos Comunitarios (CM)","nivel":"Zonal-corregimental"},"geometry":{"type":"Polygon","coordinates":[[[-75.577378,6.196777],[-75.577521,6.19641],[-75.577886,6.19656],[-75.577709,6.197006],[-75.577378,6.196777]]]}},{"type":"Feature","properties":{"nombre":"Subestación de Energía EPM - El Poblado","tipo":"Equipamientos para la prestación del servicio de energía","componentes":"Equipamientos para la prestación de los servicios públicos (SP)","nivel":"Municipal"},"geometry":{"type":"Polygon","coordinates":[[[-75.565129,6.203409],[-75.565611,6.202416],[-75.565643,6.202462],[-75.565952,6.202771],[-75.565955,6.202788],[-75.56569,6.203201],[-75.565656,6.20327],[-75.56509,6.204105],[-75.56505,6.203754],[-75.565062,6.203612],[-75.565077,6.203542],[-75.565129,6.203409]]]}},{"type":"Feature","properties":{"nombre":"Centro de Especialistas Intermédicas","tipo":"Equipamientos de primer nivel de atención","componentes":"Equipamientos de Salud (SA)","nivel":"Zonal-corregimental"},"geometry":{"type":"Polygon","coordinates":[[[-75.570249,6.206071],[-75.570695,6.205931],[-75.570735,6.206021],[-75.570859,6.206374],[-75.57086,6.206407],[-75.570412,6.206542],[-75.570249,6.206071]]]}},{"type":"Feature","properties":{"nombre":"Estación Metro Poblado","tipo":"Equipamientos para el Transporte Público Colectivo y Masivo","componentes":"Equipamientos para el transporte (TT)","nivel":"Supramunicipal"},"geometry":{"type":"Polygon","coordinates":[[[-75.57791,6.212972],[-75.578129,6.211378],[-75.578112,6.211376],[-75.578162,6.210998],[-75.578347,6.211021],[-75.578298,6.2114],[-75.578277,6.211394],[-75.578058,6.212994],[-75.578016,6.212988],[-75.57798,6.212995],[-75.577956,6.212981],[-75.57791,6.212972]]]}},{"type":"Feature","properties":{"nombre":"Politécnico Colombiano \"Jaime Isaza Cadavid\"","tipo":"Educación Superior","componentes":"Equipamientos de Educación (ED)","nivel":"Supramunicipal"},"geometry":{"type":"Polygon","coordinates":[[[-75.576478,6.212522],[-75.576723,6.209935],[-75.576778,6.20994],[-75.57679,6.209818],[-75.576735,6.209812],[-75.576827,6.208864],[-75.576859,6.208868],[-75.576861,6.20884],[-75.578002,6.208948],[-75.578002,6.208972],[-75.578058,6.20898],[-75.577564,6.212497],[-75.576913,6.212874],[-75.576546,6.212779],[-75.576518,6.212723],[-75.576491,6.212646],[-75.576478,6.212522]]]}},{"type":"Feature","properties":{"nombre":"Institución Educativa INEM \"José Félix de Restrepo\"","tipo":"Educación Superior","componentes":"Equipamientos de Educación (ED)","nivel":"Municipal"},"geometry":{"type":"Polygon","coordinates":[[[-75.578006,6.208849],[-75.576872,6.208742],[-75.576874,6.208715],[-75.57684,6.208712],[-75.57702,6.206802],[-75.577041,6.206804],[-75.577047,6.206749],[-75.577025,6.206747],[-75.577222,6.204665],[-75.57857,6.205346],[-75.578414,6.206458],[-75.578373,6.206452],[-75.578367,6.206488],[-75.578408,6.206494],[-75.57808,6.208829],[-75.578009,6.208822],[-75.578006,6.208849]]]}},{"type":"Feature","properties":{"nombre":"Centro de Fracturas - Las Vegas","tipo":"Equipamientos de primer nivel de atención","componentes":"Equipamientos de Salud (SA)","nivel":"Zonal-corregimental"},"geometry":{"type":"Polygon","coordinates":[[[-75.576014,6.210227],[-75.576388,6.2101],[-75.576399,6.210136],[-75.576393,6.210305],[-75.576059,6.210366],[-75.576014,6.210227]]]}},{"type":"Feature","properties":{"nombre":"Universidad EAFIT","tipo":"Educación Superior","componentes":"Equipamientos de Educación (ED)","nivel":"Supramunicipal"},"geometry":{"type":"Polygon","coordinates":[[[-75.577428,6.202607],[-75.577664,6.200168],[-75.577709,6.200151],[-75.577725,6.200027],[-75.577691,6.20002],[-75.577736,6.199779],[-75.57794,6.198873],[-75.578103,6.198934],[-75.578244,6.19804],[-75.578232,6.198039],[-75.578461,6.197492],[-75.57851,6.197342],[-75.579703,6.197522],[-75.580007,6.197575],[-75.579795,6.198229],[-75.579519,6.199249],[-75.579421,6.199245],[-75.579409,6.199282],[-75.579424,6.199282],[-75.579426,6.199314],[-75.579495,6.199322],[-75.579213,6.200809],[-75.578942,6.20279],[-75.578347,6.203077],[-75.578262,6.203099],[-75.578199,6.203102],[-75.578078,6.203082],[-75.577769,6.202951],[-75.57761,6.202873],[-75.577512,6.20278],[-75.577428,6.202607]]]}},{"type":"Feature","properties":{"nombre":"Colegio San José de Las Vegas","tipo":"Educación básica","componentes":"Equipamientos de Educación (ED)","nivel":"Zonal-corregimental"},"geometry":{"type":"Polygon","coordinates":[[[-75.577445,6.19935],[-75.576943,6.199013],[-75.576923,6.19909],[-75.576885,6.199129],[-75.576826,6.199156],[-75.57679,6.199159],[-75.576753,6.199156],[-75.576723,6.199142],[-75.576692,6.199119],[-75.576598,6.198985],[-75.576562,6.198946],[-75.576376,6.198853],[-75.576306,6.198804],[-75.576249,6.198752],[-75.576207,6.198703],[-75.576161,6.198579],[-75.576123,6.198525],[-75.576122,6.198436],[-75.576102,6.198414],[-75.576036,6.198408],[-75.576257,6.197821],[-75.576275,6.197787],[-75.577108,6.198236],[-75.577108,6.198213],[-75.577237,6.197993],[-75.577214,6.197939],[-75.577192,6.19791],[-75.577476,6.197508],[-75.577538,6.197445],[-75.577537,6.197417],[-75.577522,6.197375],[-75.577527,6.197362],[-75.577662,6.197156],[-75.577697,6.197114],[-75.57773,6.197115],[-75.578161,6.19741],[-75.577989,6.197807],[-75.577783,6.198381],[-75.577635,6.198867],[-75.577518,6.199336],[-75.577445,6.19935]]]}},{"type":"Feature","properties":{"nombre":"Sede Social Loma de los González","tipo":"Centros de integración barrial o unidades básicas de servicios","componentes":"Equipamientos Comunitarios (CM)","nivel":"Barrial-veredal"},"geometry":{"type":"Polygon","coordinates":[[[-75.565236,6.197442],[-75.565383,6.197065],[-75.565468,6.19711],[-75.56541,6.197386],[-75.565363,6.197692],[-75.565178,6.197641],[-75.565236,6.197442]]]}},{"type":"Feature","properties":{"nombre":"Centro Geriátrico","tipo":"Equipamientos para la Atención física y psicosocial","componentes":"Equipamientos de Asistencia Social (AS)","nivel":"Municipal"},"geometry":{"type":"Polygon","coordinates":[[[-75.571315,6.192123],[-75.570919,6.192042],[-75.570997,6.191667],[-75.571411,6.191759],[-75.571315,6.192123]]]}},{"type":"Feature","properties":{"nombre":"Club Campestre","tipo":"Equipamientos deportivos y recreativos no tradicionales","componentes":"Equipamientos de Recreación y Deporte (RE)","nivel":"Municipal"},"geometry":{"type":"Polygon","coordinates":[[[-75.573852,6.191236],[-75.573679,6.191234],[-75.573501,6.191263],[-75.573514,6.191216],[-75.573669,6.190827],[-75.573634,6.190023],[-75.573779,6.189918],[-75.573794,6.189763],[-75.573641,6.189628],[-75.573622,6.189602],[-75.573584,6.189575],[-75.573508,6.189554],[-75.573473,6.189551],[-75.57342,6.189529],[-75.573255,6.189506],[-75.573159,6.189507],[-75.573071,6.189478],[-75.57295,6.189471],[-75.572877,6.189551],[-75.572796,6.189672],[-75.572756,6.189762],[-75.572722,6.189879],[-75.572708,6.189897],[-75.572578,6.190001],[-75.572476,6.190049],[-75.572478,6.190093],[-75.572221,6.190176],[-75.572112,6.190106],[-75.572134,6.189754],[-75.571688,6.189929],[-75.571389,6.190013],[-75.571326,6.190045],[-75.570972,6.190119],[-75.570913,6.190104],[-75.570872,6.190053],[-75.570632,6.189992],[-75.570447,6.189927],[-75.570332,6.189936],[-75.569856,6.189747],[-75.569785,6.189585],[-75.56977,6.189572],[-75.569777,6.189555],[-75.569807,6.189529],[-75.569791,6.189479],[-75.569807,6.189465],[-75.569899,6.189329],[-75.569891,6.1893],[-75.569967,6.18921],[-75.569982,6.189118],[-75.570049,6.189095],[-75.570197,6.188855],[-75.570061,6.188777],[-75.570112,6.188633],[-75.570261,6.188522],[-75.570274,6.18854],[-75.570495,6.187838],[-75.570144,6.187167],[-75.570006,6.186731],[-75.569944,6.186729],[-75.569967,6.186116],[-75.569985,6.186052],[-75.570014,6.185986],[-75.570052,6.185936],[-75.570094,6.185903],[-75.570114,6.185889],[-75.570163,6.185875],[-75.570252,6.185863],[-75.571346,6.185805],[-75.571406,6.185807],[-75.571486,6.185821],[-75.571611,6.18586],[-75.572676,6.186379],[-75.573276,6.186708],[-75.573533,6.186862],[-75.573784,6.187027],[-75.574218,6.187332],[-75.574296,6.187447],[-75.574496,6.187977],[-75.574559,6.188108],[-75.574735,6.18841],[-75.57477,6.188457],[-75.574843,6.188528],[-75.57503,6.188678],[-75.57589,6.189304],[-75.57639,6.189606],[-75.576616,6.18972],[-75.576997,6.189854],[-75.576625,6.191146],[-75.575737,6.190598],[-75.5753,6.190434],[-75.575148,6.190351],[-75.574691,6.190043],[-75.574535,6.18992],[-75.574374,6.190015],[-75.574302,6.190107],[-75.574455,6.190304],[-75.574498,6.190373],[-75.574571,6.190512],[-75.574624,6.19064],[-75.57468,6.190719],[-75.574791,6.190832],[-75.574875,6.190895],[-75.574403,6.191376],[-75.574237,6.191316],[-75.574092,6.191278],[-75.573852,6.191236]]]}},{"type":"Feature","properties":{"nombre":"Museo el Castillo","tipo":"Centros de promoción y divulgación artística y cultural","componentes":"Equipamientos Culturales (CU)","nivel":"Municipal"},"geometry":{"type":"Polygon","coordinates":[[[-75.569671,6.191091],[-75.569599,6.190776],[-75.569578,6.19074],[-75.569512,6.190685],[-75.568566,6.190549],[-75.568741,6.189828],[-75.568838,6.189474],[-75.568849,6.18947],[-75.568861,6.189431],[-75.569051,6.188772],[-75.569121,6.188474],[-75.569162,6.188487],[-75.569405,6.188518],[-75.569627,6.188622],[-75.570112,6.188633],[-75.570061,6.188777],[-75.570197,6.188855],[-75.570049,6.189095],[-75.569982,6.189118],[-75.569967,6.18921],[-75.569891,6.1893],[-75.569899,6.189329],[-75.569807,6.189465],[-75.569791,6.189479],[-75.569807,6.189529],[-75.569777,6.189555],[-75.56977,6.189572],[-75.569785,6.189585],[-75.569856,6.189747],[-75.570332,6.189936],[-75.570447,6.189927],[-75.570663,6.190001],[-75.570422,6.190931],[-75.569918,6.190794],[-75.569914,6.190856],[-75.569927,6.19087],[-75.5699,6.191052],[-75.569795,6.191087],[-75.569793,6.191073],[-75.569784,6.191069],[-75.569671,6.191091]]]}},{"type":"Feature","properties":{"nombre":"Colegio Gimnasio Los Pinares","tipo":"Educación básica","componentes":"Equipamientos de Educación (ED)","nivel":"Zonal-corregimental"},"geometry":{"type":"Polygon","coordinates":[[[-75.570997,6.191667],[-75.57107,6.191279],[-75.571512,6.191356],[-75.57147,6.191562],[-75.571411,6.191759],[-75.570997,6.191667]]]}},{"type":"Feature","properties":{"nombre":"Parroquia San Gabriel de La Dolorosa","tipo":"Espacios para el culto","componentes":"Equipamientos de Culto (CL)","nivel":"Barrial-veredal"},"geometry":{"type":"Polygon","coordinates":[[[-75.590116,6.200753],[-75.589773,6.200663],[-75.589777,6.200626],[-75.589671,6.200621],[-75.589694,6.20044],[-75.589727,6.200403],[-75.589756,6.200389],[-75.590026,6.2004],[-75.590021,6.20064],[-75.590166,6.200647],[-75.590165,6.200701],[-75.590146,6.200697],[-75.590116,6.200753]]]}},{"type":"Feature","properties":{"nombre":"Sección Escuela Gabriela Mistral","tipo":"Educación básica","componentes":"Equipamientos de Educación (ED)","nivel":"Barrial-veredal"},"geometry":{"type":"Polygon","coordinates":[[[-75.589283,6.199502],[-75.589402,6.199214],[-75.589894,6.199407],[-75.589776,6.199699],[-75.589283,6.199502]]]}},{"type":"Feature","properties":{"nombre":"Sección Escuela La Colina","tipo":"Educación básica","componentes":"Equipamientos de Educación (ED)","nivel":"Barrial-veredal"},"geometry":{"type":"Polygon","coordinates":[[[-75.591744,6.196997],[-75.592049,6.196991],[-75.592063,6.197005],[-75.592069,6.197112],[-75.592066,6.197489],[-75.592044,6.197605],[-75.592029,6.197613],[-75.591697,6.197538],[-75.591727,6.197394],[-75.59174,6.197272],[-75.591744,6.196997]]]}},{"type":"Feature","properties":{"nombre":"Oficinas Energía EPM - Guayabal","tipo":"Equipamientos institucionales Municipales","componentes":"Equipamientos institucionales Locales (IL)","nivel":"Municipal"},"geometry":{"type":"Polygon","coordinates":[[[-75.579206,6.209035],[-75.579409,6.207513],[-75.580906,6.207735],[-75.580694,6.209337],[-75.579206,6.209035]]]}},{"type":"Feature","properties":{"nombre":"Institución Educativa Santo Angel","tipo":"Educación básica","componentes":"Equipamientos de Educación (ED)","nivel":"Barrial-veredal"},"geometry":{"type":"Polygon","coordinates":[[[-75.587319,6.208002],[-75.587571,6.207415],[-75.588141,6.207661],[-75.587889,6.208249],[-75.587319,6.208002]]]}},{"type":"Feature","properties":{"nombre":"Iglesia Cristo Rey","tipo":"Espacios para el culto","componentes":"Equipamientos de Culto (CL)","nivel":"Barrial-veredal"},"geometry":{"type":"Polygon","coordinates":[[[-75.587299,6.207772],[-75.587177,6.207719],[-75.587156,6.207769],[-75.587052,6.207724],[-75.587084,6.20765],[-75.586792,6.207524],[-75.586847,6.20736],[-75.587141,6.207486],[-75.587162,6.207438],[-75.587248,6.207475],[-75.587229,6.207521],[-75.587302,6.207552],[-75.587283,6.207596],[-75.587318,6.207611],[-75.587334,6.207631],[-75.587329,6.207643],[-75.587351,6.207652],[-75.587299,6.207772]]]}},{"type":"Feature","properties":{"nombre":"Sección Escuela Cristo Rey","tipo":"Educación básica","componentes":"Equipamientos de Educación (ED)","nivel":"Barrial-veredal"},"geometry":{"type":"Polygon","coordinates":[[[-75.583663,6.204196],[-75.583895,6.204292],[-75.583715,6.204726],[-75.583357,6.204667],[-75.583449,6.204498],[-75.583663,6.204196]]]}},{"type":"Feature","properties":{"nombre":"Institución Educativa Cristo Rey","tipo":"Educación básica","componentes":"Equipamientos de Educación (ED)","nivel":"Barrial-veredal"},"geometry":{"type":"Polygon","coordinates":[[[-75.581479,6.204935],[-75.581945,6.205113],[-75.58197,6.205139],[-75.58197,6.20517],[-75.581776,6.205636],[-75.58175,6.205661],[-75.581719,6.205661],[-75.581268,6.20548],[-75.581242,6.205454],[-75.581243,6.205421],[-75.58144,6.204961],[-75.581456,6.204942],[-75.581479,6.204935]]]}},{"type":"Feature","properties":{"nombre":"Cancha de Futbol Cristo Rey","tipo":"Escenario deportivo-recreativo","componentes":"Equipamientos de Recreación y Deporte (RE)","nivel":"Barrial-veredal"},"geometry":{"type":"Polygon","coordinates":[[[-75.581577,6.204624],[-75.58176,6.204181],[-75.582292,6.204407],[-75.582111,6.204846],[-75.581577,6.204624]]]}},{"type":"Feature","properties":{"nombre":"Cancha de Fútbol San Rafael No. 1","tipo":"Escenario deportivo-recreativo","componentes":"Equipamientos de Recreación y Deporte (RE)","nivel":"Zonal-corregimental"},"geometry":{"type":"Polygon","coordinates":[[[-75.589503,6.200613],[-75.589774,6.200655],[-75.589773,6.200663],[-75.590116,6.200753],[-75.590071,6.201312],[-75.58934,6.201112],[-75.589335,6.201098],[-75.589468,6.200637],[-75.589484,6.200618],[-75.589503,6.200613]]]}},{"type":"Feature","properties":{"nombre":"Lote servicios colectivos Urbanización Ceibas del Sur","tipo":"No aplica","componentes":"Uso dotacional sin equipamiento construido","nivel":"No aplica"},"geometry":{"type":"Polygon","coordinates":[[[-75.585762,6.201231],[-75.586223,6.20069],[-75.585938,6.201276],[-75.585762,6.201231]]]}},{"type":"Feature","properties":{"nombre":"Placa Polideportiva Sección Escuela República de Costa Rica","tipo":"Escenario deportivo-recreativo","componentes":"Equipamientos de Recreación y Deporte (RE)","nivel":"Barrial-veredal"},"geometry":{"type":"Polygon","coordinates":[[[-75.589572,6.203066],[-75.589679,6.202913],[-75.589889,6.203007],[-75.58986,6.203104],[-75.58975,6.203138],[-75.589572,6.203066]]]}},{"type":"Feature","properties":{"nombre":"Parroquia Maria Madre de Los Huerfanos","tipo":"Espacios para el culto","componentes":"Equipamientos de Culto (CL)","nivel":"Barrial-veredal"},"geometry":{"type":"Polygon","coordinates":[[[-75.582947,6.202194],[-75.583176,6.201615],[-75.58321,6.201635],[-75.583221,6.201673],[-75.583133,6.202238],[-75.583118,6.202259],[-75.583093,6.202266],[-75.582958,6.202213],[-75.582947,6.202194]]]}},{"type":"Feature","properties":{"nombre":"Cuerpo Técnico de Investigación - CTI","tipo":"Apoyo técnico de justicia","componentes":"Equipamientos para la Administración de Justicia (AJ)","nivel":"Supramunicipal"},"geometry":{"type":"Polygon","coordinates":[[[-75.584195,6.19808],[-75.584456,6.197026],[-75.585152,6.19714],[-75.585155,6.197214],[-75.585142,6.197333],[-75.584919,6.198206],[-75.584195,6.19808]]]}},{"type":"Feature","properties":{"nombre":"CERCA - Guayabal","tipo":"Equipamientos institucionales Locales","componentes":"Equipamientos institucionales Locales (IL)","nivel":"Zonal-corregimental"},"geometry":{"type":"Polygon","coordinates":[[[-75.58837,6.20045],[-75.588426,6.200311],[-75.58852,6.200332],[-75.588455,6.200487],[-75.58837,6.20045]]]}},{"type":"Feature","properties":{"nombre":"Sección Escuela República de Costa Rica","tipo":"Educación básica","componentes":"Equipamientos de Educación (ED)","nivel":"Barrial-veredal"},"geometry":{"type":"Polygon","coordinates":[[[-75.58803,6.202443],[-75.588352,6.20257],[-75.58975,6.203138],[-75.589695,6.203232],[-75.589529,6.203307],[-75.587943,6.202648],[-75.58803,6.202443]]]}},{"type":"Feature","properties":{"nombre":"Institución Educativa José Acevedo y Gómez","tipo":"Educación básica","componentes":"Equipamientos de Educación (ED)","nivel":"Barrial-veredal"},"geometry":{"type":"Polygon","coordinates":[[[-75.58973,6.202505],[-75.589788,6.202362],[-75.58987,6.202399],[-75.589976,6.202147],[-75.590441,6.202369],[-75.590402,6.202464],[-75.590334,6.202567],[-75.59028,6.202618],[-75.590116,6.202713],[-75.58999,6.202822],[-75.589694,6.202664],[-75.58973,6.202505]]]}},{"type":"Feature","properties":{"nombre":"Central de Teléfonos EPM - Guayabal","tipo":"Equipamientos para la prestación del servicio de Telecomunicaciones","componentes":"Equipamientos para la prestación de los servicios públicos (SP)","nivel":"Municipal"},"geometry":{"type":"Polygon","coordinates":[[[-75.588385,6.201598],[-75.588477,6.201374],[-75.58869,6.201466],[-75.588597,6.20169],[-75.588385,6.201598]]]}},{"type":"Feature","properties":{"nombre":"Centro de Salud Guayabal - Metrosalud","tipo":"Equipamientos de primer nivel de atención","componentes":"Equipamientos de Salud (SA)","nivel":"Zonal-corregimental"},"geometry":{"type":"Polygon","coordinates":[[[-75.588598,6.201689],[-75.588843,6.201098],[-75.589194,6.201186],[-75.589156,6.20128],[-75.589193,6.201296],[-75.589047,6.201654],[-75.588875,6.201596],[-75.588803,6.201781],[-75.588598,6.201689]]]}},{"type":"Feature","properties":{"nombre":"Cementerio Campos de Paz","tipo":"Cementerios humanos","componentes":"Equipamientos sanitarios (SN)","nivel":"Municipal"},"geometry":{"type":"Polygon","coordinates":[[[-75.590528,6.202407],[-75.590534,6.201713],[-75.590571,6.201692],[-75.590836,6.201787],[-75.591246,6.201957],[-75.591718,6.202182],[-75.591946,6.202305],[-75.592109,6.202346],[-75.592176,6.202352],[-75.592252,6.202339],[-75.592294,6.202318],[-75.591799,6.208113],[-75.590061,6.207981],[-75.589955,6.207944],[-75.589823,6.207875],[-75.589764,6.207837],[-75.589656,6.207739],[-75.589559,6.207624],[-75.589425,6.207384],[-75.589056,6.205957],[-75.589012,6.205745],[-75.588967,6.205592],[-75.588943,6.20552],[-75.588887,6.2054],[-75.588825,6.205294],[-75.588769,6.205238],[-75.588712,6.205148],[-75.588695,6.205052],[-75.588694,6.204923],[-75.588712,6.204785],[-75.588742,6.20466],[-75.588783,6.204531],[-75.589129,6.203662],[-75.589214,6.20356],[-75.589289,6.203509],[-75.589468,6.203468],[-75.589606,6.203422],[-75.58966,6.203399],[-75.58976,6.203329],[-75.589855,6.203219],[-75.589941,6.203078],[-75.589965,6.203019],[-75.590032,6.202905],[-75.590118,6.202813],[-75.59017,6.20277],[-75.590326,6.202698],[-75.590412,6.202639],[-75.590453,6.202591],[-75.5905,6.202512],[-75.590528,6.202407]]]}},{"type":"Feature","properties":{"nombre":"Unidad Renal Instituto del Riñón","tipo":"Equipamientos de segundo nivel de atención","componentes":"Equipamientos de Salud (SA)","nivel":"Supramunicipal"},"geometry":{"type":"Polygon","coordinates":[[[-75.57798,6.195046],[-75.578095,6.194784],[-75.578262,6.194857],[-75.578155,6.195124],[-75.57798,6.195046]]]}},{"type":"Feature","properties":{"nombre":"Placa Polideportiva San Rafael No. 2","tipo":"Escenario deportivo-recreativo","componentes":"Equipamientos de Recreación y Deporte (RE)","nivel":"Barrial-veredal"},"geometry":{"type":"Polygon","coordinates":[[[-75.590054,6.200013],[-75.590157,6.199757],[-75.590311,6.199818],[-75.590208,6.200065],[-75.590054,6.200013]]]}},{"type":"Feature","properties":{"nombre":"Sede Social Cristo Rey - Apolo","tipo":"Centros de integración barrial o unidades básicas de servicios","componentes":"Equipamientos Comunitarios (CM)","nivel":"Zonal-corregimental"},"geometry":{"type":"Polygon","coordinates":[[[-75.581577,6.204624],[-75.582111,6.204846],[-75.582075,6.204934],[-75.582026,6.204937],[-75.581534,6.204729],[-75.581577,6.204624]]]}},{"type":"Feature","properties":{"nombre":"Placa Polideportiva No. 1 Respin","tipo":"Escenario deportivo-recreativo","componentes":"Equipamientos de Recreación y Deporte (RE)","nivel":"Barrial-veredal"},"geometry":{"type":"Polygon","coordinates":[[[-75.583038,6.200332],[-75.583466,6.200442],[-75.583484,6.200473],[-75.583433,6.200679],[-75.583415,6.20069],[-75.583393,6.200691],[-75.582972,6.200585],[-75.582962,6.200557],[-75.583014,6.200343],[-75.583038,6.200332]]]}},{"type":"Feature","properties":{"nombre":"Club de Vida Los Recuerdos","tipo":"Centros de integración barrial o unidades básicas de servicios","componentes":"Equipamientos Comunitarios (CM)","nivel":"Zonal-corregimental"},"geometry":{"type":"Polygon","coordinates":[[[-75.590311,6.199818],[-75.590463,6.19985],[-75.590441,6.200046],[-75.590341,6.200028],[-75.590208,6.200065],[-75.590311,6.199818]]]}},{"type":"Feature","properties":{"nombre":"Colegio San Gabriel de La Dolorosa","tipo":"Educación básica","componentes":"Equipamientos de Educación (ED)","nivel":"Barrial-veredal"},"geometry":{"type":"Polygon","coordinates":[[[-75.590021,6.20064],[-75.590026,6.2004],[-75.590175,6.200406],[-75.590166,6.200647],[-75.590021,6.20064]]]}},{"type":"Feature","properties":{"nombre":"Sede Social El Rodeo","tipo":"Centros de integración barrial o unidades básicas de servicios","componentes":"Equipamientos Comunitarios (CM)","nivel":"Vecinal"},"geometry":{"type":"Polygon","coordinates":[[[-75.588824,6.207019],[-75.588904,6.206822],[-75.588941,6.207067],[-75.588824,6.207019]]]}},{"type":"Feature","properties":{"nombre":"Clínica Colsanitas S.A.","tipo":"Equipamientos de tercer nivel de atención","componentes":"Equipamientos de Salud (SA)","nivel":"Supramunicipal"},"geometry":{"type":"Polygon","coordinates":[[[-75.577495,6.190967],[-75.577597,6.190593],[-75.577611,6.190576],[-75.577638,6.190572],[-75.577961,6.190661],[-75.577848,6.191067],[-75.577495,6.190967]]]}},{"type":"Feature","properties":{"nombre":"Casa Teatro el Poblado","tipo":"Centros de promoción y divulgación artística y cultural","componentes":"Equipamientos Culturales (CU)","nivel":"Zonal-corregimental"},"geometry":{"type":"Polygon","coordinates":[[[-75.580487,6.188205],[-75.580665,6.18779],[-75.580815,6.187901],[-75.580831,6.18792],[-75.580852,6.187965],[-75.580853,6.18804],[-75.580738,6.188309],[-75.580487,6.188205]]]}},{"type":"Feature","properties":{"nombre":"Centro de Idiomas Universidad EAFIT","tipo":"Educación Superior","componentes":"Equipamientos de Educación (ED)","nivel":"Supramunicipal"},"geometry":{"type":"Polygon","coordinates":[[[-75.576823,6.202529],[-75.576654,6.202458],[-75.576493,6.202374],[-75.576447,6.202368],[-75.576295,6.202265],[-75.576166,6.202221],[-75.576075,6.202205],[-75.575999,6.202153],[-75.575842,6.202077],[-75.575753,6.202007],[-75.575666,6.201891],[-75.575657,6.201781],[-75.575669,6.201686],[-75.575686,6.201662],[-75.575714,6.201588],[-75.575863,6.201127],[-75.575895,6.201072],[-75.575945,6.201032],[-75.576008,6.201022],[-75.576071,6.201032],[-75.57623,6.201101],[-75.57698,6.201521],[-75.577142,6.201566],[-75.577191,6.201616],[-75.577217,6.201666],[-75.57723,6.20172],[-75.577174,6.202322],[-75.577149,6.202397],[-75.577096,6.202478],[-75.577015,6.202532],[-75.576968,6.202545],[-75.576917,6.20255],[-75.576823,6.202529]]]}},{"type":"Feature","properties":{"nombre":"Inversiones Médicas de Antioquia SA Clínica Las Vegas","tipo":"Equipamientos de tercer nivel de atención","componentes":"Equipamientos de Salud (SA)","nivel":"Supramunicipal"},"geometry":{"type":"Polygon","coordinates":[[[-75.576116,6.202761],[-75.576645,6.203008],[-75.576767,6.203089],[-75.576823,6.203136],[-75.576922,6.203244],[-75.577002,6.203388],[-75.577027,6.203452],[-75.57706,6.203577],[-75.57704,6.203816],[-75.577028,6.203843],[-75.577001,6.203855],[-75.576979,6.203851],[-75.575875,6.203348],[-75.576116,6.202761]]]}},{"type":"Feature","properties":{"nombre":"Inversiones Médicas de Antioquia SA Clínica Las Vegas","tipo":"Equipamientos de tercer nivel de atención","componentes":"Equipamientos de Salud (SA)","nivel":"Supramunicipal"},"geometry":{"type":"Polygon","coordinates":[[[-75.576977,6.20421],[-75.576958,6.204234],[-75.57695,6.204258],[-75.576935,6.204417],[-75.576952,6.204444],[-75.576946,6.204512],[-75.575129,6.203644],[-75.575184,6.203529],[-75.576299,6.204058],[-75.576452,6.203732],[-75.576987,6.203984],[-75.576994,6.204001],[-75.576977,6.20421]]]}},{"type":"Feature","properties":{"nombre":"Clínica de Oncología Astorga","tipo":"Equipamientos de tercer nivel de atención","componentes":"Equipamientos de Salud (SA)","nivel":"Supramunicipal"},"geometry":{"type":"Polygon","coordinates":[[[-75.573001,6.209765],[-75.573127,6.209427],[-75.573668,6.209628],[-75.573542,6.209967],[-75.573001,6.209765]]]}},{"type":"Feature","properties":{"nombre":"Estación Metro Aguacatala","tipo":"Equipamientos para el Transporte Público Colectivo y Masivo","componentes":"Equipamientos para el transporte (TT)","nivel":"Supramunicipal"},"geometry":{"type":"Polygon","coordinates":[[[-75.581414,6.194827],[-75.582013,6.193131],[-75.58215,6.193178],[-75.581549,6.194876],[-75.581414,6.194827]]]}}]}