{"type":"FeatureCollection","features":[{"type":"Feature","properties":{"nombre":"Parque Urb. El Rodeo","categoria":"Parque Recreativo","subcategor":"Parque recreativo pasivo"},"geometry":{"type":"MultiPolygon","coordinates":[[[[-75.588928,6.207835],[-75.588738,6.207756],[-75.588896,6.207368],[-75.588992,6.207465],[-75.588928,6.207835]]],[[[-75.588888,6.207364],[-75.588888,6.207364],[-75.58889,6.207365],[-75.588888,6.207364]]]]}},{"type":"Feature","properties":{"nombre":"Zona verde Junta de Accion Comunal Casa Linda","categoria":"Parque Recreativo","subcategor":"Parque recreativo pasivo"},"geometry":{"type":"Polygon","coordinates":[[[-75.591365,6.198259],[-75.591433,6.197978],[-75.591737,6.198054],[-75.591753,6.197988],[-75.591775,6.197997],[-75.591796,6.198019],[-75.591691,6.198119],[-75.591681,6.198113],[-75.591479,6.198288],[-75.591365,6.198259]]]}},{"type":"Feature","properties":{"nombre":"Parque placa polidep. No.1 Respin","categoria":"Parque Recreativo","subcategor":"Parque recreativo activo"},"geometry":{"type":"Polygon","coordinates":[[[-75.583038,6.200244],[-75.583089,6.200037],[-75.583562,6.200144],[-75.583511,6.200359],[-75.583491,6.200375],[-75.583065,6.200276],[-75.583048,6.200264],[-75.583038,6.200244]]]}},{"type":"Feature","properties":{"nombre":"Parque San Rafael","categoria":"Parque Recreativo","subcategor":"Parque recreativo pasivo"},"geometry":{"type":"Polygon","coordinates":[[[-75.590162,6.200152],[-75.589971,6.200152],[-75.589975,6.200043],[-75.59008,6.200088],[-75.590163,6.200105],[-75.590162,6.200152]]]}},{"type":"Feature","properties":{"nombre":"Parque recreativo Cristo Rey","categoria":"Parque Recreativo","subcategor":"Parque recreativo pasivo"},"geometry":{"type":"Polygon","coordinates":[[[-75.587782,6.20737],[-75.587943,6.206971],[-75.588067,6.207028],[-75.587912,6.207414],[-75.587782,6.20737]]]}},{"type":"Feature","properties":{"nombre":"Parque Urb. Aldea Guayabal","categoria":"Parque Recreativo","subcategor":"Parque recreativo pasivo"},"geometry":{"type":"MultiPolygon","coordinates":[[[[-75.588244,6.20019],[-75.587623,6.199936],[-75.587538,6.19991],[-75.58729,6.199863],[-75.587259,6.199872],[-75.587234,6.199895],[-75.587159,6.20008],[-75.5867,6.1999],[-75.586729,6.199823],[-75.587172,6.199854],[-75.587515,6.199859],[-75.588392,6.200018],[-75.588371,6.200072],[-75.588394,6.20008],[-75.58835,6.200186],[-75.588262,6.200149],[-75.588244,6.20019]]],[[[-75.586723,6.199823],[-75.586723,6.199821],[-75.58673,6.199821],[-75.586723,6.199823]]]]}},{"type":"Feature","properties":{"nombre":"Plazoleta Estación Metro Poblado","categoria":"Plazoleta","subcategor":"No Aplica"},"geometry":{"type":"Polygon","coordinates":[[[-75.57662,6.212898],[-75.576572,6.212834],[-75.576546,6.212779],[-75.576913,6.212874],[-75.577494,6.212537],[-75.577431,6.21302],[-75.577421,6.213052],[-75.577374,6.213095],[-75.57662,6.212898]]]}},{"type":"Feature","properties":{"nombre":"Parque recreativo La Ocho","categoria":"Parque Recreativo","subcategor":"Parque recreativo activo"},"geometry":{"type":"Polygon","coordinates":[[[-75.566705,6.207586],[-75.566606,6.207548],[-75.566503,6.207271],[-75.566595,6.207268],[-75.566797,6.207216],[-75.566928,6.207214],[-75.567036,6.20729],[-75.567122,6.207327],[-75.567214,6.207319],[-75.567338,6.207278],[-75.567368,6.207257],[-75.567452,6.207288],[-75.567329,6.207373],[-75.567271,6.20743],[-75.567158,6.207639],[-75.566942,6.207558],[-75.566898,6.207676],[-75.566699,6.207601],[-75.566705,6.207586]]]}},{"type":"Feature","properties":{"nombre":"Parque Bailarina Isabel Cristina Restrepo Cárdena","categoria":"Parque Recreativo","subcategor":"Parque recreativo pasivo"},"geometry":{"type":"Polygon","coordinates":[[[-75.573899,6.210505],[-75.574315,6.209405],[-75.574328,6.209327],[-75.574322,6.209257],[-75.574299,6.209191],[-75.574217,6.209076],[-75.574152,6.208967],[-75.574448,6.208898],[-75.574464,6.209003],[-75.574417,6.209019],[-75.574473,6.209199],[-75.574464,6.209202],[-75.574477,6.209242],[-75.574485,6.20924],[-75.574555,6.209475],[-75.574754,6.209414],[-75.5749,6.209873],[-75.574649,6.20998],[-75.574674,6.210228],[-75.574864,6.211005],[-75.573899,6.210505]]]}},{"type":"Feature","properties":{"nombre":"Plazoleta Urb. Santillana","categoria":"Plazoleta","subcategor":"No Aplica"},"geometry":{"type":"Polygon","coordinates":[[[-75.573313,6.202035],[-75.573458,6.201797],[-75.573544,6.201849],[-75.573478,6.201927],[-75.573351,6.202103],[-75.573334,6.202102],[-75.573313,6.202035]]]}},{"type":"Feature","properties":{"nombre":"Parque Urb. San Fernando Plaza","categoria":"Parque Recreativo","subcategor":"Parque recreativo pasivo"},"geometry":{"type":"Polygon","coordinates":[[[-75.570269,6.20372],[-75.570481,6.20307],[-75.570601,6.203125],[-75.570604,6.20314],[-75.570463,6.203723],[-75.57042,6.203754],[-75.570388,6.203795],[-75.570343,6.203825],[-75.570314,6.203882],[-75.570304,6.204075],[-75.570322,6.204106],[-75.570369,6.204128],[-75.570381,6.204142],[-75.57038,6.204247],[-75.570245,6.204219],[-75.570253,6.203946],[-75.570269,6.20372]]]}},{"type":"Feature","properties":{"nombre":"Parque Urb. El Pinar","categoria":"Parque Recreativo","subcategor":"Parque recreativo pasivo"},"geometry":{"type":"Polygon","coordinates":[[[-75.56524,6.203898],[-75.565656,6.20327],[-75.565633,6.203361],[-75.565632,6.203456],[-75.5657,6.203979],[-75.565706,6.204056],[-75.5657,6.204197],[-75.56524,6.203898]]]}},{"type":"Feature","properties":{"nombre":"Parque infantil Centro Comercial Oviedo","categoria":"Parque Recreativo","subcategor":"Parque recreativo pasivo"},"geometry":{"type":"Polygon","coordinates":[[[-75.574091,6.198581],[-75.574243,6.198305],[-75.574554,6.198521],[-75.574679,6.198571],[-75.574578,6.198652],[-75.574117,6.198728],[-75.574091,6.198581]]]}},{"type":"Feature","properties":{"nombre":"Parque infantil Urb. Quintanar de Toledo II","categoria":"Parque Recreativo","subcategor":"Parque recreativo pasivo"},"geometry":{"type":"Polygon","coordinates":[[[-75.566302,6.197287],[-75.566517,6.197371],[-75.566386,6.19764],[-75.566218,6.197563],[-75.566259,6.197449],[-75.566302,6.197287]]]}},{"type":"Feature","properties":{"nombre":"Parque Santa María de Los Ángeles No.2","categoria":"Parque Recreativo","subcategor":"Parque recreativo pasivo"},"geometry":{"type":"Polygon","coordinates":[[[-75.580883,6.192014],[-75.580962,6.191658],[-75.581402,6.19175],[-75.58132,6.192111],[-75.580883,6.192014]]]}},{"type":"Feature","properties":{"nombre":"Parque Urb. Santa Ana de los Balsos","categoria":"Parque Recreativo","subcategor":"Parque recreativo pasivo"},"geometry":{"type":"Polygon","coordinates":[[[-75.573324,6.194918],[-75.573651,6.195076],[-75.57369,6.195115],[-75.573677,6.195156],[-75.57359,6.1953],[-75.573512,6.195373],[-75.573488,6.19541],[-75.573477,6.195395],[-75.573324,6.194918]]]}},{"type":"Feature","properties":{"nombre":"Parque Urb. Sananghelis","categoria":"Parque Recreativo","subcategor":"Parque recreativo pasivo"},"geometry":{"type":"Polygon","coordinates":[[[-75.568528,6.192816],[-75.568559,6.192824],[-75.569087,6.193188],[-75.568872,6.193493],[-75.568437,6.193212],[-75.56858,6.192994],[-75.568448,6.192908],[-75.568493,6.192833],[-75.568528,6.192816]]]}},{"type":"Feature","properties":{"nombre":"Parque Urb. Rincón del Aguacatal","categoria":"Parque Recreativo","subcategor":"Parque recreativo pasivo"},"geometry":{"type":"Polygon","coordinates":[[[-75.568431,6.194798],[-75.568526,6.194801],[-75.568614,6.194822],[-75.568727,6.194883],[-75.568791,6.194941],[-75.568843,6.195042],[-75.568866,6.195061],[-75.568952,6.195105],[-75.568874,6.195243],[-75.56871,6.195149],[-75.568279,6.195015],[-75.56817,6.194931],[-75.568245,6.19485],[-75.568335,6.194815],[-75.568431,6.194798]]]}},{"type":"Feature","properties":{"nombre":"Parque Manzanares","categoria":"Parque Recreativo","subcategor":"Parque recreativo pasivo"},"geometry":{"type":"Polygon","coordinates":[[[-75.586106,6.210807],[-75.586216,6.210611],[-75.586241,6.210623],[-75.586282,6.210545],[-75.586274,6.210529],[-75.586152,6.210455],[-75.586145,6.210436],[-75.58635,6.210061],[-75.586369,6.210059],[-75.5868,6.210303],[-75.586687,6.21051],[-75.586631,6.21048],[-75.586588,6.210568],[-75.586733,6.210649],[-75.586742,6.210665],[-75.586542,6.211032],[-75.586523,6.211033],[-75.586106,6.210807]]]}},{"type":"Feature","properties":{"nombre":"Parque Cristo Rey","categoria":"No Aplica","subcategor":"No Aplica"},"geometry":{"type":"Polygon","coordinates":[[[-75.586037,6.207445],[-75.586288,6.206868],[-75.586916,6.207139],[-75.58667,6.207723],[-75.586037,6.207445]]]}},{"type":"Feature","properties":{"nombre":"Parque El Rodeo","categoria":"Parque Recreativo","subcategor":"Parque recreativo pasivo"},"geometry":{"type":"Polygon","coordinates":[[[-75.587184,6.208037],[-75.587307,6.208084],[-75.587143,6.20848],[-75.587014,6.20843],[-75.587184,6.208037]]]}},{"type":"Feature","properties":{"nombre":"Parque Principal El Poblado","categoria":"No Aplica","subcategor":"No Aplica"},"geometry":{"type":"Polygon","coordinates":[[[-75.570872,6.209963],[-75.570915,6.20996],[-75.571266,6.210092],[-75.571297,6.210115],[-75.571319,6.210146],[-75.571331,6.210182],[-75.571332,6.210221],[-75.571306,6.210232],[-75.571145,6.210671],[-75.571161,6.210691],[-75.571139,6.210723],[-75.571108,6.210746],[-75.571072,6.210759],[-75.571034,6.210761],[-75.570707,6.210646],[-75.570685,6.210632],[-75.570645,6.210577],[-75.570642,6.210539],[-75.570653,6.210492],[-75.570831,6.210012],[-75.570843,6.209986],[-75.570872,6.209963]]]}},{"type":"Feature","properties":{"nombre":"Parque Lleras","categoria":"No Aplica","subcategor":"No Aplica"},"geometry":{"type":"Polygon","coordinates":[[[-75.568151,6.209184],[-75.567255,6.208843],[-75.567232,6.208799],[-75.567229,6.208762],[-75.567237,6.208727],[-75.567268,6.208687],[-75.567319,6.20866],[-75.56766,6.20879],[-75.567679,6.208786],[-75.567808,6.208838],[-75.567819,6.208809],[-75.568031,6.208891],[-75.568045,6.208862],[-75.568068,6.208853],[-75.568093,6.208856],[-75.568229,6.208909],[-75.568258,6.208938],[-75.568264,6.208964],[-75.568183,6.20917],[-75.568169,6.209182],[-75.568151,6.209184]]]}},{"type":"Feature","properties":{"nombre":"Plazoleta Puente La Aguacatala","categoria":"Plazoleta","subcategor":"No Aplica"},"geometry":{"type":"Polygon","coordinates":[[[-75.57929,6.194982],[-75.57921,6.194925],[-75.579242,6.19489],[-75.57919,6.194791],[-75.579157,6.194778],[-75.579122,6.194783],[-75.579108,6.194725],[-75.579176,6.194716],[-75.579283,6.194727],[-75.57935,6.194738],[-75.579467,6.194774],[-75.579512,6.194794],[-75.579613,6.194861],[-75.579729,6.194977],[-75.579689,6.194999],[-75.579673,6.194972],[-75.579646,6.194963],[-75.579575,6.194983],[-75.579587,6.195036],[-75.579467,6.195043],[-75.579384,6.195023],[-75.57929,6.194982]]]}},{"type":"Feature","properties":{"nombre":"Plazoleta Puente La Aguacatala","categoria":"Plazoleta","subcategor":"No Aplica"},"geometry":{"type":"Polygon","coordinates":[[[-75.579657,6.194628],[-75.579535,6.194537],[-75.579481,6.194519],[-75.579391,6.194513],[-75.579243,6.194539],[-75.579147,6.194524],[-75.579169,6.194491],[-75.579191,6.19449],[-75.579206,6.19448],[-75.579233,6.194421],[-75.579299,6.194375],[-75.579281,6.194338],[-75.579327,6.194319],[-75.579425,6.194301],[-75.579523,6.194309],[-75.579633,6.194358],[-75.579733,6.194439],[-75.579783,6.194491],[-75.579748,6.194518],[-75.579786,6.19458],[-75.579807,6.194585],[-75.579827,6.194574],[-75.579847,6.194615],[-75.579863,6.194679],[-75.579756,6.194659],[-75.579657,6.194628]]]}},{"type":"Feature","properties":{"nombre":"Parque recreativo Guayabal","categoria":"Parque Recreativo","subcategor":"Parque recreativo activo"},"geometry":{"type":"Polygon","coordinates":[[[-75.589844,6.194177],[-75.590042,6.194064],[-75.590109,6.194142],[-75.590172,6.194346],[-75.590108,6.194503],[-75.589877,6.194413],[-75.58985,6.194396],[-75.589833,6.194372],[-75.589826,6.194325],[-75.589844,6.194177]]]}},{"type":"Feature","properties":{"nombre":"Plazoleta Urb. Sao Paulo","categoria":"Plazoleta","subcategor":"No Aplica"},"geometry":{"type":"MultiPolygon","coordinates":[[[[-75.578252,6.186819],[-75.578687,6.185784],[-75.578837,6.185833],[-75.578578,6.186432],[-75.578699,6.186625],[-75.578495,6.186754],[-75.57838,6.186817],[-75.578252,6.186819]]],[[[-75.58246,6.188683],[-75.582486,6.188615],[-75.582601,6.188628],[-75.582631,6.188477],[-75.582698,6.188477],[-75.582822,6.188576],[-75.582729,6.188783],[-75.582642,6.189002],[-75.582524,6.189329],[-75.582289,6.189248],[-75.582499,6.188698],[-75.58246,6.188683]]]]}},{"type":"Feature","properties":{"nombre":"Parque La Inflexión","categoria":"Parque Recreativo","subcategor":"Parque recreativo pasivo"},"geometry":{"type":"Polygon","coordinates":[[[-75.577346,6.191562],[-75.577444,6.191195],[-75.577443,6.191158],[-75.577495,6.190967],[-75.57821,6.191169],[-75.578118,6.191508],[-75.577758,6.191408],[-75.577661,6.19178],[-75.577346,6.191562]]]}},{"type":"Feature","properties":{"nombre":"Parque Puente 4 Sur","categoria":"Parque Recreativo","subcategor":"Parque recreativo activo"},"geometry":{"type":"MultiPolygon","coordinates":[[[[-75.579907,6.204933],[-75.580016,6.204253],[-75.580699,6.204568],[-75.580452,6.205157],[-75.579907,6.204933]]],[[[-75.580043,6.204085],[-75.580203,6.203086],[-75.580987,6.203314],[-75.580772,6.204076],[-75.580786,6.204081],[-75.580703,6.204371],[-75.580043,6.204085]]]]}},{"type":"Feature","properties":{"nombre":"Plazoleta Estación Metro Poblado","categoria":"Plazoleta","subcategor":"No Aplica"},"geometry":{"type":"MultiPolygon","coordinates":[[[[-75.578685,6.212258],[-75.578712,6.212092],[-75.578785,6.212309],[-75.578915,6.21256],[-75.579245,6.213055],[-75.578728,6.212972],[-75.578731,6.212958],[-75.578585,6.212935],[-75.578597,6.212858],[-75.578645,6.212772],[-75.578705,6.212376],[-75.578685,6.212258]]],[[[-75.579047,6.213085],[-75.57912,6.21309],[-75.579171,6.213103],[-75.579361,6.213203],[-75.579927,6.214063],[-75.579915,6.214066],[-75.579442,6.213893],[-75.578945,6.213745],[-75.578795,6.213684],[-75.578634,6.213643],[-75.578674,6.213371],[-75.578691,6.213322],[-75.578745,6.213232],[-75.57882,6.213159],[-75.578865,6.213131],[-75.578963,6.213094],[-75.579047,6.213085]]]]}},{"type":"Feature","properties":{"nombre":"Parque Santa María de Los Ángeles","categoria":"Parque Recreativo","subcategor":"Parque recreativo pasivo"},"geometry":{"type":"Polygon","coordinates":[[[-75.579137,6.190868],[-75.578463,6.190687],[-75.578442,6.190661],[-75.578624,6.189974],[-75.578978,6.190073],[-75.578861,6.190512],[-75.57922,6.190604],[-75.579156,6.190851],[-75.579137,6.190868]],[[-75.578621,6.190635],[-75.578609,6.190685],[-75.578673,6.1907],[-75.578708,6.190656],[-75.578737,6.190549],[-75.578627,6.190525],[-75.578642,6.190468],[-75.578594,6.190446],[-75.578546,6.190442],[-75.578501,6.190605],[-75.578546,6.190635],[-75.578598,6.190629],[-75.578621,6.190635]]]}},{"type":"Feature","properties":{"nombre":"Plazoleta Estación Metro Aguacatala","categoria":"Plazoleta","subcategor":"No Aplica"},"geometry":{"type":"MultiPolygon","coordinates":[[[[-75.580189,6.194719],[-75.580121,6.194673],[-75.580079,6.194633],[-75.580137,6.194667],[-75.580275,6.194717],[-75.580369,6.194728],[-75.580464,6.194721],[-75.580599,6.19468],[-75.580764,6.19461],[-75.580859,6.194552],[-75.580993,6.194448],[-75.581099,6.194341],[-75.581181,6.194214],[-75.581404,6.193627],[-75.581445,6.193647],[-75.581186,6.194299],[-75.581165,6.194376],[-75.581128,6.194429],[-75.581011,6.194533],[-75.580828,6.194658],[-75.580732,6.194712],[-75.580663,6.194741],[-75.580531,6.194764],[-75.580408,6.19477],[-75.580296,6.194757],[-75.580189,6.194719]]],[[[-75.580667,6.194827],[-75.580977,6.194641],[-75.581103,6.194539],[-75.581041,6.194703],[-75.581013,6.194693],[-75.580963,6.194689],[-75.580893,6.194714],[-75.580857,6.194749],[-75.58084,6.194778],[-75.580827,6.19481],[-75.58082,6.194872],[-75.580667,6.194827]]],[[[-75.580964,6.194734],[-75.580997,6.194735],[-75.581025,6.194746],[-75.580961,6.194914],[-75.580867,6.194886],[-75.580871,6.194821],[-75.580894,6.194775],[-75.580932,6.194743],[-75.580964,6.194734]]],[[[-75.581467,6.193478],[-75.581561,6.19326],[-75.581565,6.193263],[-75.581484,6.193486],[-75.581467,6.193478]]]]}},{"type":"Feature","properties":{"nombre":"Parque Lineal Q. La Presidenta","categoria":"Ecoparque","subcategor":"Ecoparque de quebrada y otros cuerpos de agua"},"geometry":{"type":"MultiPolygon","coordinates":[[[[-75.568827,6.207267],[-75.568769,6.207278],[-75.568704,6.20731],[-75.568645,6.207319],[-75.568673,6.207205],[-75.56869,6.207021],[-75.568693,6.207086],[-75.568714,6.207157],[-75.568771,6.20723],[-75.568827,6.207267]]],[[[-75.568852,6.207719],[-75.568964,6.207793],[-75.569084,6.20801],[-75.569152,6.208089],[-75.569235,6.20811],[-75.569317,6.208096],[-75.569373,6.208075],[-75.569316,6.208112],[-75.569251,6.208136],[-75.569188,6.208144],[-75.569122,6.208139],[-75.568753,6.207971],[-75.568689,6.207949],[-75.568752,6.207866],[-75.568757,6.207868],[-75.568852,6.207719]]],[[[-75.569405,6.208057],[-75.56945,6.208028],[-75.569454,6.208024],[-75.569438,6.208067],[-75.569405,6.208057]]],[[[-75.569642,6.207921],[-75.569696,6.207922],[-75.569827,6.207945],[-75.569858,6.207956],[-75.569894,6.207995],[-75.569642,6.207921]]],[[[-75.57026,6.208328],[-75.570334,6.208352],[-75.570352,6.208356],[-75.570402,6.208371],[-75.57041,6.208374],[-75.570406,6.208381],[-75.57026,6.208328]]],[[[-75.570282,6.207628],[-75.570319,6.207544],[-75.570357,6.207547],[-75.570364,6.207483],[-75.570929,6.207516],[-75.570808,6.207568],[-75.570767,6.207599],[-75.570718,6.207665],[-75.570692,6.207767],[-75.57068,6.207801],[-75.570667,6.207812],[-75.570512,6.207874],[-75.570485,6.207874],[-75.570452,6.20786],[-75.570339,6.207753],[-75.57031,6.20771],[-75.570282,6.207628]]],[[[-75.57045,6.208389],[-75.570498,6.208398],[-75.570559,6.208421],[-75.570697,6.208424],[-75.570871,6.208373],[-75.570911,6.208346],[-75.571016,6.208239],[-75.571035,6.208208],[-75.571106,6.208065],[-75.571146,6.207935],[-75.571173,6.20789],[-75.571134,6.208253],[-75.571142,6.208337],[-75.571123,6.208339],[-75.571126,6.208404],[-75.571078,6.208539],[-75.57088,6.208471],[-75.570827,6.208426],[-75.570719,6.208487],[-75.57045,6.208389]]]]}},{"type":"Feature","properties":{"nombre":"Ecoparque Q. La Escopetería","categoria":"Ecoparque","subcategor":"Ecoparque de quebrada y otros cuerpos de agua"},"geometry":{"type":"MultiPolygon","coordinates":[[[[-75.561855,6.203067],[-75.561864,6.203068],[-75.561854,6.203071],[-75.561855,6.203067]]],[[[-75.561945,6.202976],[-75.561998,6.202955],[-75.562444,6.20305],[-75.562505,6.20307],[-75.562499,6.20311],[-75.562488,6.203122],[-75.562483,6.203156],[-75.562409,6.203117],[-75.562362,6.203079],[-75.562254,6.203038],[-75.561945,6.202976]]],[[[-75.562182,6.201358],[-75.562312,6.201424],[-75.562338,6.201449],[-75.562337,6.201526],[-75.562325,6.201594],[-75.562307,6.201601],[-75.562254,6.201499],[-75.562157,6.201403],[-75.562182,6.201358]]],[[[-75.562422,6.201554],[-75.56243,6.201411],[-75.56242,6.201381],[-75.562378,6.201326],[-75.562244,6.201249],[-75.562346,6.201062],[-75.562409,6.201155],[-75.562425,6.201146],[-75.562443,6.201178],[-75.562459,6.20117],[-75.562492,6.201225],[-75.562507,6.201217],[-75.562519,6.201236],[-75.562591,6.201198],[-75.562639,6.20129],[-75.56255,6.201334],[-75.562593,6.201429],[-75.562627,6.201418],[-75.562662,6.201525],[-75.562531,6.201508],[-75.562532,6.201516],[-75.562519,6.201515],[-75.562422,6.201554]]],[[[-75.562409,6.203226],[-75.562426,6.203235],[-75.562409,6.203227],[-75.562409,6.203226]]],[[[-75.56259,6.203241],[-75.562664,6.203276],[-75.562741,6.203426],[-75.562677,6.203369],[-75.56259,6.203241]]],[[[-75.562677,6.203508],[-75.562728,6.203541],[-75.56278,6.203635],[-75.562743,6.203626],[-75.562677,6.203508]]],[[[-75.563519,6.203576],[-75.563566,6.203567],[-75.563587,6.203576],[-75.563572,6.203577],[-75.563519,6.203576]]],[[[-75.563544,6.203258],[-75.56355,6.203267],[-75.563548,6.20327],[-75.563544,6.203258]]],[[[-75.563983,6.203808],[-75.564034,6.203917],[-75.564029,6.203922],[-75.563973,6.203826],[-75.563983,6.203808]]],[[[-75.564049,6.203686],[-75.564073,6.203642],[-75.564247,6.203904],[-75.564298,6.204019],[-75.564376,6.20401],[-75.564729,6.204193],[-75.564729,6.204281],[-75.564697,6.204255],[-75.564439,6.204165],[-75.56438,6.204157],[-75.564325,6.204131],[-75.564265,6.204115],[-75.564226,6.204084],[-75.564197,6.203976],[-75.564049,6.203686]]],[[[-75.564704,6.20487],[-75.564724,6.20489],[-75.564708,6.20497],[-75.564678,6.205098],[-75.564633,6.205206],[-75.56459,6.205191],[-75.564704,6.20487]]],[[[-75.565134,6.205118],[-75.565077,6.204801],[-75.564985,6.204324],[-75.56501,6.204329],[-75.565027,6.204412],[-75.565086,6.204404],[-75.565153,6.20485],[-75.565174,6.204883],[-75.565214,6.204914],[-75.565254,6.204938],[-75.565324,6.204961],[-75.565289,6.205242],[-75.565247,6.205229],[-75.565174,6.205171],[-75.565134,6.205118]]],[[[-75.565164,6.205278],[-75.565177,6.205286],[-75.565253,6.205324],[-75.565171,6.205311],[-75.565164,6.205278]]],[[[-75.566509,6.20644],[-75.566539,6.206397],[-75.566546,6.206423],[-75.566923,6.207032],[-75.56676,6.206889],[-75.566509,6.20644]]]]}},{"type":"Feature","properties":{"nombre":"Ecoparque Q. Los Balsos","categoria":"Ecoparque","subcategor":"Ecoparque de quebrada y otros cuerpos de agua"},"geometry":{"type":"MultiPolygon","coordinates":[[[[-75.563252,6.190153],[-75.563168,6.19009],[-75.563267,6.190071],[-75.563425,6.189972],[-75.563495,6.189948],[-75.563862,6.189933],[-75.563721,6.190264],[-75.563252,6.190153]]],[[[-75.572483,6.194376],[-75.572626,6.194441],[-75.572779,6.194551],[-75.572971,6.194655],[-75.573087,6.194759],[-75.573199,6.194837],[-75.573237,6.194875],[-75.572856,6.194691],[-75.572849,6.194701],[-75.572421,6.194493],[-75.572483,6.194376]]],[[[-75.576102,6.197212],[-75.576166,6.197235],[-75.576189,6.197236],[-75.576431,6.19721],[-75.576523,6.197192],[-75.57666,6.197191],[-75.576638,6.197219],[-75.576494,6.197223],[-75.576358,6.197259],[-75.576286,6.197263],[-75.576224,6.197259],[-75.576091,6.19723],[-75.576102,6.197212]]]]}},{"type":"Feature","properties":{"nombre":"Ecoparque Q. La Volcana","categoria":"Ecoparque","subcategor":"Ecoparque de quebrada y otros cuerpos de agua"},"geometry":{"type":"MultiPolygon","coordinates":[[[[-75.565705,6.192854],[-75.565714,6.192895],[-75.565719,6.192906],[-75.565688,6.192874],[-75.565705,6.192854]]],[[[-75.565829,6.193019],[-75.565878,6.193047],[-75.565899,6.193073],[-75.565955,6.193102],[-75.565968,6.193124],[-75.56591,6.193102],[-75.565829,6.193019]]],[[[-75.566017,6.193181],[-75.566043,6.193272],[-75.566033,6.193332],[-75.566043,6.193446],[-75.566068,6.1935],[-75.566032,6.193561],[-75.565987,6.193387],[-75.566017,6.193181]]],[[[-75.57019,6.19647],[-75.57004,6.19646],[-75.569998,6.196442],[-75.569937,6.196384],[-75.569777,6.196279],[-75.569692,6.196198],[-75.569575,6.196133],[-75.569408,6.196092],[-75.569316,6.196094],[-75.569277,6.196084],[-75.5692,6.196033],[-75.569143,6.195967],[-75.569084,6.195944],[-75.569022,6.195933],[-75.568906,6.19594],[-75.56886,6.195934],[-75.568922,6.195878],[-75.568984,6.19584],[-75.569096,6.195784],[-75.569155,6.195766],[-75.569832,6.195827],[-75.569811,6.196078],[-75.569915,6.196165],[-75.569933,6.196196],[-75.569985,6.19623],[-75.570015,6.196269],[-75.5701,6.196337],[-75.570226,6.196307],[-75.570321,6.196309],[-75.570415,6.196351],[-75.570441,6.196372],[-75.570324,6.196399],[-75.570269,6.196423],[-75.57019,6.19647]]],[[[-75.568953,6.196141],[-75.56898,6.196147],[-75.569001,6.196156],[-75.569026,6.196159],[-75.569081,6.196187],[-75.568953,6.196141]]],[[[-75.569209,6.196236],[-75.56927,6.196234],[-75.569346,6.196261],[-75.569404,6.196298],[-75.569452,6.19631],[-75.569619,6.196309],[-75.569594,6.19637],[-75.569209,6.196236]]],[[[-75.57158,6.197117],[-75.571504,6.19708],[-75.571445,6.197036],[-75.571385,6.19702],[-75.571284,6.196961],[-75.571212,6.196932],[-75.571156,6.196899],[-75.571085,6.196844],[-75.571013,6.196743],[-75.570982,6.196722],[-75.570845,6.196671],[-75.570667,6.196627],[-75.570604,6.196616],[-75.570485,6.196617],[-75.570451,6.196599],[-75.570376,6.196534],[-75.57046,6.196517],[-75.570517,6.196517],[-75.570952,6.196559],[-75.571067,6.196551],[-75.571145,6.196617],[-75.571316,6.19685],[-75.571341,6.196955],[-75.571429,6.19696],[-75.571475,6.196991],[-75.571623,6.197015],[-75.57158,6.197117]]],[[[-75.570692,6.196753],[-75.570802,6.196761],[-75.570834,6.196769],[-75.570876,6.196793],[-75.570787,6.19679],[-75.570711,6.196767],[-75.570692,6.196753]]],[[[-75.571034,6.196929],[-75.571059,6.196952],[-75.571115,6.197034],[-75.5712,6.197091],[-75.571289,6.197132],[-75.571482,6.197196],[-75.571536,6.197206],[-75.571488,6.197286],[-75.571419,6.197273],[-75.571346,6.197197],[-75.571314,6.19718],[-75.571207,6.197198],[-75.571152,6.197139],[-75.571124,6.197083],[-75.571043,6.197001],[-75.571034,6.196929]]]]}},{"type":"Feature","properties":{"nombre":"Ecoparque Q. La Aguacatala","categoria":"Ecoparque","subcategor":"Ecoparque de quebrada y otros cuerpos de agua"},"geometry":{"type":"MultiPolygon","coordinates":[[[[-75.556142,6.181326],[-75.556171,6.181297],[-75.556211,6.181274],[-75.556267,6.181258],[-75.556346,6.181253],[-75.556413,6.18129],[-75.556436,6.181314],[-75.556504,6.181326],[-75.556565,6.181324],[-75.556603,6.181312],[-75.556625,6.181579],[-75.556592,6.181577],[-75.556549,6.181587],[-75.55652,6.181614],[-75.556142,6.181326]]],[[[-75.565473,6.186696],[-75.565372,6.186641],[-75.565309,6.186593],[-75.565003,6.186404],[-75.564936,6.186371],[-75.564838,6.186348],[-75.564687,6.186218],[-75.56463,6.186184],[-75.56459,6.18618],[-75.564546,6.186199],[-75.564498,6.186209],[-75.564427,6.186186],[-75.564374,6.18614],[-75.564328,6.186115],[-75.564282,6.186111],[-75.564255,6.186096],[-75.564121,6.185958],[-75.564068,6.185874],[-75.564018,6.185847],[-75.563963,6.185841],[-75.563871,6.185757],[-75.563775,6.185728],[-75.563722,6.185684],[-75.563676,6.185673],[-75.563601,6.185669],[-75.563519,6.185675],[-75.563477,6.185659],[-75.563435,6.185633],[-75.563301,6.185514],[-75.563184,6.185348],[-75.563135,6.185252],[-75.563087,6.185206],[-75.562978,6.185168],[-75.562854,6.185156],[-75.562802,6.185108],[-75.562777,6.18508],[-75.56275,6.185024],[-75.562701,6.184808],[-75.562662,6.18472],[-75.562611,6.184651],[-75.562565,6.184615],[-75.562525,6.18459],[-75.56246,6.184565],[-75.562615,6.184404],[-75.562762,6.184626],[-75.563094,6.185041],[-75.563109,6.185071],[-75.563325,6.185299],[-75.563558,6.185528],[-75.563965,6.185809],[-75.564175,6.18591],[-75.564292,6.185952],[-75.564497,6.186051],[-75.565554,6.186576],[-75.565504,6.186626],[-75.565473,6.186696]]],[[[-75.564828,6.186433],[-75.565005,6.186485],[-75.565251,6.18665],[-75.565396,6.186725],[-75.565482,6.18678],[-75.565535,6.186798],[-75.565625,6.186854],[-75.565699,6.186915],[-75.565845,6.187098],[-75.565975,6.187212],[-75.565996,6.187222],[-75.566025,6.187222],[-75.566047,6.18724],[-75.566065,6.187243],[-75.566209,6.187248],[-75.566291,6.187265],[-75.566404,6.187247],[-75.566485,6.187268],[-75.566543,6.187312],[-75.566617,6.187349],[-75.566688,6.187364],[-75.566756,6.187357],[-75.566877,6.187287],[-75.566895,6.187289],[-75.566992,6.187325],[-75.567045,6.187357],[-75.567134,6.187439],[-75.567259,6.18752],[-75.567332,6.187509],[-75.567451,6.187451],[-75.567529,6.187428],[-75.567659,6.187462],[-75.567642,6.18753],[-75.567622,6.187532],[-75.567605,6.18756],[-75.567601,6.187587],[-75.567544,6.187602],[-75.567454,6.187663],[-75.567376,6.187697],[-75.567276,6.187718],[-75.567139,6.187709],[-75.567075,6.187682],[-75.567014,6.18764],[-75.566988,6.187612],[-75.566943,6.187551],[-75.56692,6.187499],[-75.5668,6.187538],[-75.566673,6.187544],[-75.566621,6.187533],[-75.566497,6.187484],[-75.566398,6.187417],[-75.5663,6.187495],[-75.566205,6.187537],[-75.566108,6.187552],[-75.566075,6.187551],[-75.56601,6.187533],[-75.565912,6.187469],[-75.565897,6.187465],[-75.565844,6.187406],[-75.565775,6.187301],[-75.565759,6.18726],[-75.565749,6.187199],[-75.565716,6.187136],[-75.565696,6.187119],[-75.565578,6.187069],[-75.565289,6.186867],[-75.565134,6.186789],[-75.564749,6.186648],[-75.564828,6.186433]]],[[[-75.56853,6.188106],[-75.568835,6.187946],[-75.568994,6.188201],[-75.569058,6.188246],[-75.569131,6.188273],[-75.569159,6.188276],[-75.569167,6.188553],[-75.569131,6.188541],[-75.569024,6.18853],[-75.568884,6.188472],[-75.56875,6.188394],[-75.568659,6.188285],[-75.568603,6.188193],[-75.56853,6.188106]]],[[[-75.568659,6.188393],[-75.568671,6.188399],[-75.568693,6.188419],[-75.568674,6.188408],[-75.568659,6.188393]]],[[[-75.569136,6.188653],[-75.569139,6.188652],[-75.569163,6.188657],[-75.569136,6.188653]]],[[[-75.578389,6.194693],[-75.578479,6.194764],[-75.578823,6.194831],[-75.578895,6.194953],[-75.578262,6.194857],[-75.578095,6.194784],[-75.57798,6.195046],[-75.577836,6.194943],[-75.578034,6.194747],[-75.577866,6.194629],[-75.577694,6.194488],[-75.57739,6.194296],[-75.577399,6.19424],[-75.577427,6.194214],[-75.577474,6.194213],[-75.577494,6.194224],[-75.577525,6.194243],[-75.57761,6.194335],[-75.577703,6.194411],[-75.577778,6.194464],[-75.577963,6.19457],[-75.578181,6.194647],[-75.578389,6.194693]]]]}},{"type":"Feature","properties":{"nombre":"Ecoparque Q. La Guayabala","categoria":"Ecoparque","subcategor":"Ecoparque de quebrada y otros cuerpos de agua"},"geometry":{"type":"MultiPolygon","coordinates":[[[[-75.577577,6.230897],[-75.577484,6.230568],[-75.577579,6.230591],[-75.57764,6.230587],[-75.577716,6.230557],[-75.577731,6.230563],[-75.577714,6.230676],[-75.577668,6.230806],[-75.57765,6.230841],[-75.577601,6.230894],[-75.577577,6.230897]]],[[[-75.577829,6.230422],[-75.57779,6.230573],[-75.577683,6.231266],[-75.577595,6.230962],[-75.577687,6.230861],[-75.577715,6.23081],[-75.577763,6.230682],[-75.57781,6.230479],[-75.577829,6.230422]]],[[[-75.578527,6.230081],[-75.578319,6.230197],[-75.578275,6.230228],[-75.578303,6.230174],[-75.578372,6.230106],[-75.578404,6.23009],[-75.578527,6.230081]]],[[[-75.57965,6.229176],[-75.579635,6.229204],[-75.579574,6.229238],[-75.579628,6.229196],[-75.57965,6.229176]]],[[[-75.583693,6.224443],[-75.583543,6.224546],[-75.583404,6.224578],[-75.583516,6.224543],[-75.583693,6.224443]]],[[[-75.584243,6.222795],[-75.584254,6.22282],[-75.58425,6.222843],[-75.584186,6.222913],[-75.58407,6.223324],[-75.584172,6.222905],[-75.584209,6.222825],[-75.584243,6.222795]]],[[[-75.584314,6.222389],[-75.584334,6.222448],[-75.584334,6.22251],[-75.584307,6.222562],[-75.584251,6.22263],[-75.584314,6.222389]]],[[[-75.584965,6.220109],[-75.58491,6.220271],[-75.584664,6.221209],[-75.58461,6.221282],[-75.584817,6.220495],[-75.584888,6.220282],[-75.584965,6.220109]]],[[[-75.585215,6.219705],[-75.585251,6.219647],[-75.585368,6.219535],[-75.585193,6.219974],[-75.585059,6.220382],[-75.584658,6.221867],[-75.584661,6.221735],[-75.584675,6.221647],[-75.584908,6.220794],[-75.585048,6.220232],[-75.585205,6.219758],[-75.585215,6.219705]]],[[[-75.585492,6.219269],[-75.585402,6.219344],[-75.58542,6.219298],[-75.585407,6.219229],[-75.585406,6.219136],[-75.585376,6.218986],[-75.585455,6.219049],[-75.585488,6.219058],[-75.585522,6.219064],[-75.585666,6.219061],[-75.585568,6.219165],[-75.585492,6.219269]]],[[[-75.588934,6.208312],[-75.588863,6.208374],[-75.58884,6.208421],[-75.588807,6.208461],[-75.588736,6.208524],[-75.5887,6.208579],[-75.588687,6.208629],[-75.588637,6.20868],[-75.588922,6.208109],[-75.589038,6.207808],[-75.589084,6.207594],[-75.589106,6.207427],[-75.589115,6.207262],[-75.589171,6.207423],[-75.589235,6.207571],[-75.589207,6.207694],[-75.589141,6.207892],[-75.588934,6.208312]]],[[[-75.593335,6.216411],[-75.593335,6.216411],[-75.59362,6.216468],[-75.593335,6.216411]]],[[[-75.593336,6.216244],[-75.593342,6.216214],[-75.593378,6.216206],[-75.593722,6.216302],[-75.593336,6.216244]]],[[[-75.593632,6.21647],[-75.593722,6.21649],[-75.594105,6.216593],[-75.593662,6.216478],[-75.593632,6.21647]]],[[[-75.594329,6.216467],[-75.594698,6.216567],[-75.594757,6.216585],[-75.594329,6.216467]]],[[[-75.594716,6.21676],[-75.594739,6.216767],[-75.594724,6.216763],[-75.594716,6.21676]]],[[[-75.594716,6.21676],[-75.594709,6.216758],[-75.594702,6.216756],[-75.594702,6.216756],[-75.594716,6.21676]]],[[[-75.594819,6.216789],[-75.594831,6.216792],[-75.594824,6.216791],[-75.594819,6.216789]]],[[[-75.594819,6.216789],[-75.594814,6.216788],[-75.594808,6.216786],[-75.594819,6.216789]]],[[[-75.594846,6.216797],[-75.595171,6.216888],[-75.59533,6.216921],[-75.595185,6.216892],[-75.594846,6.216797]]],[[[-75.595406,6.21693],[-75.59549,6.216939],[-75.595542,6.216942],[-75.595476,6.216939],[-75.595406,6.21693]]],[[[-75.595595,6.216763],[-75.595891,6.216766],[-75.596226,6.216768],[-75.595646,6.216766],[-75.595595,6.216763]]],[[[-75.596706,6.21694],[-75.596946,6.216939],[-75.596946,6.216939],[-75.596706,6.21694]]],[[[-75.596854,6.216767],[-75.59685,6.216767],[-75.596854,6.216767],[-75.596854,6.216767]]],[[[-75.596854,6.216767],[-75.596899,6.216767],[-75.596905,6.216767],[-75.596854,6.216767]]],[[[-75.597065,6.216921],[-75.597035,6.216929],[-75.597034,6.216929],[-75.597065,6.216921]]],[[[-75.597129,6.216904],[-75.597121,6.216907],[-75.59711,6.21691],[-75.597129,6.216904]]],[[[-75.5973,6.216817],[-75.597282,6.216829],[-75.597268,6.216837],[-75.5973,6.216817]]],[[[-75.597366,6.216764],[-75.597354,6.216775],[-75.597345,6.216782],[-75.597366,6.216764]]],[[[-75.597427,6.216701],[-75.597418,6.216712],[-75.597369,6.21676],[-75.597427,6.216701]]],[[[-75.597589,6.216164],[-75.597474,6.216335],[-75.597419,6.216415],[-75.597579,6.216175],[-75.597589,6.216164]]],[[[-75.597612,6.21047],[-75.597635,6.210515],[-75.597665,6.210584],[-75.597795,6.211003],[-75.597665,6.210584],[-75.597612,6.21047]]],[[[-75.597949,6.215621],[-75.59819,6.215287],[-75.597713,6.215959],[-75.597949,6.215621]]],[[[-75.597815,6.210584],[-75.597829,6.210592],[-75.597839,6.210623],[-75.597837,6.210689],[-75.597815,6.210584]]],[[[-75.597881,6.216052],[-75.597823,6.21614],[-75.597822,6.216141],[-75.597881,6.216052]]],[[[-75.597851,6.210756],[-75.597879,6.210753],[-75.597965,6.211034],[-75.597952,6.211092],[-75.597861,6.210808],[-75.597851,6.210756]]],[[[-75.598503,6.21475],[-75.598484,6.214796],[-75.598333,6.215062],[-75.598332,6.215063],[-75.598488,6.214751],[-75.598503,6.21475]]],[[[-75.598367,6.212851],[-75.598369,6.212857],[-75.598478,6.21322],[-75.598485,6.213243],[-75.598367,6.212851]]],[[[-75.598629,6.214042],[-75.598638,6.214134],[-75.598631,6.214296],[-75.598617,6.214417],[-75.598593,6.214526],[-75.598529,6.214686],[-75.598512,6.214659],[-75.598558,6.21451],[-75.598594,6.214358],[-75.598617,6.214204],[-75.598629,6.214042]]],[[[-75.59858,6.213565],[-75.59858,6.213565],[-75.598581,6.213566],[-75.59858,6.213565]]],[[[-75.59861,6.213699],[-75.598626,6.213773],[-75.598627,6.213873],[-75.598617,6.213744],[-75.59861,6.213699]]],[[[-75.598642,6.213205],[-75.598705,6.213391],[-75.598712,6.213417],[-75.598642,6.213205]]],[[[-75.598768,6.214417],[-75.598762,6.214455],[-75.598735,6.214578],[-75.598738,6.214544],[-75.598768,6.214417]]],[[[-75.598799,6.214093],[-75.5988,6.214122],[-75.598793,6.214222],[-75.598799,6.214093]]],[[[-75.598796,6.213862],[-75.598797,6.213871],[-75.598797,6.213943],[-75.598796,6.213862]]],[[[-75.600228,6.204142],[-75.600037,6.20422],[-75.600034,6.204218],[-75.600031,6.204193],[-75.600228,6.204142]]],[[[-75.60022,6.204369],[-75.600417,6.204256],[-75.600549,6.204193],[-75.60065,6.204172],[-75.600749,6.204139],[-75.600842,6.204044],[-75.600848,6.203996],[-75.600904,6.203945],[-75.600955,6.203936],[-75.601114,6.203993],[-75.600492,6.204312],[-75.600383,6.204351],[-75.600245,6.204388],[-75.60022,6.204369]]],[[[-75.601034,6.20377],[-75.601218,6.20367],[-75.601439,6.20352],[-75.601364,6.203695],[-75.601327,6.203766],[-75.601311,6.20378],[-75.601231,6.203809],[-75.601178,6.203807],[-75.601034,6.20377]]],[[[-75.601512,6.203575],[-75.60153,6.203592],[-75.601506,6.20362],[-75.601462,6.203745],[-75.601442,6.203748],[-75.60145,6.203699],[-75.601472,6.203643],[-75.601512,6.203575]]],[[[-75.601637,6.203547],[-75.601602,6.203515],[-75.601613,6.203501],[-75.601566,6.20345],[-75.601574,6.203427],[-75.601646,6.203406],[-75.601725,6.203406],[-75.601799,6.20343],[-75.601861,6.203471],[-75.602044,6.203654],[-75.602134,6.203757],[-75.602477,6.204326],[-75.602543,6.204389],[-75.602645,6.204449],[-75.60255,6.204418],[-75.60248,6.204374],[-75.602391,6.204281],[-75.602238,6.204053],[-75.602203,6.203976],[-75.602152,6.203902],[-75.602039,6.203784],[-75.602027,6.203764],[-75.602027,6.203738],[-75.602038,6.203723],[-75.601955,6.203641],[-75.601923,6.203632],[-75.601836,6.203559],[-75.601776,6.203537],[-75.601718,6.203527],[-75.601677,6.203531],[-75.601637,6.203547]]],[[[-75.601977,6.203902],[-75.602031,6.203939],[-75.602135,6.204091],[-75.602289,6.204398],[-75.602384,6.204507],[-75.602419,6.204536],[-75.602507,6.204575],[-75.602604,6.204583],[-75.602733,6.204581],[-75.602645,6.204707],[-75.602423,6.204566],[-75.602317,6.204465],[-75.602259,6.204384],[-75.602207,6.204274],[-75.602049,6.204007],[-75.601977,6.203902]]],[[[-75.603466,6.20513],[-75.60342,6.205017],[-75.603309,6.204692],[-75.603241,6.204545],[-75.603189,6.204467],[-75.603126,6.204423],[-75.603063,6.204413],[-75.602994,6.204413],[-75.602821,6.204453],[-75.602873,6.204378],[-75.603141,6.204344],[-75.603287,6.204465],[-75.603381,6.204609],[-75.603456,6.204912],[-75.60364,6.205056],[-75.603466,6.20513]]],[[[-75.605985,6.205474],[-75.605923,6.205204],[-75.606343,6.205102],[-75.606404,6.205105],[-75.606461,6.205127],[-75.606689,6.20532],[-75.606751,6.205355],[-75.606812,6.205376],[-75.606889,6.205389],[-75.60696,6.205388],[-75.607224,6.205332],[-75.607461,6.205156],[-75.607457,6.204998],[-75.607598,6.204809],[-75.607675,6.204646],[-75.60768,6.204577],[-75.607783,6.204532],[-75.607802,6.204533],[-75.607831,6.204537],[-75.607885,6.204561],[-75.607944,6.204573],[-75.608039,6.204575],[-75.608431,6.20467],[-75.60836,6.204736],[-75.608097,6.204631],[-75.607613,6.205075],[-75.607553,6.205232],[-75.607203,6.205564],[-75.607327,6.205654],[-75.607449,6.205791],[-75.607472,6.205845],[-75.607964,6.205539],[-75.608111,6.205667],[-75.608197,6.205708],[-75.608308,6.205722],[-75.608763,6.20567],[-75.608852,6.205671],[-75.608911,6.205683],[-75.609048,6.20574],[-75.609078,6.205772],[-75.609086,6.20581],[-75.608827,6.205802],[-75.608434,6.205881],[-75.608179,6.205997],[-75.60808,6.206055],[-75.607941,6.206048],[-75.607821,6.206071],[-75.60776,6.206096],[-75.607636,6.206106],[-75.607556,6.206085],[-75.607431,6.205997],[-75.607143,6.205759],[-75.607065,6.205679],[-75.606961,6.205627],[-75.606928,6.205612],[-75.606855,6.205601],[-75.60675,6.205613],[-75.606703,6.205639],[-75.606652,6.205639],[-75.606585,6.20561],[-75.606509,6.205533],[-75.606509,6.205485],[-75.606528,6.20539],[-75.60648,6.205294],[-75.606403,6.205237],[-75.606317,6.205198],[-75.606203,6.205179],[-75.606069,6.205285],[-75.605985,6.205474]]]]}},{"type":"Feature","properties":{"nombre":"Ecoparque Q. La Poblada","categoria":"Ecoparque","subcategor":"Ecoparque de quebrada y otros cuerpos de agua"},"geometry":{"type":"MultiPolygon","coordinates":[[[[-75.548633,6.209489],[-75.548653,6.209479],[-75.548968,6.209501],[-75.549019,6.209512],[-75.548857,6.209512],[-75.548633,6.209489]]],[[[-75.550142,6.209609],[-75.550076,6.209536],[-75.549945,6.209452],[-75.549766,6.209404],[-75.549694,6.209476],[-75.549455,6.209476],[-75.549264,6.209524],[-75.549151,6.209516],[-75.549315,6.209392],[-75.549307,6.209392],[-75.549513,6.209223],[-75.550185,6.209317],[-75.550142,6.209609]]],[[[-75.550323,6.209776],[-75.550392,6.209454],[-75.550669,6.209498],[-75.550933,6.210008],[-75.550913,6.20999],[-75.550638,6.20987],[-75.550363,6.209811],[-75.550323,6.209776]]],[[[-75.550485,6.210174],[-75.550531,6.210193],[-75.55062,6.210223],[-75.550556,6.210226],[-75.55049,6.210216],[-75.550485,6.210174]]],[[[-75.550719,6.210265],[-75.550746,6.210277],[-75.550841,6.210349],[-75.551033,6.210385],[-75.551176,6.210421],[-75.551267,6.210461],[-75.551187,6.210446],[-75.551104,6.210411],[-75.550984,6.210433],[-75.550896,6.210425],[-75.550853,6.21041],[-75.550823,6.210394],[-75.55077,6.21035],[-75.550719,6.210265]]],[[[-75.55096,6.210033],[-75.55096,6.210033],[-75.55096,6.210033],[-75.55096,6.210033]]],[[[-75.551379,6.210253],[-75.551377,6.210252],[-75.55138,6.210253],[-75.551379,6.210253]]],[[[-75.552022,6.210339],[-75.551839,6.210506],[-75.551812,6.21052],[-75.551767,6.210519],[-75.551765,6.210532],[-75.551747,6.210536],[-75.55182,6.21047],[-75.552022,6.210339]]],[[[-75.552123,6.210305],[-75.552208,6.210263],[-75.552373,6.21023],[-75.552496,6.210196],[-75.55242,6.210286],[-75.552357,6.210317],[-75.552311,6.21032],[-75.552123,6.210305]]],[[[-75.552627,6.210185],[-75.552637,6.210187],[-75.552545,6.210434],[-75.552451,6.210403],[-75.552479,6.210336],[-75.552597,6.210205],[-75.552627,6.210185]]],[[[-75.552676,6.210101],[-75.552591,6.210078],[-75.552544,6.210077],[-75.552456,6.210097],[-75.552502,6.210066],[-75.552551,6.210047],[-75.552615,6.210042],[-75.552692,6.210064],[-75.552676,6.210101]]],[[[-75.553513,6.210275],[-75.553651,6.210296],[-75.553729,6.210296],[-75.553808,6.210276],[-75.554004,6.210169],[-75.554164,6.210122],[-75.554249,6.210124],[-75.554308,6.210142],[-75.554366,6.21018],[-75.554356,6.210195],[-75.55418,6.210247],[-75.554023,6.210254],[-75.553816,6.210322],[-75.5535,6.210327],[-75.553513,6.210275]]],[[[-75.553537,6.210184],[-75.553567,6.210088],[-75.553588,6.210065],[-75.553908,6.209905],[-75.553975,6.209885],[-75.554145,6.209875],[-75.554241,6.209888],[-75.554342,6.209951],[-75.554423,6.210018],[-75.554453,6.210053],[-75.554426,6.210093],[-75.554388,6.210056],[-75.55435,6.21004],[-75.554217,6.210033],[-75.554191,6.210016],[-75.554138,6.210007],[-75.553961,6.210017],[-75.553716,6.210146],[-75.553784,6.210144],[-75.553995,6.210074],[-75.554045,6.210072],[-75.553936,6.210105],[-75.553839,6.210161],[-75.553731,6.210187],[-75.553576,6.210191],[-75.553537,6.210184]]],[[[-75.55543,6.211136],[-75.55543,6.211136],[-75.55543,6.211136],[-75.55543,6.211136]]],[[[-75.556309,6.210504],[-75.556235,6.210491],[-75.556172,6.210491],[-75.556091,6.210497],[-75.55604,6.210512],[-75.555987,6.210541],[-75.55583,6.210651],[-75.555737,6.2107],[-75.555755,6.210607],[-75.55578,6.210605],[-75.555799,6.210591],[-75.555838,6.210479],[-75.55587,6.210451],[-75.556336,6.21037],[-75.556309,6.210504]]],[[[-75.56456,6.211705],[-75.564586,6.211712],[-75.564743,6.21175],[-75.564666,6.211774],[-75.564548,6.211774],[-75.56456,6.211705]]],[[[-75.565395,6.211255],[-75.565333,6.211287],[-75.56524,6.211363],[-75.565175,6.211461],[-75.565067,6.211578],[-75.565049,6.211553],[-75.565194,6.21118],[-75.565395,6.211255]]],[[[-75.565817,6.210969],[-75.565804,6.210945],[-75.565837,6.210858],[-75.565894,6.210831],[-75.566311,6.210912],[-75.566757,6.210932],[-75.566808,6.210788],[-75.566868,6.210778],[-75.56691,6.210755],[-75.566948,6.21072],[-75.566915,6.210822],[-75.566941,6.210805],[-75.566979,6.210807],[-75.566928,6.210855],[-75.566792,6.210914],[-75.566685,6.210981],[-75.566633,6.210999],[-75.566569,6.210998],[-75.566341,6.211035],[-75.566278,6.211025],[-75.566112,6.210969],[-75.566019,6.210948],[-75.565941,6.210968],[-75.565817,6.210969]]],[[[-75.570812,6.212025],[-75.570899,6.212073],[-75.570971,6.212084],[-75.571054,6.212112],[-75.571135,6.21216],[-75.57083,6.212063],[-75.570813,6.212041],[-75.570812,6.212025]]],[[[-75.570824,6.211909],[-75.570834,6.21188],[-75.570855,6.211864],[-75.570899,6.211865],[-75.571517,6.212107],[-75.571501,6.212152],[-75.571627,6.212208],[-75.571593,6.212295],[-75.57164,6.212314],[-75.571635,6.212326],[-75.571775,6.212522],[-75.571941,6.21259],[-75.571915,6.21264],[-75.571865,6.212612],[-75.571788,6.212551],[-75.571713,6.212475],[-75.571593,6.212331],[-75.571557,6.2123],[-75.571467,6.212191],[-75.571425,6.212157],[-75.571268,6.212076],[-75.570855,6.211933],[-75.570824,6.211909]]],[[[-75.571463,6.212458],[-75.571525,6.212524],[-75.571646,6.212611],[-75.571746,6.212716],[-75.571843,6.212779],[-75.57179,6.212883],[-75.571763,6.212892],[-75.571463,6.212458]]],[[[-75.572016,6.212689],[-75.57216,6.212404],[-75.572313,6.212471],[-75.572324,6.212468],[-75.572454,6.212535],[-75.572446,6.212555],[-75.572173,6.212442],[-75.572096,6.212631],[-75.572342,6.21273],[-75.572293,6.21274],[-75.572167,6.212733],[-75.572121,6.212725],[-75.572016,6.212689]]],[[[-75.572871,6.212458],[-75.572739,6.21252],[-75.572576,6.21242],[-75.572405,6.212329],[-75.572226,6.212255],[-75.57233,6.21198],[-75.573303,6.212404],[-75.573249,6.212565],[-75.573195,6.212533],[-75.572977,6.212453],[-75.572914,6.21245],[-75.572871,6.212458]],[[-75.572803,6.212219],[-75.572396,6.212051],[-75.572306,6.212269],[-75.572713,6.212437],[-75.572803,6.212219]]],[[[-75.572944,6.212643],[-75.573061,6.212671],[-75.573234,6.212755],[-75.57318,6.212753],[-75.573033,6.2127],[-75.572944,6.212643]]],[[[-75.573288,6.212589],[-75.573364,6.212602],[-75.573421,6.212623],[-75.573395,6.212619],[-75.573288,6.212589]]],[[[-75.573352,6.21276],[-75.573418,6.212753],[-75.573456,6.212765],[-75.573385,6.212762],[-75.573352,6.21276]]],[[[-75.573878,6.212619],[-75.57392,6.212553],[-75.573999,6.212602],[-75.573969,6.212619],[-75.573878,6.212619]]]]}},{"type":"Feature","properties":{"nombre":"Ecoparque Q. Guadalajara","categoria":"Ecoparque","subcategor":"Ecoparque de quebrada y otros cuerpos de agua"},"geometry":{"type":"MultiPolygon","coordinates":[[[[-75.568946,6.204302],[-75.56902,6.204341],[-75.569062,6.204381],[-75.569114,6.204492],[-75.569233,6.204635],[-75.569132,6.204597],[-75.568917,6.204488],[-75.568946,6.204302]]],[[[-75.568972,6.204225],[-75.568976,6.204212],[-75.569071,6.204288],[-75.569016,6.204255],[-75.568972,6.204225]]],[[[-75.569174,6.204377],[-75.569239,6.204423],[-75.56932,6.204451],[-75.569481,6.204482],[-75.569788,6.204559],[-75.570006,6.204639],[-75.570167,6.204688],[-75.570228,6.204701],[-75.570284,6.204704],[-75.570318,6.204697],[-75.570283,6.204844],[-75.570188,6.20477],[-75.569901,6.204651],[-75.569764,6.204615],[-75.569465,6.204579],[-75.569309,6.204519],[-75.569224,6.204466],[-75.569198,6.204404],[-75.569174,6.204377]]],[[[-75.569334,6.204672],[-75.569408,6.204678],[-75.569546,6.204726],[-75.56968,6.204722],[-75.569815,6.204762],[-75.569913,6.204764],[-75.569932,6.204792],[-75.569685,6.204762],[-75.569464,6.204721],[-75.569334,6.204672]]],[[[-75.573526,6.204269],[-75.573604,6.204293],[-75.573808,6.204333],[-75.574009,6.204397],[-75.574054,6.2045],[-75.574074,6.20461],[-75.574064,6.204749],[-75.574033,6.20484],[-75.574027,6.204693],[-75.574003,6.204598],[-75.573955,6.204565],[-75.573766,6.204552],[-75.573736,6.204524],[-75.573581,6.204538],[-75.573446,6.204434],[-75.573526,6.204269]]],[[[-75.573564,6.204191],[-75.573607,6.204109],[-75.573635,6.204089],[-75.573665,6.204082],[-75.573697,6.20409],[-75.573818,6.204194],[-75.573796,6.204209],[-75.57376,6.204211],[-75.573564,6.204191]]]]}},{"type":"Feature","properties":{"nombre":"Ecoparque Q. La Sucia","categoria":"Ecoparque","subcategor":"Ecoparque de quebrada y otros cuerpos de agua"},"geometry":{"type":"MultiPolygon","coordinates":[[[[-75.563537,6.195806],[-75.563732,6.195875],[-75.563759,6.195932],[-75.563699,6.196013],[-75.563442,6.195919],[-75.563537,6.195806]]],[[[-75.56559,6.197068],[-75.565626,6.197076],[-75.565706,6.197072],[-75.565754,6.197056],[-75.565842,6.196988],[-75.565855,6.196936],[-75.565882,6.196911],[-75.565905,6.1969],[-75.566006,6.196882],[-75.56614,6.196817],[-75.566211,6.196735],[-75.566322,6.196674],[-75.5664,6.196655],[-75.566559,6.196654],[-75.566532,6.196662],[-75.566529,6.196655],[-75.566407,6.196699],[-75.566347,6.196733],[-75.566239,6.196804],[-75.566154,6.196888],[-75.566155,6.196919],[-75.565941,6.196919],[-75.565888,6.196925],[-75.56587,6.19694],[-75.565871,6.197037],[-75.565726,6.197106],[-75.565628,6.197094],[-75.565625,6.197104],[-75.565588,6.197104],[-75.56559,6.197068]]],[[[-75.565791,6.196891],[-75.565773,6.196905],[-75.565739,6.196926],[-75.565653,6.196947],[-75.565682,6.196912],[-75.565751,6.196904],[-75.565791,6.196891]]],[[[-75.566025,6.196739],[-75.565984,6.196779],[-75.565941,6.196806],[-75.56585,6.196833],[-75.565899,6.196754],[-75.566025,6.196739]]],[[[-75.566263,6.19661],[-75.566436,6.196481],[-75.56651,6.19647],[-75.566649,6.196572],[-75.56667,6.196609],[-75.566587,6.196583],[-75.566484,6.196576],[-75.566399,6.196583],[-75.566263,6.19661]]],[[[-75.567967,6.197066],[-75.56826,6.197055],[-75.568089,6.197709],[-75.568056,6.1977],[-75.568136,6.197428],[-75.568135,6.19741],[-75.56802,6.197273],[-75.567967,6.197066]]]]}},{"type":"Feature","properties":{"nombre":"Ecoparque Q. Zuñiga","categoria":"Ecoparque","subcategor":"Ecoparque de quebrada y otros cuerpos de agua"},"geometry":{"type":"MultiPolygon","coordinates":[[[[-75.566185,6.17666],[-75.566217,6.17674],[-75.56625,6.176782],[-75.566323,6.176859],[-75.56642,6.176928],[-75.566489,6.176964],[-75.566599,6.176986],[-75.566683,6.177027],[-75.566858,6.17705],[-75.566908,6.177114],[-75.567004,6.177168],[-75.566838,6.177299],[-75.566795,6.177273],[-75.566754,6.177227],[-75.566686,6.177052],[-75.56667,6.177065],[-75.56656,6.177055],[-75.566459,6.177064],[-75.566322,6.177027],[-75.566236,6.177057],[-75.56603,6.176982],[-75.566039,6.176754],[-75.566185,6.17666]]],[[[-75.576686,6.182296],[-75.5766,6.182168],[-75.57684,6.182238],[-75.576957,6.182283],[-75.577178,6.182387],[-75.577382,6.182512],[-75.577381,6.182566],[-75.577187,6.182466],[-75.577051,6.182408],[-75.576915,6.182359],[-75.576686,6.182296]]],[[[-75.578711,6.183348],[-75.578742,6.183421],[-75.57873,6.183443],[-75.578109,6.183053],[-75.578129,6.182985],[-75.578711,6.183348]]],[[[-75.578997,6.18361],[-75.579159,6.183621],[-75.579333,6.1837],[-75.57928,6.18382],[-75.579214,6.183898],[-75.579198,6.183908],[-75.579179,6.183901],[-75.579172,6.183885],[-75.579206,6.183817],[-75.579211,6.183793],[-75.579204,6.183747],[-75.579189,6.18373],[-75.578997,6.18361]]],[[[-75.579938,6.184814],[-75.580013,6.185238],[-75.580273,6.186382],[-75.580346,6.18666],[-75.580392,6.18679],[-75.580425,6.186838],[-75.580667,6.187097],[-75.580694,6.187114],[-75.581257,6.187639],[-75.581257,6.187658],[-75.581349,6.187774],[-75.581308,6.187869],[-75.581179,6.187702],[-75.58117,6.187663],[-75.581176,6.187597],[-75.581171,6.187577],[-75.580949,6.187391],[-75.580737,6.18727],[-75.580753,6.187248],[-75.580545,6.187104],[-75.580559,6.187086],[-75.580434,6.186976],[-75.580365,6.186891],[-75.580315,6.186815],[-75.580309,6.186824],[-75.580261,6.18674],[-75.580243,6.186695],[-75.580328,6.186624],[-75.580187,6.186129],[-75.580004,6.185387],[-75.580039,6.185378],[-75.579943,6.184984],[-75.5799,6.184975],[-75.579903,6.184836],[-75.579938,6.184814]]],[[[-75.581922,6.188042],[-75.582145,6.188138],[-75.582249,6.188188],[-75.581904,6.188087],[-75.581922,6.188042]]],[[[-75.582708,6.188326],[-75.582712,6.188327],[-75.582712,6.188327],[-75.582708,6.188326]]]]}},{"type":"Feature","properties":{"nombre":"Ecoparque Q. La Presidenta","categoria":"Ecoparque","subcategor":"Ecoparque de quebrada y otros cuerpos de agua"},"geometry":{"type":"MultiPolygon","coordinates":[[[[-75.564813,6.207712],[-75.56497,6.207778],[-75.564998,6.207807],[-75.565056,6.207836],[-75.565203,6.207893],[-75.565198,6.207904],[-75.564797,6.207753],[-75.564813,6.207712]]],[[[-75.572366,6.207561],[-75.572319,6.207567],[-75.57229,6.207571],[-75.572318,6.207558],[-75.572366,6.207561]]],[[[-75.572578,6.207957],[-75.572601,6.208006],[-75.572628,6.208042],[-75.572723,6.208123],[-75.572753,6.208164],[-75.572792,6.2082],[-75.572842,6.208219],[-75.572829,6.208286],[-75.572726,6.208281],[-75.572628,6.20825],[-75.572541,6.208196],[-75.57247,6.208123],[-75.572578,6.207957]]],[[[-75.572662,6.207583],[-75.572914,6.207601],[-75.572935,6.207723],[-75.57293,6.207866],[-75.572892,6.207838],[-75.57282,6.207761],[-75.572699,6.207605],[-75.572662,6.207583]]],[[[-75.57297,6.208264],[-75.573012,6.208274],[-75.573125,6.208286],[-75.573063,6.208286],[-75.57306,6.208298],[-75.573013,6.208286],[-75.573008,6.208322],[-75.572963,6.208318],[-75.57297,6.208264]]],[[[-75.573838,6.208183],[-75.573755,6.208218],[-75.573664,6.208244],[-75.573468,6.208278],[-75.573683,6.208234],[-75.573838,6.208183]]]]}},{"type":"Feature","properties":{"nombre":"Zona verde Urb. Guadalajara","categoria":"No Aplica","subcategor":"No Aplica"},"geometry":{"type":"MultiPolygon","coordinates":[[[[-75.571529,6.204892],[-75.571624,6.204887],[-75.571785,6.204837],[-75.571635,6.204969],[-75.571525,6.204963],[-75.571529,6.204892]]],[[[-75.571539,6.204813],[-75.571546,6.204773],[-75.57157,6.204794],[-75.571597,6.204788],[-75.571774,6.204619],[-75.571932,6.204659],[-75.57188,6.204711],[-75.571764,6.204774],[-75.571634,6.204802],[-75.571539,6.204813]]]]}},{"type":"Feature","properties":{"nombre":"Zona verde Alejandría","categoria":"No Aplica","subcategor":"No Aplica"},"geometry":{"type":"Polygon","coordinates":[[[-75.566548,6.199224],[-75.566251,6.199085],[-75.566259,6.199073],[-75.566619,6.199241],[-75.566536,6.199538],[-75.566493,6.199512],[-75.566504,6.199473],[-75.5665,6.19941],[-75.566528,6.199326],[-75.566582,6.19926],[-75.566548,6.199224]]]}},{"type":"Feature","properties":{"nombre":"Zona verde Urb. Prados de la Colina","categoria":"No Aplica","subcategor":"No Aplica"},"geometry":{"type":"Polygon","coordinates":[[[-75.590722,6.198744],[-75.590768,6.198556],[-75.590963,6.198606],[-75.590976,6.198555],[-75.591011,6.198564],[-75.591029,6.198492],[-75.591134,6.198518],[-75.591173,6.19836],[-75.59133,6.198402],[-75.591365,6.198259],[-75.591479,6.198288],[-75.591681,6.198113],[-75.591691,6.198119],[-75.591796,6.198019],[-75.591828,6.198044],[-75.591643,6.198354],[-75.591387,6.198602],[-75.591255,6.198719],[-75.591026,6.198628],[-75.590879,6.198729],[-75.590857,6.198776],[-75.590722,6.198744]],[[-75.591435,6.19845],[-75.591396,6.198392],[-75.591099,6.198573],[-75.591137,6.198612],[-75.591326,6.198521],[-75.591435,6.19845]]]}},{"type":"Feature","properties":{"nombre":"Zona verde Urb. La Colinita","categoria":"No Aplica","subcategor":"No Aplica"},"geometry":{"type":"MultiPolygon","coordinates":[[[[-75.591551,6.200139],[-75.591409,6.200114],[-75.591411,6.200106],[-75.591339,6.200092],[-75.591341,6.200082],[-75.591122,6.200038],[-75.591125,6.200025],[-75.591055,6.200008],[-75.591052,6.200023],[-75.590588,6.199918],[-75.59087,6.199339],[-75.59096,6.199257],[-75.591037,6.199215],[-75.591133,6.199186],[-75.591217,6.199178],[-75.591373,6.19918],[-75.591292,6.199285],[-75.591163,6.199187],[-75.591003,6.199406],[-75.591094,6.199474],[-75.590968,6.199651],[-75.591564,6.200118],[-75.591551,6.200139]]],[[[-75.593067,6.199521],[-75.593034,6.199228],[-75.59301,6.199223],[-75.593044,6.199173],[-75.592723,6.199211],[-75.592663,6.19912],[-75.592603,6.19916],[-75.592595,6.19915],[-75.592445,6.199245],[-75.592415,6.199181],[-75.592309,6.199021],[-75.592504,6.198965],[-75.592497,6.199039],[-75.592473,6.199043],[-75.59247,6.199018],[-75.592383,6.199032],[-75.592392,6.199093],[-75.592502,6.199076],[-75.592505,6.1991],[-75.592592,6.199087],[-75.592583,6.199026],[-75.592658,6.199015],[-75.592732,6.199031],[-75.592752,6.199089],[-75.592836,6.199067],[-75.592831,6.199043],[-75.592939,6.199017],[-75.592925,6.198957],[-75.592839,6.198973],[-75.592842,6.198916],[-75.593019,6.198883],[-75.593135,6.198971],[-75.593126,6.198981],[-75.593082,6.198947],[-75.593045,6.198993],[-75.593113,6.199046],[-75.593126,6.199033],[-75.593208,6.199097],[-75.593246,6.19905],[-75.593182,6.198996],[-75.593206,6.198946],[-75.593087,6.198862],[-75.593107,6.198834],[-75.593175,6.198883],[-75.593213,6.198833],[-75.593144,6.198781],[-75.593129,6.198799],[-75.593049,6.19874],[-75.593011,6.198786],[-75.593059,6.198824],[-75.592887,6.19886],[-75.592873,6.19881],[-75.592853,6.198813],[-75.592866,6.198738],[-75.592939,6.198724],[-75.592926,6.198667],[-75.592817,6.198688],[-75.592812,6.198664],[-75.592641,6.198702],[-75.592645,6.198726],[-75.592536,6.19875],[-75.592549,6.198809],[-75.592635,6.19879],[-75.59263,6.198766],[-75.592815,6.198724],[-75.592764,6.198825],[-75.592395,6.198931],[-75.592369,6.198838],[-75.592456,6.198815],[-75.592443,6.198761],[-75.592349,6.198787],[-75.592353,6.198808],[-75.592131,6.198864],[-75.592124,6.198846],[-75.592044,6.198867],[-75.592056,6.198924],[-75.592169,6.198894],[-75.592176,6.198911],[-75.592144,6.198976],[-75.59197,6.198961],[-75.591761,6.198967],[-75.591943,6.198936],[-75.591922,6.198846],[-75.591661,6.198884],[-75.591349,6.198757],[-75.591545,6.198578],[-75.591588,6.198774],[-75.591821,6.198724],[-75.591833,6.198775],[-75.591958,6.198748],[-75.592105,6.198706],[-75.592094,6.198659],[-75.592324,6.198605],[-75.5923,6.198497],[-75.592532,6.198442],[-75.59248,6.198231],[-75.592975,6.198426],[-75.592919,6.198548],[-75.593464,6.198794],[-75.593268,6.199271],[-75.593245,6.199261],[-75.593145,6.199515],[-75.593067,6.199521]]],[[[-75.591755,6.199427],[-75.591438,6.199185],[-75.591507,6.199195],[-75.591833,6.199326],[-75.591755,6.199427]]],[[[-75.591616,6.198575],[-75.591768,6.198425],[-75.591784,6.198495],[-75.591694,6.198519],[-75.591706,6.198568],[-75.59162,6.198589],[-75.591616,6.198575]]],[[[-75.591794,6.198315],[-75.591941,6.198161],[-75.591948,6.198167],[-75.591962,6.19823],[-75.591875,6.198251],[-75.591887,6.198303],[-75.591796,6.198325],[-75.591794,6.198315]]],[[[-75.592104,6.198198],[-75.592091,6.198144],[-75.592009,6.198163],[-75.592008,6.198158],[-75.592122,6.197986],[-75.592154,6.198006],[-75.592192,6.198178],[-75.592104,6.198198]]],[[[-75.592054,6.199307],[-75.592083,6.199054],[-75.5922,6.199049],[-75.592147,6.199155],[-75.592094,6.199167],[-75.592108,6.199226],[-75.592194,6.199205],[-75.592188,6.199181],[-75.592296,6.199155],[-75.592355,6.199223],[-75.592385,6.199289],[-75.592304,6.199409],[-75.592054,6.199307]]],[[[-75.592241,6.198895],[-75.592319,6.198875],[-75.592336,6.198945],[-75.592201,6.198975],[-75.592241,6.198895]]],[[[-75.592368,6.1983],[-75.592342,6.198196],[-75.592255,6.198215],[-75.592217,6.198061],[-75.592409,6.198167],[-75.592399,6.198199],[-75.592439,6.198215],[-75.592455,6.19828],[-75.592368,6.1983]]],[[[-75.592295,6.200142],[-75.592411,6.199976],[-75.592473,6.199997],[-75.592411,6.200175],[-75.592295,6.200142]]],[[[-75.59271,6.199579],[-75.592818,6.199507],[-75.59283,6.199582],[-75.592758,6.199588],[-75.59271,6.199579]]],[[[-75.592726,6.199257],[-75.592777,6.199251],[-75.592794,6.199357],[-75.592726,6.199257]]],[[[-75.593251,6.197615],[-75.593315,6.197477],[-75.593329,6.197483],[-75.593297,6.197636],[-75.593251,6.197615]]],[[[-75.594828,6.201901],[-75.594675,6.20188],[-75.594271,6.201868],[-75.594259,6.201864],[-75.594254,6.201842],[-75.594262,6.201808],[-75.594292,6.201769],[-75.594574,6.201516],[-75.594829,6.201332],[-75.595041,6.201194],[-75.595078,6.201177],[-75.595127,6.201184],[-75.595092,6.201312],[-75.59492,6.201701],[-75.594905,6.201695],[-75.594837,6.201891],[-75.594831,6.201889],[-75.594828,6.201901]]],[[[-75.594489,6.200242],[-75.594518,6.200166],[-75.594593,6.200223],[-75.594641,6.2003],[-75.594489,6.200242]]],[[[-75.594641,6.200418],[-75.594677,6.200325],[-75.594745,6.2004],[-75.594821,6.200429],[-75.594793,6.200476],[-75.594641,6.200418]]],[[[-75.594683,6.201267],[-75.594739,6.201114],[-75.594892,6.20117],[-75.594683,6.201267]]],[[[-75.594801,6.200584],[-75.594836,6.200492],[-75.594917,6.200583],[-75.594946,6.200595],[-75.594966,6.200619],[-75.594955,6.200647],[-75.594801,6.200584]]],[[[-75.594933,6.201122],[-75.59499,6.200969],[-75.595142,6.201026],[-75.595009,6.201073],[-75.594933,6.201122]]],[[[-75.59503,6.200738],[-75.595057,6.200663],[-75.595098,6.2007],[-75.595125,6.20075],[-75.595134,6.200805],[-75.595125,6.20086],[-75.595081,6.200845],[-75.595108,6.200767],[-75.59503,6.200738]]],[[[-75.595091,6.200975],[-75.595134,6.200862],[-75.595142,6.200926],[-75.595134,6.200992],[-75.595091,6.200975]]],[[[-75.598697,6.203107],[-75.598356,6.202807],[-75.598382,6.202736],[-75.598799,6.203103],[-75.599184,6.202968],[-75.599343,6.202896],[-75.59928,6.202779],[-75.599496,6.202716],[-75.599793,6.202641],[-75.599801,6.20267],[-75.59966,6.202731],[-75.599689,6.202789],[-75.599252,6.202998],[-75.598846,6.203138],[-75.59878,6.203138],[-75.598697,6.203107]]]]}},{"type":"Feature","properties":{"nombre":"Zona verde Urb. El Futuro","categoria":"No Aplica","subcategor":"No Aplica"},"geometry":{"type":"Polygon","coordinates":[[[-75.576712,6.205869],[-75.576741,6.205818],[-75.576714,6.205804],[-75.576718,6.205796],[-75.576656,6.205766],[-75.576689,6.205695],[-75.576819,6.205755],[-75.576802,6.205934],[-75.576697,6.206025],[-75.57669,6.206098],[-75.576641,6.206095],[-75.576644,6.206035],[-75.576717,6.205871],[-75.576712,6.205869]]]}},{"type":"Feature","properties":{"nombre":"Zona verde La Florida","categoria":"No Aplica","subcategor":"No Aplica"},"geometry":{"type":"Polygon","coordinates":[[[-75.565514,6.202048],[-75.565341,6.201863],[-75.565378,6.201889],[-75.565423,6.201899],[-75.565466,6.201891],[-75.565506,6.201866],[-75.5658,6.201327],[-75.565867,6.201165],[-75.565988,6.20121],[-75.565935,6.201364],[-75.56586,6.201529],[-75.56557,6.202033],[-75.565546,6.20205],[-75.565514,6.202048]]]}},{"type":"Feature","properties":{"nombre":"Zona verde Urb. Villas del Campo","categoria":"No Aplica","subcategor":"No Aplica"},"geometry":{"type":"Polygon","coordinates":[[[-75.566901,6.202109],[-75.567001,6.201831],[-75.567045,6.201767],[-75.56708,6.201747],[-75.567074,6.201676],[-75.56716,6.201653],[-75.56721,6.201589],[-75.567177,6.201553],[-75.567505,6.201719],[-75.567145,6.201923],[-75.566901,6.202109]]]}},{"type":"Feature","properties":{"nombre":"Zona verde La Aguacatala","categoria":"No Aplica","subcategor":"No Aplica"},"geometry":{"type":"Polygon","coordinates":[[[-75.576321,6.196197],[-75.576448,6.196024],[-75.576463,6.196075],[-75.576445,6.196125],[-75.576361,6.196233],[-75.576321,6.196197]]]}},{"type":"Feature","properties":{"nombre":"Zona verde Urb. Santa María de Los Ángeles","categoria":"No Aplica","subcategor":"No Aplica"},"geometry":{"type":"Polygon","coordinates":[[[-75.581775,6.190663],[-75.581863,6.190493],[-75.582021,6.190575],[-75.582036,6.190519],[-75.58217,6.190574],[-75.582187,6.190606],[-75.582176,6.190661],[-75.582172,6.190791],[-75.582159,6.190859],[-75.581775,6.190663]]]}},{"type":"Feature","properties":{"nombre":"Zona verde Urb. Altos de Alejandría","categoria":"No Aplica","subcategor":"No Aplica"},"geometry":{"type":"MultiPolygon","coordinates":[[[[-75.566767,6.199359],[-75.567338,6.198964],[-75.567151,6.199434],[-75.567094,6.199523],[-75.566767,6.199359]]],[[[-75.580284,6.191665],[-75.580302,6.191552],[-75.580852,6.191662],[-75.580827,6.191776],[-75.580284,6.191665]]],[[[-75.581467,6.191946],[-75.581491,6.191837],[-75.581928,6.191941],[-75.581903,6.192051],[-75.581467,6.191946]]]]}},{"type":"Feature","properties":{"nombre":"Zona verde Urb. Malusa","categoria":"No Aplica","subcategor":"No Aplica"},"geometry":{"type":"Polygon","coordinates":[[[-75.568804,6.198596],[-75.568847,6.198281],[-75.569119,6.198391],[-75.56908,6.198493],[-75.568906,6.198858],[-75.568811,6.19894],[-75.568794,6.198854],[-75.568804,6.198596]]]}},{"type":"Feature","properties":{"nombre":"Zona verde Urb. Alsacia","categoria":"No Aplica","subcategor":"No Aplica"},"geometry":{"type":"Polygon","coordinates":[[[-75.578259,6.193728],[-75.578357,6.193557],[-75.578463,6.19341],[-75.578493,6.193338],[-75.578563,6.193255],[-75.578601,6.193022],[-75.578613,6.192995],[-75.578676,6.192909],[-75.578733,6.19279],[-75.578852,6.192831],[-75.578562,6.193449],[-75.578505,6.193425],[-75.578452,6.193563],[-75.578419,6.193552],[-75.578376,6.19365],[-75.578337,6.193635],[-75.578284,6.193749],[-75.578322,6.193769],[-75.578064,6.194252],[-75.577967,6.194212],[-75.578119,6.194018],[-75.578202,6.193884],[-75.578248,6.193728],[-75.578259,6.193728]]]}},{"type":"Feature","properties":{"nombre":"Zona verde Urb. Ceylan Duplex","categoria":"No Aplica","subcategor":"No Aplica"},"geometry":{"type":"Polygon","coordinates":[[[-75.57161,6.195661],[-75.571653,6.195537],[-75.572488,6.196036],[-75.572521,6.196075],[-75.57253,6.196121],[-75.572527,6.196151],[-75.572481,6.196292],[-75.571525,6.195847],[-75.57161,6.195661]]]}},{"type":"Feature","properties":{"nombre":"Zona verde Urb. Roncesvalles","categoria":"No Aplica","subcategor":"No Aplica"},"geometry":{"type":"Polygon","coordinates":[[[-75.569974,6.194723],[-75.569925,6.19474],[-75.569872,6.19471],[-75.570019,6.194446],[-75.570073,6.194477],[-75.570069,6.194511],[-75.570085,6.19454],[-75.570179,6.194603],[-75.570221,6.194609],[-75.570254,6.194585],[-75.570307,6.194618],[-75.570163,6.194875],[-75.570112,6.194847],[-75.570111,6.194809],[-75.57009,6.19478],[-75.570005,6.19473],[-75.569974,6.194723]]]}},{"type":"Feature","properties":{"nombre":"Zona verde Urb. El Diamante 2","categoria":"No Aplica","subcategor":"No Aplica"},"geometry":{"type":"Polygon","coordinates":[[[-75.575147,6.18651],[-75.575176,6.186502],[-75.575189,6.18651],[-75.575196,6.186541],[-75.575115,6.187268],[-75.575095,6.187292],[-75.574614,6.187574],[-75.574602,6.187575],[-75.574587,6.187557],[-75.574591,6.187544],[-75.574929,6.18694],[-75.575147,6.18651]]]}},{"type":"Feature","properties":{"nombre":"Zona verde Campo Amor","categoria":"No Aplica","subcategor":"No Aplica"},"geometry":{"type":"MultiPolygon","coordinates":[[[[-75.578925,6.211216],[-75.578998,6.211211],[-75.579038,6.211243],[-75.579044,6.211267],[-75.579005,6.211604],[-75.578963,6.211847],[-75.578899,6.21231],[-75.578888,6.212352],[-75.578876,6.212356],[-75.57882,6.212239],[-75.57878,6.21212],[-75.578753,6.211882],[-75.578763,6.211791],[-75.578764,6.21168],[-75.57875,6.211598],[-75.578792,6.211307],[-75.578865,6.211237],[-75.578925,6.211216]]],[[[-75.579147,6.209133],[-75.579306,6.209176],[-75.579325,6.209191],[-75.579335,6.209213],[-75.579168,6.210358],[-75.579067,6.21112],[-75.579053,6.211139],[-75.579032,6.211148],[-75.579008,6.211147],[-75.578953,6.211124],[-75.57891,6.211088],[-75.578875,6.211045],[-75.578844,6.210973],[-75.578856,6.210841],[-75.57909,6.209172],[-75.579105,6.209149],[-75.579147,6.209133]]],[[[-75.586186,6.213661],[-75.586449,6.213186],[-75.586492,6.213204],[-75.586378,6.21377],[-75.586186,6.213661]]],[[[-75.586552,6.212791],[-75.586578,6.212803],[-75.58654,6.212948],[-75.586509,6.213117],[-75.5864,6.213061],[-75.586552,6.212791]]]]}},{"type":"Feature","properties":{"nombre":"Zona verde El Castillo","categoria":"No Aplica","subcategor":"No Aplica"},"geometry":{"type":"Polygon","coordinates":[[[-75.571529,6.191558],[-75.57154,6.191576],[-75.571576,6.191595],[-75.571691,6.191603],[-75.571822,6.191579],[-75.572106,6.191496],[-75.572081,6.191663],[-75.571804,6.191804],[-75.571746,6.191822],[-75.571628,6.191841],[-75.571508,6.191838],[-75.571397,6.191816],[-75.57147,6.191562],[-75.571529,6.191558]]]}},{"type":"Feature","properties":{"nombre":"Zona verde Urb. Saint Mortiz","categoria":"No Aplica","subcategor":"No Aplica"},"geometry":{"type":"MultiPolygon","coordinates":[[[[-75.566793,6.203418],[-75.566946,6.203491],[-75.567144,6.203622],[-75.567152,6.203634],[-75.567149,6.203646],[-75.567102,6.2037],[-75.566793,6.203418]]],[[[-75.56717,6.204633],[-75.567268,6.204522],[-75.567305,6.204537],[-75.567398,6.204306],[-75.567475,6.204337],[-75.567551,6.204147],[-75.567446,6.204105],[-75.567464,6.204062],[-75.567451,6.203964],[-75.567347,6.203876],[-75.567217,6.203789],[-75.567271,6.203708],[-75.567554,6.203892],[-75.567665,6.203948],[-75.567676,6.203962],[-75.567679,6.203984],[-75.567433,6.204604],[-75.567423,6.204646],[-75.567428,6.204689],[-75.567386,6.204782],[-75.56717,6.204633]]]]}},{"type":"Feature","properties":{"nombre":"Zona verde Urb. Villas del Sur","categoria":"No Aplica","subcategor":"No Aplica"},"geometry":{"type":"MultiPolygon","coordinates":[[[[-75.582203,6.206861],[-75.582247,6.206751],[-75.582676,6.20694],[-75.582203,6.206861]]],[[[-75.582557,6.206727],[-75.582659,6.206479],[-75.58273,6.206507],[-75.582629,6.206757],[-75.582557,6.206727]]]]}},{"type":"Feature","properties":{"nombre":"Zona verde Urb. Sinvad 2","categoria":"No Aplica","subcategor":"No Aplica"},"geometry":{"type":"MultiPolygon","coordinates":[[[[-75.588428,6.195954],[-75.588364,6.196192],[-75.588172,6.196138],[-75.58824,6.196035],[-75.588287,6.195993],[-75.588368,6.195957],[-75.588428,6.195954]]],[[[-75.588983,6.194635],[-75.589352,6.194477],[-75.589242,6.194744],[-75.588983,6.194635]]],[[[-75.58959,6.194384],[-75.589601,6.19438],[-75.590077,6.194575],[-75.59006,6.194615],[-75.589576,6.194415],[-75.58959,6.194384]]],[[[-75.589683,6.194341],[-75.589722,6.194318],[-75.58978,6.194279],[-75.589769,6.194372],[-75.589683,6.194341]]]]}},{"type":"Feature","properties":{"nombre":"Zona verde Guayabal","categoria":"No Aplica","subcategor":"No Aplica"},"geometry":{"type":"MultiPolygon","coordinates":[[[[-75.580808,6.198788],[-75.580861,6.198772],[-75.580951,6.198794],[-75.580683,6.199991],[-75.580664,6.199978],[-75.580569,6.199835],[-75.580523,6.199734],[-75.580503,6.199649],[-75.580502,6.199574],[-75.580668,6.198905],[-75.580684,6.198875],[-75.580733,6.198834],[-75.580808,6.198788]]],[[[-75.586532,6.200009],[-75.584933,6.199711],[-75.584906,6.199675],[-75.584942,6.199566],[-75.584987,6.199557],[-75.58655,6.19991],[-75.586568,6.199937],[-75.58655,6.2],[-75.586532,6.200009]]],[[[-75.585233,6.198415],[-75.585253,6.198289],[-75.585255,6.198301],[-75.58695,6.198794],[-75.586906,6.198914],[-75.586867,6.198924],[-75.585291,6.198458],[-75.585233,6.198415]]],[[[-75.587053,6.198949],[-75.587094,6.198842],[-75.587783,6.199023],[-75.587754,6.19913],[-75.587716,6.199154],[-75.587064,6.198957],[-75.587053,6.198949]]],[[[-75.587571,6.19696],[-75.587591,6.196967],[-75.587594,6.196982],[-75.587563,6.197009],[-75.587511,6.197024],[-75.587429,6.197025],[-75.587571,6.19696]]],[[[-75.587666,6.19672],[-75.587665,6.196724],[-75.587662,6.196725],[-75.587666,6.19672]]],[[[-75.587684,6.196907],[-75.587723,6.196894],[-75.587715,6.196905],[-75.587684,6.196907]]],[[[-75.587928,6.19612],[-75.587882,6.19632],[-75.587861,6.196377],[-75.587708,6.196647],[-75.587928,6.19612]]],[[[-75.587805,6.196772],[-75.587793,6.196802],[-75.58776,6.196846],[-75.587805,6.196772]]],[[[-75.587864,6.199178],[-75.587899,6.199045],[-75.588909,6.199332],[-75.588866,6.199437],[-75.588832,6.199451],[-75.587888,6.199211],[-75.587864,6.199178]]],[[[-75.589364,6.195957],[-75.590272,6.196224],[-75.590275,6.196243],[-75.590229,6.196227],[-75.589364,6.195957]]],[[[-75.589364,6.195957],[-75.588507,6.19571],[-75.588479,6.195705],[-75.588354,6.195724],[-75.588286,6.195753],[-75.588322,6.195675],[-75.588341,6.195662],[-75.588364,6.195662],[-75.589364,6.195957]]],[[[-75.588553,6.19493],[-75.588554,6.194931],[-75.588369,6.195387],[-75.588553,6.19493]]],[[[-75.588607,6.195878],[-75.588707,6.195899],[-75.588866,6.195954],[-75.588636,6.195886],[-75.588607,6.195878]]]]}},{"type":"Feature","properties":{"nombre":"Zona verde Urb. El Rodeo","categoria":"No Aplica","subcategor":"No Aplica"},"geometry":{"type":"MultiPolygon","coordinates":[[[[-75.588633,6.205616],[-75.588682,6.205641],[-75.588771,6.206071],[-75.58862,6.206005],[-75.588675,6.205865],[-75.588555,6.205817],[-75.588633,6.205616]]],[[[-75.588745,6.206445],[-75.588827,6.206249],[-75.588888,6.206734],[-75.588755,6.206679],[-75.588836,6.206483],[-75.588745,6.206445]]]]}},{"type":"Feature","properties":{"nombre":"Zona verde Urb. Aldea de Guayabal","categoria":"No Aplica","subcategor":"No Aplica"},"geometry":{"type":"Polygon","coordinates":[[[-75.586387,6.20073],[-75.586432,6.200622],[-75.586461,6.200634],[-75.586416,6.200742],[-75.586387,6.20073]]]}},{"type":"Feature","properties":{"nombre":"Zona verde Cristo Rey","categoria":"No Aplica","subcategor":"No Aplica"},"geometry":{"type":"MultiPolygon","coordinates":[[[[-75.579966,6.204052],[-75.580076,6.203361],[-75.580157,6.203384],[-75.580043,6.204085],[-75.579966,6.204052]]],[[[-75.588134,6.206508],[-75.58826,6.206556],[-75.5881,6.206955],[-75.587975,6.206904],[-75.588134,6.206508]]],[[[-75.587992,6.206363],[-75.588152,6.205969],[-75.588277,6.206017],[-75.588112,6.206412],[-75.587992,6.206363]]]]}},{"type":"Feature","properties":{"nombre":"Zona verde La Colina","categoria":"No Aplica","subcategor":"No Aplica"},"geometry":{"type":"MultiPolygon","coordinates":[[[[-75.590533,6.19631],[-75.590522,6.196305],[-75.590533,6.19631],[-75.590551,6.196269],[-75.590812,6.196321],[-75.590805,6.19637],[-75.590842,6.196378],[-75.590759,6.196373],[-75.590627,6.196342],[-75.590533,6.19631]]],[[[-75.590654,6.196525],[-75.590688,6.196534],[-75.590741,6.196536],[-75.590934,6.196521],[-75.591002,6.196524],[-75.591109,6.196574],[-75.5909,6.196585],[-75.590893,6.196602],[-75.590642,6.196552],[-75.590654,6.196525]]],[[[-75.590752,6.199043],[-75.590791,6.198942],[-75.590828,6.198959],[-75.590856,6.198874],[-75.591012,6.198933],[-75.590973,6.198968],[-75.590889,6.199086],[-75.590798,6.199262],[-75.590764,6.199145],[-75.590794,6.199059],[-75.590752,6.199043]]],[[[-75.591253,6.196327],[-75.591243,6.196329],[-75.591224,6.196335],[-75.591226,6.196323],[-75.591253,6.196327]]],[[[-75.591487,6.196556],[-75.591475,6.196556],[-75.591394,6.19656],[-75.591436,6.196549],[-75.591487,6.196556]]],[[[-75.592143,6.196474],[-75.592193,6.196467],[-75.592067,6.1965],[-75.592143,6.196474]]],[[[-75.593305,6.196804],[-75.593325,6.196845],[-75.5935,6.196985],[-75.593465,6.197038],[-75.593263,6.196907],[-75.593305,6.196804]]]]}},{"type":"Feature","properties":{"nombre":"Zona verde Urb. Rincón del Aguacatal","categoria":"No Aplica","subcategor":"No Aplica"},"geometry":{"type":"Polygon","coordinates":[[[-75.568924,6.195482],[-75.569169,6.195004],[-75.569345,6.19516],[-75.569473,6.195256],[-75.56982,6.195488],[-75.569778,6.195563],[-75.568976,6.195505],[-75.568944,6.195497],[-75.568924,6.195482]]]}},{"type":"Feature","properties":{"nombre":"Zona verde Urb. Casa Linda","categoria":"No Aplica","subcategor":"No Aplica"},"geometry":{"type":"Polygon","coordinates":[[[-75.59183,6.197923],[-75.591856,6.197818],[-75.591929,6.197836],[-75.591863,6.197931],[-75.59183,6.197923]]]}},{"type":"Feature","properties":{"nombre":"Zona verde Patio Bonito","categoria":"No Aplica","subcategor":"No Aplica"},"geometry":{"type":"MultiPolygon","coordinates":[[[[-75.573409,6.205564],[-75.573545,6.205343],[-75.573681,6.205407],[-75.573547,6.205619],[-75.573496,6.205728],[-75.573401,6.206012],[-75.573241,6.206006],[-75.573354,6.205689],[-75.573409,6.205564]]],[[[-75.574293,6.202361],[-75.573886,6.202095],[-75.573639,6.202154],[-75.573599,6.202152],[-75.573572,6.202137],[-75.573553,6.202113],[-75.573544,6.202084],[-75.573547,6.202053],[-75.573557,6.202033],[-75.573675,6.201894],[-75.574319,6.202306],[-75.574293,6.202361]]],[[[-75.575724,6.20297],[-75.575822,6.203004],[-75.575836,6.20303],[-75.575733,6.203243],[-75.575483,6.203131],[-75.57569,6.202986],[-75.575724,6.20297]]]]}},{"type":"Feature","properties":{"nombre":"Zona verde Q. La Olleta","categoria":"No Aplica","subcategor":"No Aplica"},"geometry":{"type":"MultiPolygon","coordinates":[[[[-75.567949,6.200142],[-75.56821,6.200257],[-75.568292,6.200279],[-75.56862,6.200407],[-75.568413,6.200359],[-75.567941,6.200165],[-75.567949,6.200142]]],[[[-75.568699,6.200425],[-75.56873,6.200428],[-75.568721,6.20043],[-75.568699,6.200425]]],[[[-75.569536,6.200757],[-75.569539,6.200759],[-75.56954,6.20076],[-75.569536,6.200757]]],[[[-75.571499,6.201569],[-75.571385,6.201493],[-75.57169,6.201618],[-75.571687,6.201646],[-75.571499,6.201569]]],[[[-75.574446,6.204566],[-75.57465,6.204665],[-75.574473,6.204593],[-75.574455,6.204584],[-75.574446,6.204566]]]]}},{"type":"Feature","properties":{"nombre":"Zona verde Urb. Guillermo Echavarria","categoria":"No Aplica","subcategor":"No Aplica"},"geometry":{"type":"MultiPolygon","coordinates":[[[[-75.572676,6.211971],[-75.572714,6.211875],[-75.572809,6.211911],[-75.57277,6.212008],[-75.572676,6.211971]]],[[[-75.573351,6.21224],[-75.573391,6.212135],[-75.573445,6.212157],[-75.573405,6.212262],[-75.573351,6.21224]]]]}},{"type":"Feature","properties":{"nombre":"Zona verde Centro Comercial SantaFe","categoria":"No Aplica","subcategor":"No Aplica"},"geometry":{"type":"MultiPolygon","coordinates":[[[[-75.573791,6.195207],[-75.57385,6.195255],[-75.573888,6.1953],[-75.573979,6.195369],[-75.574051,6.195404],[-75.574143,6.195433],[-75.574212,6.195472],[-75.574277,6.195585],[-75.574337,6.195667],[-75.574568,6.195884],[-75.574619,6.195945],[-75.574651,6.196018],[-75.574663,6.196097],[-75.57466,6.196137],[-75.574641,6.196275],[-75.574578,6.196594],[-75.574557,6.196619],[-75.574532,6.196622],[-75.574492,6.196606],[-75.574502,6.196469],[-75.574524,6.196469],[-75.574559,6.19639],[-75.574551,6.196304],[-75.574555,6.196243],[-75.574508,6.196055],[-75.574444,6.195904],[-75.574387,6.195807],[-75.574283,6.195689],[-75.574297,6.195656],[-75.574022,6.195534],[-75.57403,6.195518],[-75.57369,6.195367],[-75.573791,6.195207]]],[[[-75.574104,6.197504],[-75.574134,6.197436],[-75.574167,6.19745],[-75.5742,6.197377],[-75.574167,6.197362],[-75.574341,6.196968],[-75.574351,6.196972],[-75.574469,6.196705],[-75.574511,6.196723],[-75.574542,6.196753],[-75.57455,6.196795],[-75.574502,6.197011],[-75.574498,6.197094],[-75.574436,6.197293],[-75.574353,6.19748],[-75.574319,6.197537],[-75.574291,6.197556],[-75.57426,6.197565],[-75.574224,6.197561],[-75.574104,6.197504]]]]}},{"type":"Feature","properties":{"nombre":"Zona verde Alcazar de los Naranjos","categoria":"No Aplica","subcategor":"No Aplica"},"geometry":{"type":"Polygon","coordinates":[[[-75.568664,6.196081],[-75.568788,6.196113],[-75.56877,6.196385],[-75.568727,6.196643],[-75.568733,6.19672],[-75.56876,6.196788],[-75.56881,6.196837],[-75.568926,6.196873],[-75.568994,6.196878],[-75.569098,6.196901],[-75.569293,6.197009],[-75.569271,6.197048],[-75.568986,6.196932],[-75.568766,6.196886],[-75.568455,6.196875],[-75.568664,6.196081]]]}},{"type":"Feature","properties":{"nombre":"Zona verde Alejandría","categoria":"No Aplica","subcategor":"No Aplica"},"geometry":{"type":"Polygon","coordinates":[[[-75.569352,6.202392],[-75.569515,6.201942],[-75.569728,6.202027],[-75.56968,6.202146],[-75.56967,6.202142],[-75.569638,6.202223],[-75.569527,6.202326],[-75.569499,6.202366],[-75.569485,6.202408],[-75.569352,6.202392]]]}},{"type":"Feature","properties":{"nombre":"Zona verde Urb. Las Vegas","categoria":"No Aplica","subcategor":"No Aplica"},"geometry":{"type":"Polygon","coordinates":[[[-75.580218,6.187486],[-75.580265,6.187492],[-75.580307,6.187511],[-75.58066,6.187768],[-75.580338,6.188495],[-75.580065,6.187675],[-75.580068,6.187606],[-75.580098,6.187545],[-75.580152,6.187502],[-75.580218,6.187486]]]}}]}