{"type":"FeatureCollection","features":[{"type":"Feature","properties":{"name":"Línea A"},"geometry":{"type":"LineString","coordinates":[[-75.587341,6.185211],[-75.586755,6.185619],[-75.586184,6.186031],[-75.58525,6.186705],[-75.584493,6.187261],[-75.584263,6.187449],[-75.584054,6.187641],[-75.583849,6.187846],[-75.583721,6.187979],[-75.583599,6.188129],[-75.583472,6.188307],[-75.583389,6.188434],[-75.583299,6.188582],[-75.583216,6.188741],[-75.583143,6.188912],[-75.583088,6.189054],[-75.583026,6.189227],[-75.582938,6.189522],[-75.582867,6.189786],[-75.582662,6.190715],[-75.582293,6.192381],[-75.582258,6.192522],[-75.582185,6.192796],[-75.582136,6.192954],[-75.582082,6.193103],[-75.581824,6.193827],[-75.581401,6.195012],[-75.580889,6.196433],[-75.580515,6.197473],[-75.580301,6.198123],[-75.580134,6.198683],[-75.579995,6.199192],[-75.579918,6.199526],[-75.579869,6.19977],[-75.579827,6.199984],[-75.579791,6.200217],[-75.579647,6.201189],[-75.579515,6.202151],[-75.579358,6.203125],[-75.578528,6.208954],[-75.57825,6.210967],[-75.578112,6.211952],[-75.577901,6.213453],[-75.577663,6.215053],[-75.577253,6.217972],[-75.576947,6.220155],[-75.576424,6.223959],[-75.575727,6.229237],[-75.575615,6.230022],[-75.575485,6.230931],[-75.57541,6.231455]]}},{"type":"Feature","properties":{"name":"Línea A"},"geometry":{"type":"LineString","coordinates":[[-75.575446,6.231464],[-75.57552,6.230936],[-75.575652,6.230023],[-75.575764,6.229246],[-75.576476,6.223963],[-75.577001,6.22016],[-75.577307,6.217972],[-75.577721,6.215045],[-75.577947,6.213452],[-75.578151,6.21196],[-75.578286,6.21097],[-75.578588,6.208962],[-75.579416,6.203128],[-75.579565,6.202126],[-75.579839,6.200222],[-75.579876,6.199999],[-75.579925,6.199735],[-75.579975,6.199494],[-75.580049,6.199179],[-75.580175,6.1987],[-75.580357,6.198124],[-75.580575,6.197455],[-75.58093,6.196455],[-75.581437,6.195021],[-75.581861,6.193838],[-75.582121,6.193113],[-75.582167,6.192984],[-75.582213,6.192849],[-75.58226,6.192677],[-75.582296,6.192526],[-75.582326,6.192404],[-75.5827,6.190705],[-75.582909,6.189803],[-75.582962,6.189603],[-75.583048,6.189313],[-75.583097,6.189164],[-75.58314,6.189049],[-75.583179,6.188956],[-75.583243,6.188809],[-75.583302,6.188702],[-75.583363,6.188586],[-75.583514,6.188334],[-75.583602,6.188211],[-75.5837,6.188089],[-75.583875,6.187888],[-75.584042,6.187726],[-75.584291,6.187505],[-75.584544,6.187295],[-75.585282,6.186755],[-75.58621,6.186069],[-75.586763,6.18566],[-75.58736,6.185246]]}}]}