{"type":"FeatureCollection","features":[{"type":"Feature","properties":{"name":"Línea A"},"geometry":{"type":"Polygon","coordinates":[[[-75.586772,6.185643],[-75.585267,6.186728],[-75.584511,6.187284],[-75.584282,6.187471],[-75.584074,6.187662],[-75.58387,6.187866],[-75.583743,6.187998],[-75.583622,6.188147],[-75.583496,6.188323],[-75.583413,6.188449],[-75.583324,6.188596],[-75.583242,6.188753],[-75.58317,6.188923],[-75.583053,6.189236],[-75.582966,6.18953],[-75.582895,6.189793],[-75.582321,6.192387],[-75.582213,6.192805],[-75.582163,6.192964],[-75.581428,6.195022],[-75.580542,6.197482],[-75.580329,6.198132],[-75.580162,6.198691],[-75.580023,6.199199],[-75.579946,6.199532],[-75.579855,6.199989],[-75.579676,6.201193],[-75.579544,6.202156],[-75.579387,6.203129],[-75.578557,6.208958],[-75.57793,6.213457],[-75.577692,6.215057],[-75.576976,6.220159],[-75.576453,6.223963],[-75.575756,6.229241],[-75.575439,6.231459],[-75.575381,6.231451],[-75.575698,6.229233],[-75.576395,6.223955],[-75.576918,6.220151],[-75.577634,6.215049],[-75.577872,6.213449],[-75.578499,6.20895],[-75.579329,6.203121],[-75.579486,6.202147],[-75.579618,6.201185],[-75.579762,6.200213],[-75.579798,6.19998],[-75.579841,6.199764],[-75.57989,6.199519],[-75.579967,6.199185],[-75.580106,6.198675],[-75.580273,6.198115],[-75.580488,6.197464],[-75.581374,6.195002],[-75.582109,6.192945],[-75.582157,6.192788],[-75.582265,6.192374],[-75.582839,6.189778],[-75.58291,6.189514],[-75.582999,6.189217],[-75.583116,6.188902],[-75.58319,6.188728],[-75.583273,6.188569],[-75.583364,6.188419],[-75.583448,6.18829],[-75.583577,6.188111],[-75.583699,6.187961],[-75.583828,6.187826],[-75.584034,6.187621],[-75.584245,6.187427],[-75.584476,6.187238],[-75.585233,6.186682],[-75.586738,6.185596],[-75.587324,6.185187],[-75.587358,6.185235],[-75.586772,6.185643]]]}},{"type":"Feature","properties":{"name":"Línea A"},"geometry":{"type":"Polygon","coordinates":[[[-75.575417,6.23146],[-75.575735,6.229242],[-75.576447,6.223959],[-75.576972,6.220156],[-75.577918,6.213448],[-75.578257,6.210966],[-75.578559,6.208958],[-75.579387,6.203124],[-75.579536,6.202122],[-75.57981,6.200218],[-75.579897,6.199729],[-75.579947,6.199487],[-75.580021,6.199172],[-75.580147,6.198691],[-75.58033,6.198115],[-75.580548,6.197445],[-75.58141,6.195011],[-75.582185,6.192841],[-75.582232,6.19267],[-75.582298,6.192397],[-75.582672,6.190699],[-75.582881,6.189796],[-75.582934,6.189595],[-75.58302,6.189305],[-75.58307,6.189155],[-75.583113,6.189038],[-75.583218,6.188795],[-75.583338,6.188571],[-75.583489,6.188319],[-75.583578,6.188194],[-75.583677,6.188071],[-75.583855,6.187867],[-75.584023,6.187704],[-75.584272,6.187483],[-75.584527,6.187272],[-75.585265,6.186732],[-75.586746,6.185637],[-75.587344,6.185222],[-75.587376,6.18527],[-75.58678,6.185684],[-75.585299,6.186778],[-75.584562,6.187318],[-75.58431,6.187527],[-75.584062,6.187747],[-75.583896,6.187908],[-75.583722,6.188108],[-75.583625,6.188229],[-75.583538,6.18835],[-75.583388,6.1886],[-75.583269,6.188822],[-75.583167,6.18906],[-75.583124,6.189174],[-75.583076,6.189322],[-75.58299,6.189611],[-75.582937,6.18981],[-75.582728,6.190711],[-75.582354,6.19241],[-75.582288,6.192684],[-75.58224,6.192858],[-75.581464,6.195031],[-75.580602,6.197464],[-75.580385,6.198133],[-75.580203,6.198708],[-75.580077,6.199186],[-75.580003,6.1995],[-75.579953,6.199741],[-75.579868,6.200226],[-75.579594,6.20213],[-75.579445,6.203132],[-75.578617,6.208966],[-75.578315,6.210974],[-75.577976,6.213456],[-75.57703,6.220164],[-75.576505,6.223967],[-75.575793,6.22925],[-75.575475,6.231468],[-75.575417,6.23146]]]}}]}