{"type":"FeatureCollection","features":[{"type":"Feature","properties":{"name":"Estación Aguacatala"},"geometry":{"type":"Point","coordinates":[-75.5828783,6.1950017]}},{"type":"Feature","properties":{"name":"Paradero"},"geometry":{"type":"Point","coordinates":[-75.5731146,6.1999183]}},{"type":"Feature","properties":{"name":"Paradero"},"geometry":{"type":"Point","coordinates":[-75.5763878,6.1945831]}},{"type":"Feature","properties":{"name":"Paradero"},"geometry":{"type":"Point","coordinates":[-75.5711329,6.2100163]}},{"type":"Feature","properties":{"name":"Cra 50FF con Cll 10 Sur"},"geometry":{"type":"Point","coordinates":[-75.5850054,6.1980643]}},{"type":"Feature","properties":{"name":"Cll 12 Sur #50C-22"},"geometry":{"type":"Point","coordinates":[-75.5840815,6.1961895]}},{"type":"Feature","properties":{"name":"Cll 15 Sur con Cra 48"},"geometry":{"type":"Point","coordinates":[-75.5801547,6.1926619]}},{"type":"Feature","properties":{"name":"Cra 55 con Cll 6 Sur"},"geometry":{"type":"Point","coordinates":[-75.5886827,6.2055852]}},{"type":"Feature","properties":{"name":"Cra 51 con Cll 6 Sur"},"geometry":{"type":"Point","coordinates":[-75.5850108,6.2032267]}},{"type":"Feature","properties":{"name":"Cra 50FF con Cll 7 Sur"},"geometry":{"type":"Point","coordinates":[-75.5840546,6.2018028]}},{"type":"Feature","properties":{"name":"Paradero"},"geometry":{"type":"Point","coordinates":[-75.5853109,6.2031683]}},{"type":"Feature","properties":{"name":"Autobús a Caldas"},"geometry":{"type":"Point","coordinates":[-75.5786075,6.2127598]}},{"type":"Feature","properties":{"name":"Paradero"},"geometry":{"type":"Point","coordinates":[-75.5777588,6.2124132]}},{"type":"Feature","properties":{"name":"Paradero"},"geometry":{"type":"Point","coordinates":[-75.5722826,6.2112003]}},{"type":"Feature","properties":{"name":"Paradero"},"geometry":{"type":"Point","coordinates":[-75.5774413,6.1998903]}},{"type":"Feature","properties":{"name":"Paradero"},"geometry":{"type":"Point","coordinates":[-75.5776313,6.2003067]}},{"type":"Feature","properties":{"name":"Paradero"},"geometry":{"type":"Point","coordinates":[-75.5776192,6.2004233]}}]}