{"type":"FeatureCollection","features":[{"type":"Feature","properties":{"name":"Parque de Cristo Rey","cat":"recreacion","tipo":"park","c":0},"geometry":{"type":"Point","coordinates":[-75.586379,6.207281]}},{"type":"Feature","properties":{"name":"Triada","cat":"gastronomia","tipo":"bar","c":0},"geometry":{"type":"Point","coordinates":[-75.567997,6.207561]}},{"type":"Feature","properties":{"name":"Discoteca Oz","cat":"gastronomia","tipo":"bar","c":0},"geometry":{"type":"Point","coordinates":[-75.56798,6.207613]}},{"type":"Feature","properties":{"name":"Barcelona Restaurante Bar","cat":"gastronomia","tipo":"bar","c":0},"geometry":{"type":"Point","coordinates":[-75.567783,6.208483]}},{"type":"Feature","properties":{"name":"Tropical Cocktails","cat":"gastronomia","tipo":"bar","c":0},"geometry":{"type":"Point","coordinates":[-75.568757,6.209164]}},{"type":"Feature","properties":{"name":"CineColombia Oviedo","cat":"cultura","tipo":"cinema","c":0},"geometry":{"type":"Point","coordinates":[-75.575692,6.199855]}},{"type":"Feature","properties":{"name":"McDonald's","cat":"gastronomia","tipo":"fast_food","c":0},"geometry":{"type":"Point","coordinates":[-75.573911,6.199532]}},{"type":"Feature","properties":{"name":"ArtHotel","cat":"hospedaje","tipo":"hotel","c":0},"geometry":{"type":"Point","coordinates":[-75.56906,6.209435]}},{"type":"Feature","properties":{"name":"Farmacia Pasteur","cat":"salud","tipo":"pharmacy","c":0},"geometry":{"type":"Point","coordinates":[-75.573025,6.200734]}},{"type":"Feature","properties":{"name":"Muebles Juventud","cat":"comercio","tipo":"furniture","c":0},"geometry":{"type":"Point","coordinates":[-75.576541,6.194718]}},{"type":"Feature","properties":{"name":"Unidad Renal","cat":"salud","tipo":"hospital","c":0},"geometry":{"type":"Point","coordinates":[-75.57811,6.194832]}},{"type":"Feature","properties":{"name":"Sunshine","cat":"hospedaje","tipo":"hostel","c":0},"geometry":{"type":"Point","coordinates":[-75.572516,6.210631]}},{"type":"Feature","properties":{"name":"Le Bon","cat":"gastronomia","tipo":"cafe","c":0},"geometry":{"type":"Point","coordinates":[-75.56808,6.208687]}},{"type":"Feature","properties":{"name":"Il Forno","cat":"gastronomia","tipo":"restaurant","c":0},"geometry":{"type":"Point","coordinates":[-75.567744,6.20728]}},{"type":"Feature","properties":{"name":"Muebles usados Ropa de Marco","cat":"comercio","tipo":"furniture","c":0},"geometry":{"type":"Point","coordinates":[-75.567846,6.207232]}},{"type":"Feature","properties":{"name":"Pop","cat":"gastronomia","tipo":"fast_food","c":0},"geometry":{"type":"Point","coordinates":[-75.567656,6.2071]}},{"type":"Feature","properties":{"name":"Paella & Parrilla","cat":"gastronomia","tipo":"restaurant","c":0},"geometry":{"type":"Point","coordinates":[-75.572608,6.210283]}},{"type":"Feature","properties":{"name":"Calle 10","cat":"hospedaje","tipo":"hostel","c":0},"geometry":{"type":"Point","coordinates":[-75.572874,6.211403]}},{"type":"Feature","properties":{"name":"Herbario","cat":"gastronomia","tipo":"restaurant","c":0},"geometry":{"type":"Point","coordinates":[-75.572171,6.211749]}},{"type":"Feature","properties":{"name":"Bancolombia","cat":"finanzas","tipo":"bank","c":0},"geometry":{"type":"Point","coordinates":[-75.572455,6.201868]}},{"type":"Feature","properties":{"name":"Hotel Leblón","cat":"hospedaje","tipo":"hotel","c":0},"geometry":{"type":"Point","coordinates":[-75.571404,6.201937]}},{"type":"Feature","properties":{"name":"Hotel San Fernando Plaza","cat":"hospedaje","tipo":"hotel","c":0},"geometry":{"type":"Point","coordinates":[-75.570902,6.20403]}},{"type":"Feature","properties":{"name":"Holiday Inn","cat":"hospedaje","tipo":"hotel","c":0},"geometry":{"type":"Point","coordinates":[-75.571678,6.201766]}},{"type":"Feature","properties":{"name":"Hard Rock Cafe","cat":"gastronomia","tipo":"restaurant","c":0},"geometry":{"type":"Point","coordinates":[-75.572352,6.199571]}},{"type":"Feature","properties":{"name":"Helm Bank","cat":"finanzas","tipo":"bank","c":0},"geometry":{"type":"Point","coordinates":[-75.571775,6.206524]}},{"type":"Feature","properties":{"name":"Davivienda","cat":"finanzas","tipo":"bank","c":0},"geometry":{"type":"Point","coordinates":[-75.573953,6.197027]}},{"type":"Feature","properties":{"name":"Isabella's Place","cat":"gastronomia","tipo":"restaurant","c":0},"geometry":{"type":"Point","coordinates":[-75.573267,6.197747]}},{"type":"Feature","properties":{"name":"Falabella","cat":"comercio","tipo":"department_store","c":0},"geometry":{"type":"Point","coordinates":[-75.574136,6.197107]}},{"type":"Feature","properties":{"name":"Bancolombia","cat":"finanzas","tipo":"bank","c":0},"geometry":{"type":"Point","coordinates":[-75.574248,6.196563]}},{"type":"Feature","properties":{"name":"AP'Titos","cat":"gastronomia","tipo":"restaurant","c":0},"geometry":{"type":"Point","coordinates":[-75.573567,6.197528]}},{"type":"Feature","properties":{"name":"El Corral","cat":"gastronomia","tipo":"fast_food","c":0},"geometry":{"type":"Point","coordinates":[-75.574487,6.198968]}},{"type":"Feature","properties":{"name":"Bancolombia","cat":"finanzas","tipo":"bank","c":0},"geometry":{"type":"Point","coordinates":[-75.574839,6.199091]}},{"type":"Feature","properties":{"name":"Jumbo","cat":"comercio","tipo":"supermarket","c":0},"geometry":{"type":"Point","coordinates":[-75.57391,6.195736]}},{"type":"Feature","properties":{"name":"Banco Pichincha","cat":"finanzas","tipo":"bank","c":0},"geometry":{"type":"Point","coordinates":[-75.577153,6.190212]}},{"type":"Feature","properties":{"name":"Rosa Mística","cat":"cultura","tipo":"place_of_worship","c":0},"geometry":{"type":"Point","coordinates":[-75.576248,6.193649]}},{"type":"Feature","properties":{"name":"Pepe Ganga","cat":"comercio","tipo":"toys","c":0},"geometry":{"type":"Point","coordinates":[-75.574253,6.196165]}},{"type":"Feature","properties":{"name":"DaVivienda","cat":"finanzas","tipo":"atm","c":0},"geometry":{"type":"Point","coordinates":[-75.570716,6.209389]}},{"type":"Feature","properties":{"name":"Jeno's Pizza","cat":"gastronomia","tipo":"fast_food","c":0},"geometry":{"type":"Point","coordinates":[-75.577118,6.190507]}},{"type":"Feature","properties":{"name":"Café Zorba","cat":"gastronomia","tipo":"restaurant","c":0},"geometry":{"type":"Point","coordinates":[-75.570464,6.208655]}},{"type":"Feature","properties":{"name":"574 Hotel","cat":"hospedaje","tipo":"hostel","c":0},"geometry":{"type":"Point","coordinates":[-75.57494,6.208512]}},{"type":"Feature","properties":{"name":"Cafe Le Gris","cat":"gastronomia","tipo":"restaurant","c":0},"geometry":{"type":"Point","coordinates":[-75.574898,6.19898]}},{"type":"Feature","properties":{"name":"Pitstop Guest House","cat":"hospedaje","tipo":"hostel","c":0},"geometry":{"type":"Point","coordinates":[-75.573717,6.207546]}},{"type":"Feature","properties":{"name":"Burger King","cat":"gastronomia","tipo":"fast_food","c":0},"geometry":{"type":"Point","coordinates":[-75.572,6.201828]}},{"type":"Feature","properties":{"name":"ÉXITO TECNO OVIEDO","cat":"comercio","tipo":"supermarket","c":0},"geometry":{"type":"Point","coordinates":[-75.575051,6.197843]}},{"type":"Feature","properties":{"name":"Floristería Racha","cat":"comercio","tipo":"florist","c":0},"geometry":{"type":"Point","coordinates":[-75.575036,6.210612]}},{"type":"Feature","properties":{"name":"Ingeneo S.A","cat":"oficinas","tipo":"software","c":0},"geometry":{"type":"Point","coordinates":[-75.579192,6.196765]}},{"type":"Feature","properties":{"name":"DOMINIMERCADOS","cat":"comercio","tipo":"convenience","c":0},"geometry":{"type":"Point","coordinates":[-75.580625,6.190631]}},{"type":"Feature","properties":{"name":"Rapidogs","cat":"gastronomia","tipo":"fast_food","c":0},"geometry":{"type":"Point","coordinates":[-75.576558,6.207664]}},{"type":"Feature","properties":{"name":"Café Con.verso","cat":"gastronomia","tipo":"cafe","c":1},"geometry":{"type":"Point","coordinates":[-75.578183,6.20153]}},{"type":"Feature","properties":{"name":"Subway","cat":"gastronomia","tipo":"fast_food","c":1},"geometry":{"type":"Point","coordinates":[-75.578965,6.19786]}},{"type":"Feature","properties":{"name":"Parroquia San Gabriel de la Dolorosa","cat":"cultura","tipo":"place_of_worship","c":0},"geometry":{"type":"Point","coordinates":[-75.589817,6.200549]}},{"type":"Feature","properties":{"name":"CAI Guayabal","cat":"servicios","tipo":"police","c":0},"geometry":{"type":"Point","coordinates":[-75.587305,6.203548]}},{"type":"Feature","properties":{"name":"The Black Sheep Hostel","cat":"hospedaje","tipo":"hostel","c":0},"geometry":{"type":"Point","coordinates":[-75.575614,6.207546]}},{"type":"Feature","properties":{"name":"Loyds","cat":"hospedaje","tipo":"hotel","c":0},"geometry":{"type":"Point","coordinates":[-75.572575,6.208875]}},{"type":"Feature","properties":{"name":"Delima Marsh","cat":"oficinas","tipo":"insurance","c":0},"geometry":{"type":"Point","coordinates":[-75.581321,6.188957]}},{"type":"Feature","properties":{"name":"Cosechas","cat":"gastronomia","tipo":"fast_food","c":0},"geometry":{"type":"Point","coordinates":[-75.573061,6.200672]}},{"type":"Feature","properties":{"name":"Juan Valdez Café","cat":"gastronomia","tipo":"cafe","c":0},"geometry":{"type":"Point","coordinates":[-75.572702,6.201225]}},{"type":"Feature","properties":{"name":"Bancolombia Noel ATM","cat":"finanzas","tipo":"bank","c":0},"geometry":{"type":"Point","coordinates":[-75.58481,6.208587]}},{"type":"Feature","properties":{"name":"Retro","cat":"comercio","tipo":"antiques","c":0},"geometry":{"type":"Point","coordinates":[-75.572712,6.210442]}},{"type":"Feature","properties":{"name":"Automall Santa María de Las Vegas","cat":"comercio","tipo":"mall","c":0},"geometry":{"type":"Point","coordinates":[-75.579491,6.192809]}},{"type":"Feature","properties":{"name":"BlackPine","cat":"hospedaje","tipo":"hostel","c":0},"geometry":{"type":"Point","coordinates":[-75.576174,6.207875]}},{"type":"Feature","properties":{"name":"Hooters","cat":"gastronomia","tipo":"restaurant","c":0},"geometry":{"type":"Point","coordinates":[-75.567595,6.207573]}},{"type":"Feature","properties":{"name":"BonCamarón","cat":"gastronomia","tipo":"restaurant","c":0},"geometry":{"type":"Point","coordinates":[-75.570971,6.209686]}},{"type":"Feature","properties":{"name":"Bancolombia","cat":"finanzas","tipo":"bank","c":1},"geometry":{"type":"Point","coordinates":[-75.579069,6.198407]}},{"type":"Feature","properties":{"name":"Poblado Park Hostel","cat":"hospedaje","tipo":"hostel","c":0},"geometry":{"type":"Point","coordinates":[-75.571795,6.20935]}},{"type":"Feature","properties":{"name":"Mila Hostel","cat":"hospedaje","tipo":"hostel","c":0},"geometry":{"type":"Point","coordinates":[-75.571849,6.211589]}},{"type":"Feature","properties":{"name":"Waypoint Hostel","cat":"hospedaje","tipo":"hostel","c":0},"geometry":{"type":"Point","coordinates":[-75.579565,6.197101]}},{"type":"Feature","properties":{"name":"Al Alma","cat":"gastronomia","tipo":"cafe","c":0},"geometry":{"type":"Point","coordinates":[-75.574262,6.206936]}},{"type":"Feature","properties":{"name":"Patio Bonito","cat":"hospedaje","tipo":"hostel","c":0},"geometry":{"type":"Point","coordinates":[-75.575756,6.208414]}},{"type":"Feature","properties":{"name":"Chicken Chops","cat":"gastronomia","tipo":"restaurant","c":0},"geometry":{"type":"Point","coordinates":[-75.571893,6.201703]}},{"type":"Feature","properties":{"name":"Royal Thai","cat":"gastronomia","tipo":"restaurant","c":0},"geometry":{"type":"Point","coordinates":[-75.567596,6.207973]}},{"type":"Feature","properties":{"name":"La Latinería","cat":"gastronomia","tipo":"bar","c":0},"geometry":{"type":"Point","coordinates":[-75.571387,6.210018]}},{"type":"Feature","properties":{"name":"Pasteur","cat":"salud","tipo":"pharmacy","c":0},"geometry":{"type":"Point","coordinates":[-75.570946,6.209011]}},{"type":"Feature","properties":{"name":"Donde Chepe","cat":"gastronomia","tipo":"bar","c":0},"geometry":{"type":"Point","coordinates":[-75.570415,6.210213]}},{"type":"Feature","properties":{"name":"Droguería El Poblado","cat":"salud","tipo":"pharmacy","c":0},"geometry":{"type":"Point","coordinates":[-75.570555,6.209899]}},{"type":"Feature","properties":{"name":"D1 Guayabal","cat":"comercio","tipo":"supermarket","c":0},"geometry":{"type":"Point","coordinates":[-75.588917,6.200966]}},{"type":"Feature","properties":{"name":"Hostal Lleras Calle 8","cat":"hospedaje","tipo":"hostel","c":0},"geometry":{"type":"Point","coordinates":[-75.5683,6.207664]}},{"type":"Feature","properties":{"name":"Hostal Lleras Calle 8 no2","cat":"hospedaje","tipo":"hostel","c":0},"geometry":{"type":"Point","coordinates":[-75.568201,6.207579]}},{"type":"Feature","properties":{"name":"Chelita Chingona","cat":"gastronomia","tipo":"restaurant","c":0},"geometry":{"type":"Point","coordinates":[-75.568391,6.207779]}},{"type":"Feature","properties":{"name":"Contraporton","cat":"gastronomia","tipo":"bar","c":0},"geometry":{"type":"Point","coordinates":[-75.568482,6.207843]}},{"type":"Feature","properties":{"name":"Oye Bonita","cat":"gastronomia","tipo":"bar","c":0},"geometry":{"type":"Point","coordinates":[-75.568434,6.207934]}},{"type":"Feature","properties":{"name":"Tropical BBQ","cat":"gastronomia","tipo":"restaurant","c":0},"geometry":{"type":"Point","coordinates":[-75.568343,6.207934]}},{"type":"Feature","properties":{"name":"Calle Ocho","cat":"gastronomia","tipo":"bar","c":0},"geometry":{"type":"Point","coordinates":[-75.568318,6.208011]}},{"type":"Feature","properties":{"name":"Lleras Park Hostel","cat":"hospedaje","tipo":"hostel","c":0},"geometry":{"type":"Point","coordinates":[-75.56812,6.208577]}},{"type":"Feature","properties":{"name":"Hotel Casa Lleras","cat":"hospedaje","tipo":"hotel","c":0},"geometry":{"type":"Point","coordinates":[-75.568238,6.208489]}},{"type":"Feature","properties":{"name":"Hotel la Habana Vieja","cat":"hospedaje","tipo":"hotel","c":0},"geometry":{"type":"Point","coordinates":[-75.576198,6.195169]}},{"type":"Feature","properties":{"name":"Starbucks","cat":"gastronomia","tipo":"cafe","c":0},"geometry":{"type":"Point","coordinates":[-75.572732,6.199906]}},{"type":"Feature","properties":{"name":"Hostel Casa Blanca","cat":"hospedaje","tipo":"hostel","c":0},"geometry":{"type":"Point","coordinates":[-75.575834,6.208651]}},{"type":"Feature","properties":{"name":"Casa de la Cultura Poblado","cat":"cultura","tipo":"arts_centre","c":0},"geometry":{"type":"Point","coordinates":[-75.578669,6.190703]}},{"type":"Feature","properties":{"name":"Escuela Red de Música","cat":"cultura","tipo":"arts_centre","c":0},"geometry":{"type":"Point","coordinates":[-75.578607,6.190681]}},{"type":"Feature","properties":{"name":"Edificio DHL DANZAS","cat":"finanzas","tipo":"bank","c":0},"geometry":{"type":"Point","coordinates":[-75.577179,6.189618]}},{"type":"Feature","properties":{"name":"La 39 del Lleras","cat":"gastronomia","tipo":"bar","c":0},"geometry":{"type":"Point","coordinates":[-75.568222,6.208231]}},{"type":"Feature","properties":{"name":"Pasteur","cat":"salud","tipo":"pharmacy","c":0},"geometry":{"type":"Point","coordinates":[-75.576087,6.212652]}},{"type":"Feature","properties":{"name":"Alameda de la 10","cat":"hospedaje","tipo":"hotel","c":0},"geometry":{"type":"Point","coordinates":[-75.574553,6.212575]}},{"type":"Feature","properties":{"name":"La Quintana","cat":"gastronomia","tipo":"restaurant","c":0},"geometry":{"type":"Point","coordinates":[-75.570748,6.208469]}},{"type":"Feature","properties":{"name":"Pasteur","cat":"salud","tipo":"pharmacy","c":0},"geometry":{"type":"Point","coordinates":[-75.572213,6.199821]}},{"type":"Feature","properties":{"name":"La Provincia","cat":"gastronomia","tipo":"restaurant","c":0},"geometry":{"type":"Point","coordinates":[-75.572031,6.200355]}},{"type":"Feature","properties":{"name":"Subway","cat":"gastronomia","tipo":"fast_food","c":0},"geometry":{"type":"Point","coordinates":[-75.57239,6.199912]}},{"type":"Feature","properties":{"name":"Percimon","cat":"gastronomia","tipo":"fast_food","c":0},"geometry":{"type":"Point","coordinates":[-75.572604,6.199698]}},{"type":"Feature","properties":{"name":"Sport Wings","cat":"gastronomia","tipo":"restaurant","c":0},"geometry":{"type":"Point","coordinates":[-75.572352,6.200291]}},{"type":"Feature","properties":{"name":"Carulla","cat":"comercio","tipo":"supermarket","c":0},"geometry":{"type":"Point","coordinates":[-75.575893,6.200083]}},{"type":"Feature","properties":{"name":"Candelaria Bar","cat":"gastronomia","tipo":"bar","c":0},"geometry":{"type":"Point","coordinates":[-75.572991,6.198701]}},{"type":"Feature","properties":{"name":"Cheo Parrilla","cat":"gastronomia","tipo":"restaurant","c":0},"geometry":{"type":"Point","coordinates":[-75.572939,6.198555]}},{"type":"Feature","properties":{"name":"Centro Comercial Rio Sur","cat":"comercio","tipo":"department_store","c":0},"geometry":{"type":"Point","coordinates":[-75.573195,6.198739]}},{"type":"Feature","properties":{"name":"J y C Delicias","cat":"gastronomia","tipo":"restaurant","c":0},"geometry":{"type":"Point","coordinates":[-75.573318,6.198904]}},{"type":"Feature","properties":{"name":"Monsieur Burger","cat":"gastronomia","tipo":"restaurant","c":0},"geometry":{"type":"Point","coordinates":[-75.571757,6.209336]}},{"type":"Feature","properties":{"name":"Banco de Occidente","cat":"finanzas","tipo":"bank","c":0},"geometry":{"type":"Point","coordinates":[-75.574077,6.199185]}},{"type":"Feature","properties":{"name":"El roble motor","cat":"comercio","tipo":"car","c":0},"geometry":{"type":"Point","coordinates":[-75.579897,6.191136]}},{"type":"Feature","properties":{"name":"Perú Fuzion Parrilla Bar","cat":"gastronomia","tipo":"restaurant","c":0},"geometry":{"type":"Point","coordinates":[-75.582186,6.205244]}},{"type":"Feature","properties":{"name":"Carulla","cat":"comercio","tipo":"supermarket","c":0},"geometry":{"type":"Point","coordinates":[-75.565855,6.198617]}},{"type":"Feature","properties":{"name":"Puente Piedra","cat":"hospedaje","tipo":"guest_house","c":0},"geometry":{"type":"Point","coordinates":[-75.568318,6.204099]}},{"type":"Feature","properties":{"name":"Conjunto Residencial santillana","cat":"hospedaje","tipo":"guest_house","c":0},"geometry":{"type":"Point","coordinates":[-75.573551,6.201975]}},{"type":"Feature","properties":{"name":"Hostel Montañita","cat":"hospedaje","tipo":"hostel","c":0},"geometry":{"type":"Point","coordinates":[-75.571799,6.211173]}},{"type":"Feature","properties":{"name":"D1","cat":"comercio","tipo":"department_store","c":0},"geometry":{"type":"Point","coordinates":[-75.576372,6.210062]}},{"type":"Feature","properties":{"name":"La Lupa Arte Digital","cat":"comercio","tipo":"photo","c":0},"geometry":{"type":"Point","coordinates":[-75.576284,6.20982]}},{"type":"Feature","properties":{"name":"Creador - Café","cat":"gastronomia","tipo":"cafe","c":0},"geometry":{"type":"Point","coordinates":[-75.567641,6.207638]}},{"type":"Feature","properties":{"name":"montañita","cat":"hospedaje","tipo":"hotel","c":0},"geometry":{"type":"Point","coordinates":[-75.572126,6.211153]}},{"type":"Feature","properties":{"name":"Santa Lucía","cat":"comercio","tipo":"optician","c":0},"geometry":{"type":"Point","coordinates":[-75.576017,6.20894]}},{"type":"Feature","properties":{"name":"SkyBar Medellín","cat":"gastronomia","tipo":"bar","c":0},"geometry":{"type":"Point","coordinates":[-75.567886,6.208215]}},{"type":"Feature","properties":{"name":"German Street Food","cat":"gastronomia","tipo":"cafe","c":0},"geometry":{"type":"Point","coordinates":[-75.571443,6.210256]}},{"type":"Feature","properties":{"name":"Tortas y tortas fábrica 🏭","cat":"comercio","tipo":"bakery","c":0},"geometry":{"type":"Point","coordinates":[-75.589066,6.198948]}},{"type":"Feature","properties":{"name":"Atom House Coworking","cat":"oficinas","tipo":"coworking_space","c":0},"geometry":{"type":"Point","coordinates":[-75.571655,6.209255]}},{"type":"Feature","properties":{"name":"Habana","cat":"gastronomia","tipo":"fast_food","c":0},"geometry":{"type":"Point","coordinates":[-75.569956,6.210439]}},{"type":"Feature","properties":{"name":"El Taxista","cat":"gastronomia","tipo":"restaurant","c":0},"geometry":{"type":"Point","coordinates":[-75.571024,6.211063]}},{"type":"Feature","properties":{"name":"Ciao Pizza & Mexico Comida","cat":"gastronomia","tipo":"restaurant","c":0},"geometry":{"type":"Point","coordinates":[-75.570992,6.211448]}},{"type":"Feature","properties":{"name":"La Casa de Beto","cat":"gastronomia","tipo":"restaurant","c":0},"geometry":{"type":"Point","coordinates":[-75.569722,6.210116]}},{"type":"Feature","properties":{"name":"Jugosos Mix","cat":"gastronomia","tipo":"cafe","c":0},"geometry":{"type":"Point","coordinates":[-75.571059,6.211231]}},{"type":"Feature","properties":{"name":"El Machetico","cat":"gastronomia","tipo":"fast_food","c":0},"geometry":{"type":"Point","coordinates":[-75.571713,6.210996]}},{"type":"Feature","properties":{"name":"Rango Boutique Hostel","cat":"hospedaje","tipo":"hostel","c":0},"geometry":{"type":"Point","coordinates":[-75.57033,6.208629]}},{"type":"Feature","properties":{"name":"Bereket","cat":"comercio","tipo":"clothes","c":0},"geometry":{"type":"Point","coordinates":[-75.570405,6.209759]}},{"type":"Feature","properties":{"name":"El Taconazo","cat":"gastronomia","tipo":"fast_food","c":0},"geometry":{"type":"Point","coordinates":[-75.570243,6.209696]}},{"type":"Feature","properties":{"name":"Texas's beef","cat":"gastronomia","tipo":"fast_food","c":0},"geometry":{"type":"Point","coordinates":[-75.574716,6.212]}},{"type":"Feature","properties":{"name":"Frisby","cat":"gastronomia","tipo":"fast_food","c":0},"geometry":{"type":"Point","coordinates":[-75.57487,6.212149]}},{"type":"Feature","properties":{"name":"Dunkin'","cat":"gastronomia","tipo":"fast_food","c":0},"geometry":{"type":"Point","coordinates":[-75.570648,6.210817]}},{"type":"Feature","properties":{"name":"Drogas La Economia","cat":"salud","tipo":"pharmacy","c":0},"geometry":{"type":"Point","coordinates":[-75.570825,6.210818]}},{"type":"Feature","properties":{"name":"Toucan Spanish School","cat":"educacion","tipo":"language_school","c":0},"geometry":{"type":"Point","coordinates":[-75.572176,6.210177]}},{"type":"Feature","properties":{"name":"Chipas","cat":"gastronomia","tipo":"fast_food","c":0},"geometry":{"type":"Point","coordinates":[-75.572447,6.211248]}},{"type":"Feature","properties":{"name":"Smart fit","cat":"recreacion","tipo":"fitness_centre","c":0},"geometry":{"type":"Point","coordinates":[-75.574807,6.212798]}},{"type":"Feature","properties":{"name":"El Taconazo","cat":"gastronomia","tipo":"fast_food","c":0},"geometry":{"type":"Point","coordinates":[-75.574636,6.212182]}},{"type":"Feature","properties":{"name":"Presto","cat":"gastronomia","tipo":"fast_food","c":0},"geometry":{"type":"Point","coordinates":[-75.574778,6.212177]}},{"type":"Feature","properties":{"name":"Empanada Express","cat":"gastronomia","tipo":"fast_food","c":0},"geometry":{"type":"Point","coordinates":[-75.570886,6.21084]}},{"type":"Feature","properties":{"name":"Alambique","cat":"gastronomia","tipo":"restaurant","c":0},"geometry":{"type":"Point","coordinates":[-75.570926,6.210867]}},{"type":"Feature","properties":{"name":"Urbania Café","cat":"gastronomia","tipo":"cafe","c":0},"geometry":{"type":"Point","coordinates":[-75.572825,6.209778]}},{"type":"Feature","properties":{"name":"EXITO","cat":"comercio","tipo":"convenience","c":0},"geometry":{"type":"Point","coordinates":[-75.570779,6.20914]}},{"type":"Feature","properties":{"name":"Restaurante La Matriarca, Medellín","cat":"gastronomia","tipo":"restaurant","c":0},"geometry":{"type":"Point","coordinates":[-75.572376,6.209676]}},{"type":"Feature","properties":{"name":"La Octava","cat":"gastronomia","tipo":"bar","c":0},"geometry":{"type":"Point","coordinates":[-75.568038,6.207441]}},{"type":"Feature","properties":{"name":"Munchies","cat":"gastronomia","tipo":"fast_food","c":0},"geometry":{"type":"Point","coordinates":[-75.569651,6.209445]}},{"type":"Feature","properties":{"name":"Notaría 11","cat":"oficinas","tipo":"notary","c":0},"geometry":{"type":"Point","coordinates":[-75.572343,6.204201]}},{"type":"Feature","properties":{"name":"Victoria Regía","cat":"gastronomia","tipo":"restaurant","c":0},"geometry":{"type":"Point","coordinates":[-75.570778,6.210747]}},{"type":"Feature","properties":{"name":"Starbucks","cat":"gastronomia","tipo":"cafe","c":0},"geometry":{"type":"Point","coordinates":[-75.575065,6.199205]}},{"type":"Feature","properties":{"name":"Starbucks","cat":"gastronomia","tipo":"cafe","c":0},"geometry":{"type":"Point","coordinates":[-75.57181,6.207291]}},{"type":"Feature","properties":{"name":"Exponencial Confirming S.A.S.","cat":"oficinas","tipo":"company","c":0},"geometry":{"type":"Point","coordinates":[-75.572265,6.19965]}},{"type":"Feature","properties":{"name":"Pizzeria Donato","cat":"gastronomia","tipo":"restaurant","c":0},"geometry":{"type":"Point","coordinates":[-75.570534,6.208696]}},{"type":"Feature","properties":{"name":"Ophtha","cat":"oficinas","tipo":"company","c":0},"geometry":{"type":"Point","coordinates":[-75.569348,6.200032]}},{"type":"Feature","properties":{"name":"Swiss Bakery","cat":"comercio","tipo":"confectionery","c":0},"geometry":{"type":"Point","coordinates":[-75.568095,6.208658]}},{"type":"Feature","properties":{"name":"Pixelhouse Hostel","cat":"hospedaje","tipo":"hostel","c":0},"geometry":{"type":"Point","coordinates":[-75.579931,6.196486]}},{"type":"Feature","properties":{"name":"urb. edificios del futuro","cat":"hospedaje","tipo":"guest_house","c":0},"geometry":{"type":"Point","coordinates":[-75.575407,6.205648]}},{"type":"Feature","properties":{"name":"Tostao’","cat":"gastronomia","tipo":"cafe","c":0},"geometry":{"type":"Point","coordinates":[-75.5761,6.212613]}},{"type":"Feature","properties":{"name":"Barna","cat":"gastronomia","tipo":"restaurant","c":0},"geometry":{"type":"Point","coordinates":[-75.57379,6.212639]}},{"type":"Feature","properties":{"name":"Rumah Soul Up","cat":"gastronomia","tipo":"cafe","c":0},"geometry":{"type":"Point","coordinates":[-75.572757,6.209387]}},{"type":"Feature","properties":{"name":"Viva Spa Poblado","cat":"comercio","tipo":"massage","c":0},"geometry":{"type":"Point","coordinates":[-75.577503,6.19628]}},{"type":"Feature","properties":{"name":"Aqua Hostel","cat":"hospedaje","tipo":"hostel","c":0},"geometry":{"type":"Point","coordinates":[-75.572362,6.211386]}},{"type":"Feature","properties":{"name":"Banco de Occidente","cat":"finanzas","tipo":"bank","c":0},"geometry":{"type":"Point","coordinates":[-75.572374,6.200696]}},{"type":"Feature","properties":{"name":"Banco de Bogotá","cat":"finanzas","tipo":"bank","c":0},"geometry":{"type":"Point","coordinates":[-75.575093,6.196687]}},{"type":"Feature","properties":{"name":"Bancoomeva","cat":"finanzas","tipo":"bank","c":0},"geometry":{"type":"Point","coordinates":[-75.573935,6.19917]}},{"type":"Feature","properties":{"name":"Citibank","cat":"finanzas","tipo":"bank","c":0},"geometry":{"type":"Point","coordinates":[-75.572465,6.202533]}},{"type":"Feature","properties":{"name":"Bancolombia","cat":"finanzas","tipo":"bank","c":0},"geometry":{"type":"Point","coordinates":[-75.586418,6.205391]}},{"type":"Feature","properties":{"name":"Corficolombiana","cat":"finanzas","tipo":"bank","c":0},"geometry":{"type":"Point","coordinates":[-75.577466,6.190317]}},{"type":"Feature","properties":{"name":"La Relief Drogueria","cat":"salud","tipo":"pharmacy","c":0},"geometry":{"type":"Point","coordinates":[-75.590559,6.200214]}},{"type":"Feature","properties":{"name":"Drogería Farmasur Medellín","cat":"salud","tipo":"pharmacy","c":0},"geometry":{"type":"Point","coordinates":[-75.591153,6.19537]}},{"type":"Feature","properties":{"name":"Barna","cat":"gastronomia","tipo":"restaurant","c":0},"geometry":{"type":"Point","coordinates":[-75.573834,6.212671]}},{"type":"Feature","properties":{"name":"MundoFarma","cat":"salud","tipo":"pharmacy","c":0},"geometry":{"type":"Point","coordinates":[-75.573506,6.211893]}},{"type":"Feature","properties":{"name":"Clínica de Oncología Astorga","cat":"salud","tipo":"clinic","c":0},"geometry":{"type":"Point","coordinates":[-75.573194,6.209761]}},{"type":"Feature","properties":{"name":"Villa Jardín 3","cat":"hospedaje","tipo":"apartment","c":0},"geometry":{"type":"Point","coordinates":[-75.581859,6.189358]}},{"type":"Feature","properties":{"name":"Servientrega","cat":"servicios","tipo":"post_office","c":0},"geometry":{"type":"Point","coordinates":[-75.576344,6.209933]}},{"type":"Feature","properties":{"name":"Que Sazón la del Paisita","cat":"gastronomia","tipo":"restaurant","c":0},"geometry":{"type":"Point","coordinates":[-75.570182,6.20967]}},{"type":"Feature","properties":{"name":"La Parrillita","cat":"gastronomia","tipo":"restaurant","c":0},"geometry":{"type":"Point","coordinates":[-75.571555,6.209854]}},{"type":"Feature","properties":{"name":"Dirección de Impuestos y Aduanas Nacionales","cat":"oficinas","tipo":"government","c":0},"geometry":{"type":"Point","coordinates":[-75.576931,6.189232]}},{"type":"Feature","properties":{"name":"Opio Studio Tattoo","cat":"comercio","tipo":"tattoo","c":0},"geometry":{"type":"Point","coordinates":[-75.568231,6.208873]}},{"type":"Feature","properties":{"name":"Rapilimpio","cat":"comercio","tipo":"laundry","c":0},"geometry":{"type":"Point","coordinates":[-75.571652,6.211097]}},{"type":"Feature","properties":{"name":"Hostel Monet's poblado","cat":"hospedaje","tipo":"hotel","c":0},"geometry":{"type":"Point","coordinates":[-75.566291,6.197853]}},{"type":"Feature","properties":{"name":"BeColombia","cat":"comercio","tipo":"travel_agency","c":0},"geometry":{"type":"Point","coordinates":[-75.572913,6.211498]}},{"type":"Feature","properties":{"name":"Berlin 1930","cat":"gastronomia","tipo":"bar","c":0},"geometry":{"type":"Point","coordinates":[-75.569318,6.210132]}},{"type":"Feature","properties":{"name":"Fruver y carnicería","cat":"comercio","tipo":"greengrocer","c":0},"geometry":{"type":"Point","coordinates":[-75.582169,6.205024]}},{"type":"Feature","properties":{"name":"Supermercado MercaZ","cat":"comercio","tipo":"supermarket","c":0},"geometry":{"type":"Point","coordinates":[-75.585587,6.209151]}},{"type":"Feature","properties":{"name":"Supermercado Justo & Bueno","cat":"comercio","tipo":"supermarket","c":0},"geometry":{"type":"Point","coordinates":[-75.58232,6.205085]}},{"type":"Feature","properties":{"name":"Panadería y restaurante","cat":"comercio","tipo":"bakery","c":0},"geometry":{"type":"Point","coordinates":[-75.582752,6.205257]}},{"type":"Feature","properties":{"name":"Barberia y peluquería","cat":"comercio","tipo":"hairdresser","c":0},"geometry":{"type":"Point","coordinates":[-75.583427,6.205551]}},{"type":"Feature","properties":{"name":"Lenin House","cat":"hospedaje","tipo":"hostel","c":0},"geometry":{"type":"Point","coordinates":[-75.583613,6.205637]}},{"type":"Feature","properties":{"name":"Aguacatala Oficina","cat":"oficinas","tipo":"company","c":0},"geometry":{"type":"Point","coordinates":[-75.578307,6.195584]}},{"type":"Feature","properties":{"name":"Dharma Vegan resto $","cat":"gastronomia","tipo":"restaurant","c":0},"geometry":{"type":"Point","coordinates":[-75.571547,6.209891]}},{"type":"Feature","properties":{"name":"Zaaika indian restaurant $","cat":"gastronomia","tipo":"restaurant","c":0},"geometry":{"type":"Point","coordinates":[-75.570613,6.208776]}},{"type":"Feature","properties":{"name":"Brutal","cat":"gastronomia","tipo":"restaurant","c":0},"geometry":{"type":"Point","coordinates":[-75.572638,6.19887]}},{"type":"Feature","properties":{"name":"Palmahia","cat":"gastronomia","tipo":"nightclub","c":0},"geometry":{"type":"Point","coordinates":[-75.5835,6.191178]}},{"type":"Feature","properties":{"name":"Maru Rico!","cat":"gastronomia","tipo":"restaurant","c":0},"geometry":{"type":"Point","coordinates":[-75.585327,6.202905]}},{"type":"Feature","properties":{"name":"Athena Bitcoin ATM","cat":"finanzas","tipo":"atm","c":0},"geometry":{"type":"Point","coordinates":[-75.56559,6.19843]}},{"type":"Feature","properties":{"name":"Panela Hostel","cat":"hospedaje","tipo":"hostel","c":0},"geometry":{"type":"Point","coordinates":[-75.57159,6.209765]}},{"type":"Feature","properties":{"name":"Panela Hostel","cat":"hospedaje","tipo":"hostel","c":0},"geometry":{"type":"Point","coordinates":[-75.572032,6.210395]}},{"type":"Feature","properties":{"name":"Super Pizza","cat":"gastronomia","tipo":"restaurant","c":0},"geometry":{"type":"Point","coordinates":[-75.571957,6.211099]}},{"type":"Feature","properties":{"name":"El Arranque Café Bar","cat":"gastronomia","tipo":"bar","c":0},"geometry":{"type":"Point","coordinates":[-75.572439,6.21179]}},{"type":"Feature","properties":{"name":"McKinsey & Company","cat":"oficinas","tipo":"company","c":0},"geometry":{"type":"Point","coordinates":[-75.572641,6.201621]}},{"type":"Feature","properties":{"name":"Navissi","cat":"comercio","tipo":"clothes","c":0},"geometry":{"type":"Point","coordinates":[-75.568677,6.20906]}},{"type":"Feature","properties":{"name":"ACNUR","cat":"oficinas","tipo":"ngo","c":0},"geometry":{"type":"Point","coordinates":[-75.571087,6.206063]}},{"type":"Feature","properties":{"name":"Citibank","cat":"finanzas","tipo":"bank","c":0},"geometry":{"type":"Point","coordinates":[-75.571986,6.207083]}},{"type":"Feature","properties":{"name":"Home Burgers","cat":"gastronomia","tipo":"fast_food","c":0},"geometry":{"type":"Point","coordinates":[-75.571883,6.207072]}},{"type":"Feature","properties":{"name":"Acción Impro","cat":"cultura","tipo":"theatre","c":0},"geometry":{"type":"Point","coordinates":[-75.572164,6.210434]}},{"type":"Feature","properties":{"name":"Il carreto - trattoria pizzeria","cat":"gastronomia","tipo":"restaurant","c":0},"geometry":{"type":"Point","coordinates":[-75.57426,6.207079]}},{"type":"Feature","properties":{"name":"Chef Penagos","cat":"gastronomia","tipo":"fast_food","c":0},"geometry":{"type":"Point","coordinates":[-75.571339,6.210432]}},{"type":"Feature","properties":{"name":"El Graspo De Uva","cat":"gastronomia","tipo":"restaurant","c":0},"geometry":{"type":"Point","coordinates":[-75.571979,6.210255]}},{"type":"Feature","properties":{"name":"La Tienda Del Vino","cat":"gastronomia","tipo":"restaurant","c":0},"geometry":{"type":"Point","coordinates":[-75.572336,6.210392]}},{"type":"Feature","properties":{"name":"Piccolo","cat":"gastronomia","tipo":"restaurant","c":0},"geometry":{"type":"Point","coordinates":[-75.57181,6.210451]}},{"type":"Feature","properties":{"name":"Pastas Con Amor","cat":"gastronomia","tipo":"restaurant","c":0},"geometry":{"type":"Point","coordinates":[-75.571534,6.209963]}},{"type":"Feature","properties":{"name":"El Conejo Blanco","cat":"gastronomia","tipo":"restaurant","c":0},"geometry":{"type":"Point","coordinates":[-75.571029,6.211312]}},{"type":"Feature","properties":{"name":"El Pilon Guareno","cat":"gastronomia","tipo":"restaurant","c":0},"geometry":{"type":"Point","coordinates":[-75.571466,6.209816]}},{"type":"Feature","properties":{"name":"Panaderia Elkin","cat":"comercio","tipo":"bakery","c":0},"geometry":{"type":"Point","coordinates":[-75.571547,6.209916]}},{"type":"Feature","properties":{"name":"Chapati Halal","cat":"gastronomia","tipo":"fast_food","c":0},"geometry":{"type":"Point","coordinates":[-75.575959,6.212059]}},{"type":"Feature","properties":{"name":"Doggisitos","cat":"gastronomia","tipo":"fast_food","c":0},"geometry":{"type":"Point","coordinates":[-75.57602,6.21208]}},{"type":"Feature","properties":{"name":"Swiss Bakery","cat":"comercio","tipo":"bakery","c":0},"geometry":{"type":"Point","coordinates":[-75.575993,6.212173]}},{"type":"Feature","properties":{"name":"Arte Casero","cat":"gastronomia","tipo":"restaurant","c":0},"geometry":{"type":"Point","coordinates":[-75.57606,6.212172]}},{"type":"Feature","properties":{"name":"Tostao’","cat":"gastronomia","tipo":"cafe","c":0},"geometry":{"type":"Point","coordinates":[-75.571308,6.208768]}},{"type":"Feature","properties":{"name":"Doblepizza","cat":"gastronomia","tipo":"restaurant","c":0},"geometry":{"type":"Point","coordinates":[-75.570656,6.209834]}},{"type":"Feature","properties":{"name":"Dunkin' Donuts","cat":"gastronomia","tipo":"fast_food","c":0},"geometry":{"type":"Point","coordinates":[-75.571754,6.207221]}},{"type":"Feature","properties":{"name":"El Corral","cat":"gastronomia","tipo":"restaurant","c":0},"geometry":{"type":"Point","coordinates":[-75.571655,6.207304]}},{"type":"Feature","properties":{"name":"Sabor Chino","cat":"gastronomia","tipo":"restaurant","c":0},"geometry":{"type":"Point","coordinates":[-75.571581,6.209799]}},{"type":"Feature","properties":{"name":"Pizza a la Leña","cat":"gastronomia","tipo":"restaurant","c":0},"geometry":{"type":"Point","coordinates":[-75.571108,6.208576]}},{"type":"Feature","properties":{"name":"Las Costillas De Pedro","cat":"gastronomia","tipo":"restaurant","c":0},"geometry":{"type":"Point","coordinates":[-75.571511,6.210013]}},{"type":"Feature","properties":{"name":"Burger King","cat":"gastronomia","tipo":"fast_food","c":0},"geometry":{"type":"Point","coordinates":[-75.574272,6.196383]}},{"type":"Feature","properties":{"name":"KFC","cat":"gastronomia","tipo":"fast_food","c":0},"geometry":{"type":"Point","coordinates":[-75.574276,6.196243]}},{"type":"Feature","properties":{"name":"Il Forno","cat":"gastronomia","tipo":"restaurant","c":0},"geometry":{"type":"Point","coordinates":[-75.573529,6.196065]}},{"type":"Feature","properties":{"name":"McDonald's","cat":"gastronomia","tipo":"fast_food","c":0},"geometry":{"type":"Point","coordinates":[-75.57375,6.196706]}},{"type":"Feature","properties":{"name":"Celio","cat":"comercio","tipo":"clothes","c":0},"geometry":{"type":"Point","coordinates":[-75.573314,6.196393]}},{"type":"Feature","properties":{"name":"Mi Store","cat":"comercio","tipo":"computer","c":0},"geometry":{"type":"Point","coordinates":[-75.574026,6.197255]}},{"type":"Feature","properties":{"name":"Crepes & Waffles","cat":"gastronomia","tipo":"restaurant","c":0},"geometry":{"type":"Point","coordinates":[-75.574018,6.195792]}},{"type":"Feature","properties":{"name":"Nike","cat":"comercio","tipo":"clothes","c":0},"geometry":{"type":"Point","coordinates":[-75.573174,6.196868]}},{"type":"Feature","properties":{"name":"Subway","cat":"gastronomia","tipo":"fast_food","c":0},"geometry":{"type":"Point","coordinates":[-75.574215,6.196687]}},{"type":"Feature","properties":{"name":"Sportline","cat":"comercio","tipo":"clothes","c":0},"geometry":{"type":"Point","coordinates":[-75.573727,6.19719]}},{"type":"Feature","properties":{"name":"Samsung","cat":"comercio","tipo":"computer","c":0},"geometry":{"type":"Point","coordinates":[-75.574103,6.197362]}},{"type":"Feature","properties":{"name":"Adidas Kids","cat":"comercio","tipo":"clothes","c":0},"geometry":{"type":"Point","coordinates":[-75.57423,6.196881]}},{"type":"Feature","properties":{"name":"Sarku Japan","cat":"gastronomia","tipo":"restaurant","c":0},"geometry":{"type":"Point","coordinates":[-75.573606,6.196743]}},{"type":"Feature","properties":{"name":"Deli Reposteria","cat":"gastronomia","tipo":"fast_food","c":0},"geometry":{"type":"Point","coordinates":[-75.573949,6.196509]}},{"type":"Feature","properties":{"name":"Leños y Carbon","cat":"gastronomia","tipo":"fast_food","c":0},"geometry":{"type":"Point","coordinates":[-75.574001,6.196826]}},{"type":"Feature","properties":{"name":"Tattoo Academy Ink Dibujarte","cat":"comercio","tipo":"tattoo","c":0},"geometry":{"type":"Point","coordinates":[-75.571101,6.211055]}},{"type":"Feature","properties":{"name":"Soportes Para TV Medellin","cat":"comercio","tipo":"supermarket","c":0},"geometry":{"type":"Point","coordinates":[-75.570946,6.211332]}},{"type":"Feature","properties":{"name":"Oveja Gris","cat":"gastronomia","tipo":"cafe","c":0},"geometry":{"type":"Point","coordinates":[-75.573445,6.21253]}},{"type":"Feature","properties":{"name":"Macondo Guesthouse","cat":"hospedaje","tipo":"hostel","c":0},"geometry":{"type":"Point","coordinates":[-75.575311,6.207493]}},{"type":"Feature","properties":{"name":"Hostal Casa Lirio","cat":"hospedaje","tipo":"hostel","c":0},"geometry":{"type":"Point","coordinates":[-75.574361,6.207269]}},{"type":"Feature","properties":{"name":"Bosques del campestre 2","cat":"hospedaje","tipo":"apartment","c":0},"geometry":{"type":"Point","coordinates":[-75.575546,6.190585]}},{"type":"Feature","properties":{"name":"Centro Catalina","cat":"educacion","tipo":"school","c":0},"geometry":{"type":"Point","coordinates":[-75.571996,6.208752]}},{"type":"Feature","properties":{"name":"Barbero","cat":"comercio","tipo":"hairdresser","c":0},"geometry":{"type":"Point","coordinates":[-75.570954,6.211309]}},{"type":"Feature","properties":{"name":"Arcadia tattoo","cat":"comercio","tipo":"tattoo","c":0},"geometry":{"type":"Point","coordinates":[-75.571858,6.211435]}},{"type":"Feature","properties":{"name":"Toppings bar","cat":"gastronomia","tipo":"restaurant","c":0},"geometry":{"type":"Point","coordinates":[-75.572118,6.212071]}},{"type":"Feature","properties":{"name":"Hostel Cloud9","cat":"hospedaje","tipo":"guest_house","c":0},"geometry":{"type":"Point","coordinates":[-75.576158,6.208102]}},{"type":"Feature","properties":{"name":"Tejiendo Café","cat":"gastronomia","tipo":"cafe","c":0},"geometry":{"type":"Point","coordinates":[-75.573949,6.212632]}},{"type":"Feature","properties":{"name":"D1 Cristo Rey","cat":"comercio","tipo":"convenience","c":0},"geometry":{"type":"Point","coordinates":[-75.583855,6.205688]}},{"type":"Feature","properties":{"name":"La mekateria","cat":"comercio","tipo":"bakery","c":0},"geometry":{"type":"Point","coordinates":[-75.584039,6.205761]}},{"type":"Feature","properties":{"name":"Granero Elyan","cat":"comercio","tipo":"convenience","c":0},"geometry":{"type":"Point","coordinates":[-75.583174,6.204609]}},{"type":"Feature","properties":{"name":"Merkapolo","cat":"comercio","tipo":"convenience","c":0},"geometry":{"type":"Point","coordinates":[-75.582345,6.204272]}},{"type":"Feature","properties":{"name":"Buen comienzo","cat":"educacion","tipo":"kindergarten","c":0},"geometry":{"type":"Point","coordinates":[-75.58413,6.20422]}},{"type":"Feature","properties":{"name":"La comparcita","cat":"comercio","tipo":"supermarket","c":0},"geometry":{"type":"Point","coordinates":[-75.590353,6.201546]}},{"type":"Feature","properties":{"name":"Parque de San Antonio","cat":"recreacion","tipo":"park","c":0},"geometry":{"type":"Point","coordinates":[-75.590621,6.201493]}},{"type":"Feature","properties":{"name":"Droguerias Uno-A","cat":"comercio","tipo":"chemist","c":0},"geometry":{"type":"Point","coordinates":[-75.589403,6.201226]}},{"type":"Feature","properties":{"name":"Droguería San Miguel","cat":"comercio","tipo":"chemist","c":0},"geometry":{"type":"Point","coordinates":[-75.588406,6.201784]}},{"type":"Feature","properties":{"name":"Banco de Bogotá","cat":"finanzas","tipo":"bank","c":0},"geometry":{"type":"Point","coordinates":[-75.587278,6.202928]}},{"type":"Feature","properties":{"name":"La Rebaja","cat":"comercio","tipo":"chemist","c":0},"geometry":{"type":"Point","coordinates":[-75.58727,6.205101]}},{"type":"Feature","properties":{"name":"rapidisimos","cat":"servicios","tipo":"post_office","c":0},"geometry":{"type":"Point","coordinates":[-75.588198,6.205357]}},{"type":"Feature","properties":{"name":"Rodeo","cat":"comercio","tipo":"convenience","c":0},"geometry":{"type":"Point","coordinates":[-75.587673,6.205794]}},{"type":"Feature","properties":{"name":"Arte y Diseño","cat":"comercio","tipo":"doityourself","c":0},"geometry":{"type":"Point","coordinates":[-75.588591,6.201286]}},{"type":"Feature","properties":{"name":"Pokawa Poke Bar","cat":"gastronomia","tipo":"restaurant","c":0},"geometry":{"type":"Point","coordinates":[-75.572429,6.211973]}},{"type":"Feature","properties":{"name":"Centro de Fracturas Cefra S.a.","cat":"salud","tipo":"hospital","c":0},"geometry":{"type":"Point","coordinates":[-75.576317,6.210228]}},{"type":"Feature","properties":{"name":"cinecolombia","cat":"cultura","tipo":"cinema","c":0},"geometry":{"type":"Point","coordinates":[-75.573561,6.196557]}},{"type":"Feature","properties":{"name":"Buñuelos de la Gruta","cat":"gastronomia","tipo":"cafe","c":0},"geometry":{"type":"Point","coordinates":[-75.576288,6.193803]}},{"type":"Feature","properties":{"name":"La Galería Café - Bar","cat":"gastronomia","tipo":"cafe","c":0},"geometry":{"type":"Point","coordinates":[-75.576291,6.193941]}},{"type":"Feature","properties":{"name":"BBC Cervecería","cat":"gastronomia","tipo":"pub","c":0},"geometry":{"type":"Point","coordinates":[-75.571832,6.201766]}},{"type":"Feature","properties":{"name":"Smart Fit","cat":"recreacion","tipo":"fitness_centre","c":0},"geometry":{"type":"Point","coordinates":[-75.572338,6.199687]}},{"type":"Feature","properties":{"name":"Tostao’","cat":"gastronomia","tipo":"cafe","c":0},"geometry":{"type":"Point","coordinates":[-75.57628,6.194141]}},{"type":"Feature","properties":{"name":"Hola Estelar Square Superior","cat":"hospedaje","tipo":"hotel","c":0},"geometry":{"type":"Point","coordinates":[-75.575585,6.194677]}},{"type":"Feature","properties":{"name":"BBC Cervecería","cat":"gastronomia","tipo":"pub","c":0},"geometry":{"type":"Point","coordinates":[-75.575633,6.19498]}},{"type":"Feature","properties":{"name":"Hotel BH El Poblado","cat":"hospedaje","tipo":"hotel","c":0},"geometry":{"type":"Point","coordinates":[-75.57485,6.195419]}},{"type":"Feature","properties":{"name":"Barrica","cat":"gastronomia","tipo":"bar","c":0},"geometry":{"type":"Point","coordinates":[-75.571738,6.210334]}},{"type":"Feature","properties":{"name":"Biomarket","cat":"hospedaje","tipo":"hostel","c":0},"geometry":{"type":"Point","coordinates":[-75.571985,6.210371]}},{"type":"Feature","properties":{"name":"Altrada Gracias","cat":"gastronomia","tipo":"restaurant","c":0},"geometry":{"type":"Point","coordinates":[-75.572481,6.211745]}},{"type":"Feature","properties":{"name":"Beer Store","cat":"gastronomia","tipo":"bar","c":0},"geometry":{"type":"Point","coordinates":[-75.568197,6.208768]}},{"type":"Feature","properties":{"name":"Aspen","cat":"hospedaje","tipo":"apartment","c":0},"geometry":{"type":"Point","coordinates":[-75.580234,6.187351]}},{"type":"Feature","properties":{"name":"Sazón del Mar","cat":"gastronomia","tipo":"restaurant","c":0},"geometry":{"type":"Point","coordinates":[-75.571009,6.208826]}},{"type":"Feature","properties":{"name":"Crepes & Waffles","cat":"gastronomia","tipo":"restaurant","c":0},"geometry":{"type":"Point","coordinates":[-75.575932,6.199922]}},{"type":"Feature","properties":{"name":"El Corral Gourmet","cat":"gastronomia","tipo":"restaurant","c":0},"geometry":{"type":"Point","coordinates":[-75.575954,6.199832]}},{"type":"Feature","properties":{"name":"Marriott","cat":"hospedaje","tipo":"hotel","c":0},"geometry":{"type":"Point","coordinates":[-75.572785,6.202927]}},{"type":"Feature","properties":{"name":"Mamasita Medallo","cat":"gastronomia","tipo":"restaurant","c":0},"geometry":{"type":"Point","coordinates":[-75.572471,6.211821]}},{"type":"Feature","properties":{"name":"La Miguería","cat":"gastronomia","tipo":"cafe","c":0},"geometry":{"type":"Point","coordinates":[-75.574296,6.198988]}},{"type":"Feature","properties":{"name":"Papa John's","cat":"gastronomia","tipo":"fast_food","c":0},"geometry":{"type":"Point","coordinates":[-75.571982,6.201873]}},{"type":"Feature","properties":{"name":"La Migueria","cat":"comercio","tipo":"bakery","c":0},"geometry":{"type":"Point","coordinates":[-75.574833,6.198889]}},{"type":"Feature","properties":{"name":"Restaurante Barcal","cat":"gastronomia","tipo":"restaurant","c":0},"geometry":{"type":"Point","coordinates":[-75.572113,6.208762]}},{"type":"Feature","properties":{"name":"Consulado General del Perú","cat":"oficinas","tipo":"diplomatic","c":0},"geometry":{"type":"Point","coordinates":[-75.573491,6.197443]}},{"type":"Feature","properties":{"name":"IC Asesorías y Proyectos S.A.S. E.S.P.","cat":"oficinas","tipo":"government","c":0},"geometry":{"type":"Point","coordinates":[-75.571071,6.206126]}},{"type":"Feature","properties":{"name":"Donde Chepe","cat":"gastronomia","tipo":"nightclub","c":0},"geometry":{"type":"Point","coordinates":[-75.568281,6.208089]}},{"type":"Feature","properties":{"name":"Colombian hotdogs & burgers","cat":"gastronomia","tipo":"fast_food","c":0},"geometry":{"type":"Point","coordinates":[-75.571306,6.208672]}},{"type":"Feature","properties":{"name":"Bread Factory","cat":"comercio","tipo":"bakery","c":0},"geometry":{"type":"Point","coordinates":[-75.570519,6.208405]}},{"type":"Feature","properties":{"name":"Office Burger","cat":"gastronomia","tipo":"fast_food","c":0},"geometry":{"type":"Point","coordinates":[-75.572362,6.199863]}},{"type":"Feature","properties":{"name":"Juan Valdez Café","cat":"gastronomia","tipo":"cafe","c":0},"geometry":{"type":"Point","coordinates":[-75.575771,6.199905]}},{"type":"Feature","properties":{"name":"Smart Fit","cat":"recreacion","tipo":"fitness_centre","c":0},"geometry":{"type":"Point","coordinates":[-75.574184,6.196777]}},{"type":"Feature","properties":{"name":"Sr Wok","cat":"gastronomia","tipo":"restaurant","c":0},"geometry":{"type":"Point","coordinates":[-75.573941,6.196768]}},{"type":"Feature","properties":{"name":"Olivia","cat":"gastronomia","tipo":"restaurant","c":0},"geometry":{"type":"Point","coordinates":[-75.573993,6.195698]}},{"type":"Feature","properties":{"name":"Qualibet","cat":"comercio","tipo":"outdoor","c":0},"geometry":{"type":"Point","coordinates":[-75.574655,6.199447]}},{"type":"Feature","properties":{"name":"My Bowl","cat":"gastronomia","tipo":"restaurant","c":0},"geometry":{"type":"Point","coordinates":[-75.576121,6.212376]}},{"type":"Feature","properties":{"name":"Yogalab","cat":"recreacion","tipo":"fitness_centre","c":0},"geometry":{"type":"Point","coordinates":[-75.573681,6.20838]}},{"type":"Feature","properties":{"name":"Azulejos - la casa de la abuela","cat":"gastronomia","tipo":"restaurant","c":0},"geometry":{"type":"Point","coordinates":[-75.571868,6.209325]}},{"type":"Feature","properties":{"name":"Mexicosalud","cat":"comercio","tipo":"chemist","c":0},"geometry":{"type":"Point","coordinates":[-75.574231,6.196543]}},{"type":"Feature","properties":{"name":"Real vegetal","cat":"gastronomia","tipo":"restaurant","c":0},"geometry":{"type":"Point","coordinates":[-75.570148,6.209133]}},{"type":"Feature","properties":{"name":"Helecho Vegan Sushi","cat":"gastronomia","tipo":"restaurant","c":0},"geometry":{"type":"Point","coordinates":[-75.571849,6.211341]}},{"type":"Feature","properties":{"name":"Bowls Tekunal","cat":"gastronomia","tipo":"restaurant","c":0},"geometry":{"type":"Point","coordinates":[-75.570358,6.209609]}},{"type":"Feature","properties":{"name":"Tapiche","cat":"gastronomia","tipo":"restaurant","c":0},"geometry":{"type":"Point","coordinates":[-75.574619,6.208515]}},{"type":"Feature","properties":{"name":"Vesuvio Pizzeria","cat":"gastronomia","tipo":"restaurant","c":0},"geometry":{"type":"Point","coordinates":[-75.576246,6.208013]}},{"type":"Feature","properties":{"name":"La Manchuria","cat":"gastronomia","tipo":"cafe","c":0},"geometry":{"type":"Point","coordinates":[-75.571742,6.20929]}},{"type":"Feature","properties":{"name":"Sazon Paisa","cat":"gastronomia","tipo":"restaurant","c":0},"geometry":{"type":"Point","coordinates":[-75.576504,6.208316]}},{"type":"Feature","properties":{"name":"Camelot apartahotel","cat":"hospedaje","tipo":"hotel","c":0},"geometry":{"type":"Point","coordinates":[-75.572231,6.210072]}},{"type":"Feature","properties":{"name":"Small bar","cat":"gastronomia","tipo":"bar","c":0},"geometry":{"type":"Point","coordinates":[-75.571703,6.211744]}},{"type":"Feature","properties":{"name":"Tamagotchi","cat":"gastronomia","tipo":"restaurant","c":0},"geometry":{"type":"Point","coordinates":[-75.571054,6.21097]}},{"type":"Feature","properties":{"name":"Luis Guillermo Tobón","cat":"salud","tipo":"doctors","c":0},"geometry":{"type":"Point","coordinates":[-75.573548,6.197509]}},{"type":"Feature","properties":{"name":"Jorge Mejía Cañas","cat":"salud","tipo":"doctors","c":0},"geometry":{"type":"Point","coordinates":[-75.573496,6.197545]}},{"type":"Feature","properties":{"name":"Clínica Odontológica Oral Láser","cat":"salud","tipo":"clinic","c":0},"geometry":{"type":"Point","coordinates":[-75.576962,6.204128]}},{"type":"Feature","properties":{"name":"CediMed","cat":"salud","tipo":"clinic","c":0},"geometry":{"type":"Point","coordinates":[-75.570941,6.206814]}},{"type":"Feature","properties":{"name":"IQ InterQuirófanos","cat":"salud","tipo":"clinic","c":0},"geometry":{"type":"Point","coordinates":[-75.570161,6.206426]}},{"type":"Feature","properties":{"name":"nacionsushi","cat":"gastronomia","tipo":"restaurant","c":0},"geometry":{"type":"Point","coordinates":[-75.572676,6.200035]}},{"type":"Feature","properties":{"name":"Parmessano","cat":"gastronomia","tipo":"restaurant","c":0},"geometry":{"type":"Point","coordinates":[-75.571883,6.202169]}},{"type":"Feature","properties":{"name":"Tostao’","cat":"gastronomia","tipo":"cafe","c":0},"geometry":{"type":"Point","coordinates":[-75.571953,6.201964]}},{"type":"Feature","properties":{"name":"Cruz Verde","cat":"salud","tipo":"pharmacy","c":0},"geometry":{"type":"Point","coordinates":[-75.571711,6.202818]}},{"type":"Feature","properties":{"name":"Smart Fit","cat":"recreacion","tipo":"fitness_centre","c":0},"geometry":{"type":"Point","coordinates":[-75.573731,6.211976]}},{"type":"Feature","properties":{"name":"DHL","cat":"servicios","tipo":"post_office","c":0},"geometry":{"type":"Point","coordinates":[-75.571241,6.204616]}},{"type":"Feature","properties":{"name":"Banco de Bogotá","cat":"finanzas","tipo":"bank","c":0},"geometry":{"type":"Point","coordinates":[-75.571281,6.204423]}},{"type":"Feature","properties":{"name":"Spago","cat":"gastronomia","tipo":"restaurant","c":0},"geometry":{"type":"Point","coordinates":[-75.57179,6.207013]}},{"type":"Feature","properties":{"name":"Crepes & Waffles","cat":"gastronomia","tipo":"restaurant","c":0},"geometry":{"type":"Point","coordinates":[-75.571814,6.206875]}},{"type":"Feature","properties":{"name":"A Puro Fuego","cat":"gastronomia","tipo":"restaurant","c":0},"geometry":{"type":"Point","coordinates":[-75.57085,6.208944]}},{"type":"Feature","properties":{"name":"Café a la hora del Té","cat":"gastronomia","tipo":"cafe","c":0},"geometry":{"type":"Point","coordinates":[-75.582771,6.205508]}},{"type":"Feature","properties":{"name":"sede comfama Cristo Rey","cat":"oficinas","tipo":"educational_institution","c":0},"geometry":{"type":"Point","coordinates":[-75.587482,6.207441]}},{"type":"Feature","properties":{"name":"Billares los Dos Faros","cat":"gastronomia","tipo":"ice_cream","c":0},"geometry":{"type":"Point","coordinates":[-75.58639,6.206744]}},{"type":"Feature","properties":{"name":"Shimano Service Center","cat":"comercio","tipo":"bicycle","c":0},"geometry":{"type":"Point","coordinates":[-75.571166,6.209098]}},{"type":"Feature","properties":{"name":"D1","cat":"comercio","tipo":"supermarket","c":0},"geometry":{"type":"Point","coordinates":[-75.58486,6.211415]}},{"type":"Feature","properties":{"name":"Restaurante Buena Arepa","cat":"gastronomia","tipo":"restaurant","c":0},"geometry":{"type":"Point","coordinates":[-75.58494,6.210801]}},{"type":"Feature","properties":{"name":"Hotel Poblado Alejandria","cat":"hospedaje","tipo":"hotel","c":0},"geometry":{"type":"Point","coordinates":[-75.568609,6.198962]}},{"type":"Feature","properties":{"name":"Óleo","cat":"gastronomia","tipo":"restaurant","c":0},"geometry":{"type":"Point","coordinates":[-75.574214,6.200441]}},{"type":"Feature","properties":{"name":"Novelty Suites","cat":"hospedaje","tipo":"hotel","c":0},"geometry":{"type":"Point","coordinates":[-75.574236,6.2005]}},{"type":"Feature","properties":{"name":"Los Autos Multimarcas","cat":"comercio","tipo":"car","c":0},"geometry":{"type":"Point","coordinates":[-75.574304,6.212455]}},{"type":"Feature","properties":{"name":"La Rebaja Plus Minimarket Drogueria","cat":"salud","tipo":"pharmacy","c":0},"geometry":{"type":"Point","coordinates":[-75.570999,6.210896]}},{"type":"Feature","properties":{"name":"Delimar","cat":"gastronomia","tipo":"restaurant","c":0},"geometry":{"type":"Point","coordinates":[-75.574158,6.212618]}},{"type":"Feature","properties":{"name":"Fresh Disco Retro Movement","cat":"gastronomia","tipo":"nightclub","c":0},"geometry":{"type":"Point","coordinates":[-75.571838,6.211063]}},{"type":"Feature","properties":{"name":"Haru No Hinata","cat":"oficinas","tipo":"educational_institution","c":0},"geometry":{"type":"Point","coordinates":[-75.580972,6.19158]}},{"type":"Feature","properties":{"name":"Skate Park La 4 Sur","cat":"recreacion","tipo":"pitch","c":0},"geometry":{"type":"Point","coordinates":[-75.58024,6.204187]}},{"type":"Feature","properties":{"name":"Haru no Hinata","cat":"educacion","tipo":"school","c":0},"geometry":{"type":"Point","coordinates":[-75.580926,6.191666]}},{"type":"Feature","properties":{"name":"Mero Bar","cat":"gastronomia","tipo":"bar","c":0},"geometry":{"type":"Point","coordinates":[-75.570117,6.209343]}},{"type":"Feature","properties":{"name":"Thoroff Colombia Sas","cat":"educacion","tipo":"language_school","c":0},"geometry":{"type":"Point","coordinates":[-75.571644,6.200703]}},{"type":"Feature","properties":{"name":"La Familia","cat":"hospedaje","tipo":"hostel","c":0},"geometry":{"type":"Point","coordinates":[-75.570064,6.21054]}},{"type":"Feature","properties":{"name":"Arcadia Viajes Medellín","cat":"comercio","tipo":"travel_agency","c":0},"geometry":{"type":"Point","coordinates":[-75.571973,6.207187]}},{"type":"Feature","properties":{"name":"Bancolombia","cat":"finanzas","tipo":"bank","c":1},"geometry":{"type":"Point","coordinates":[-75.578739,6.200475]}},{"type":"Feature","properties":{"name":"Bancolombia","cat":"finanzas","tipo":"bank","c":0},"geometry":{"type":"Point","coordinates":[-75.576785,6.201609]}},{"type":"Feature","properties":{"name":"Tostao","cat":"gastronomia","tipo":"cafe","c":0},"geometry":{"type":"Point","coordinates":[-75.573631,6.195891]}},{"type":"Feature","properties":{"name":"Bar ERRE de Rebelión","cat":"gastronomia","tipo":"bar","c":0},"geometry":{"type":"Point","coordinates":[-75.571794,6.210288]}},{"type":"Feature","properties":{"name":"Adrenaline Addict - Motorbike rental","cat":"comercio","tipo":"travel_agency","c":0},"geometry":{"type":"Point","coordinates":[-75.572399,6.209489]}},{"type":"Feature","properties":{"name":"Refugio del Jaguar","cat":"hospedaje","tipo":"hotel","c":0},"geometry":{"type":"Point","coordinates":[-75.571047,6.211282]}},{"type":"Feature","properties":{"name":"Otra sigla Preesc Sol Naciente","cat":"educacion","tipo":"school","c":0},"geometry":{"type":"Point","coordinates":[-75.566074,6.200124]}},{"type":"Feature","properties":{"name":"Centro Educativo Js Futuros Brillantes","cat":"educacion","tipo":"school","c":0},"geometry":{"type":"Point","coordinates":[-75.584161,6.203912]}},{"type":"Feature","properties":{"name":"Centro Educativo Cent Educ Ventana Magica","cat":"educacion","tipo":"school","c":0},"geometry":{"type":"Point","coordinates":[-75.586882,6.205834]}},{"type":"Feature","properties":{"name":"Otra sigla Preesc Mis Garabatos","cat":"educacion","tipo":"school","c":0},"geometry":{"type":"Point","coordinates":[-75.570481,6.192578]}},{"type":"Feature","properties":{"name":"Guarderia Preesc Cascanueces","cat":"educacion","tipo":"school","c":0},"geometry":{"type":"Point","coordinates":[-75.565581,6.199809]}},{"type":"Feature","properties":{"name":"Escuela Cristo Rey","cat":"educacion","tipo":"school","c":0},"geometry":{"type":"Point","coordinates":[-75.583655,6.2046]}},{"type":"Feature","properties":{"name":"Centro Educativo Cent De Educ El Arca","cat":"educacion","tipo":"school","c":0},"geometry":{"type":"Point","coordinates":[-75.56631,6.201847]}},{"type":"Feature","properties":{"name":"Escuela Gabriela Mistral","cat":"educacion","tipo":"school","c":0},"geometry":{"type":"Point","coordinates":[-75.589487,6.19957]}},{"type":"Feature","properties":{"name":"Institucion Educativa Jose Acevedo Y Gomez","cat":"educacion","tipo":"school","c":0},"geometry":{"type":"Point","coordinates":[-75.589212,6.202111]}},{"type":"Feature","properties":{"name":"Escuela Guillermo Echavarria Misas","cat":"educacion","tipo":"school","c":0},"geometry":{"type":"Point","coordinates":[-75.571418,6.210781]}},{"type":"Feature","properties":{"name":"Bodytech las vegas","cat":"recreacion","tipo":"fitness_centre","c":0},"geometry":{"type":"Point","coordinates":[-75.579527,6.190342]}},{"type":"Feature","properties":{"name":"Villa Jardín II","cat":"hospedaje","tipo":"apartment","c":0},"geometry":{"type":"Point","coordinates":[-75.581959,6.189694]}},{"type":"Feature","properties":{"name":"Farmatodo","cat":"salud","tipo":"pharmacy","c":0},"geometry":{"type":"Point","coordinates":[-75.580019,6.19079]}},{"type":"Feature","properties":{"name":"Panadería La Pastora","cat":"comercio","tipo":"bakery","c":0},"geometry":{"type":"Point","coordinates":[-75.581468,6.193188]}},{"type":"Feature","properties":{"name":"mimo’s","cat":"gastronomia","tipo":"fast_food","c":0},"geometry":{"type":"Point","coordinates":[-75.581361,6.192962]}},{"type":"Feature","properties":{"name":"AHK Colombia","cat":"oficinas","tipo":"company","c":0},"geometry":{"type":"Point","coordinates":[-75.572888,6.20102]}},{"type":"Feature","properties":{"name":"Santa Leña","cat":"gastronomia","tipo":"cafe","c":0},"geometry":{"type":"Point","coordinates":[-75.580962,6.190877]}},{"type":"Feature","properties":{"name":"Cámara de Comercio de Medellín","cat":"oficinas","tipo":"company","c":0},"geometry":{"type":"Point","coordinates":[-75.577784,6.188695]}},{"type":"Feature","properties":{"name":"Oakberry Açai","cat":"gastronomia","tipo":"cafe","c":0},"geometry":{"type":"Point","coordinates":[-75.575187,6.199661]}},{"type":"Feature","properties":{"name":"Mikaela Oviedo","cat":"gastronomia","tipo":"restaurant","c":0},"geometry":{"type":"Point","coordinates":[-75.575465,6.199811]}},{"type":"Feature","properties":{"name":"Mikaela Punto Planta","cat":"gastronomia","tipo":"restaurant","c":0},"geometry":{"type":"Point","coordinates":[-75.586537,6.198985]}},{"type":"Feature","properties":{"name":"La carpita roja","cat":"gastronomia","tipo":"cafe","c":0},"geometry":{"type":"Point","coordinates":[-75.579274,6.196565]}},{"type":"Feature","properties":{"name":"Las Chachas - Arepas de chocolo","cat":"gastronomia","tipo":"fast_food","c":0},"geometry":{"type":"Point","coordinates":[-75.571753,6.211152]}},{"type":"Feature","properties":{"name":"Típica","cat":"gastronomia","tipo":"cafe","c":0},"geometry":{"type":"Point","coordinates":[-75.572759,6.199056]}},{"type":"Feature","properties":{"name":"WeWork","cat":"oficinas","tipo":"coworking","c":0},"geometry":{"type":"Point","coordinates":[-75.573111,6.197332]}},{"type":"Feature","properties":{"name":"Farmatodo","cat":"salud","tipo":"pharmacy","c":0},"geometry":{"type":"Point","coordinates":[-75.565619,6.197255]}},{"type":"Feature","properties":{"name":"Natto","cat":"gastronomia","tipo":"restaurant","c":0},"geometry":{"type":"Point","coordinates":[-75.572129,6.200053]}},{"type":"Feature","properties":{"name":"BoConcept","cat":"comercio","tipo":"furniture","c":0},"geometry":{"type":"Point","coordinates":[-75.572823,6.20111]}},{"type":"Feature","properties":{"name":"Ktronix","cat":"comercio","tipo":"electronics","c":0},"geometry":{"type":"Point","coordinates":[-75.572068,6.201214]}},{"type":"Feature","properties":{"name":"Gafas y Gafas","cat":"comercio","tipo":"optician","c":0},"geometry":{"type":"Point","coordinates":[-75.571586,6.203189]}},{"type":"Feature","properties":{"name":"Coordinadora","cat":"servicios","tipo":"post_office","c":0},"geometry":{"type":"Point","coordinates":[-75.571601,6.203135]}},{"type":"Feature","properties":{"name":"Colsubsidio Droguería","cat":"salud","tipo":"pharmacy","c":0},"geometry":{"type":"Point","coordinates":[-75.571618,6.2031]}},{"type":"Feature","properties":{"name":"Pelikano","cat":"comercio","tipo":"interior_decoration","c":0},"geometry":{"type":"Point","coordinates":[-75.57172,6.202789]}},{"type":"Feature","properties":{"name":"Masaya Medellín","cat":"hospedaje","tipo":"guest_house","c":0},"geometry":{"type":"Point","coordinates":[-75.572017,6.209299]}},{"type":"Feature","properties":{"name":"Sede Colectivo Desenfoque","cat":"cultura","tipo":"community_centre","c":0},"geometry":{"type":"Point","coordinates":[-75.590419,6.198676]}},{"type":"Feature","properties":{"name":"Masaya Medellin","cat":"hospedaje","tipo":"hostel","c":0},"geometry":{"type":"Point","coordinates":[-75.572011,6.209307]}},{"type":"Feature","properties":{"name":"4-72","cat":"servicios","tipo":"post_office","c":0},"geometry":{"type":"Point","coordinates":[-75.570267,6.210276]}},{"type":"Feature","properties":{"name":"BBVA","cat":"finanzas","tipo":"bank","c":0},"geometry":{"type":"Point","coordinates":[-75.572171,6.203107]}},{"type":"Feature","properties":{"name":"Seccion escuela republica de costa rica","cat":"educacion","tipo":"college","c":0},"geometry":{"type":"Point","coordinates":[-75.5882,6.202904]}},{"type":"Feature","properties":{"name":"Implantes Dentales Medellin","cat":"salud","tipo":"dentist","c":0},"geometry":{"type":"Point","coordinates":[-75.570677,6.206435]}},{"type":"Feature","properties":{"name":"Megalitas","cat":"gastronomia","tipo":"restaurant","c":0},"geometry":{"type":"Point","coordinates":[-75.586845,6.207871]}},{"type":"Feature","properties":{"name":"Bambitas","cat":"gastronomia","tipo":"fast_food","c":0},"geometry":{"type":"Point","coordinates":[-75.58634,6.207709]}},{"type":"Feature","properties":{"name":"Papayo","cat":"gastronomia","tipo":"fast_food","c":0},"geometry":{"type":"Point","coordinates":[-75.58649,6.207772]}},{"type":"Feature","properties":{"name":"Frisby","cat":"gastronomia","tipo":"fast_food","c":0},"geometry":{"type":"Point","coordinates":[-75.587499,6.205074]}},{"type":"Feature","properties":{"name":"Four Points by Sheraton Medellin","cat":"hospedaje","tipo":"hotel","c":0},"geometry":{"type":"Point","coordinates":[-75.576058,6.199347]}},{"type":"Feature","properties":{"name":"Iglesia Pentecostal Unida de Colombia - Cristo Rey","cat":"cultura","tipo":"place_of_worship","c":0},"geometry":{"type":"Point","coordinates":[-75.583314,6.203436]}},{"type":"Feature","properties":{"name":"Iglesia Pentecostal Unida de Colombia - El Poblado","cat":"cultura","tipo":"place_of_worship","c":0},"geometry":{"type":"Point","coordinates":[-75.57099,6.204061]}},{"type":"Feature","properties":{"name":"Hotel Estelar Blue","cat":"hospedaje","tipo":"hotel","c":0},"geometry":{"type":"Point","coordinates":[-75.570715,6.20213]}},{"type":"Feature","properties":{"name":"Rebel Barbers & Massage","cat":"comercio","tipo":"hairdresser","c":0},"geometry":{"type":"Point","coordinates":[-75.568247,6.208165]}},{"type":"Feature","properties":{"name":"Centro Administrativo Nacional de la IPUC","cat":"cultura","tipo":"place_of_worship","c":0},"geometry":{"type":"Point","coordinates":[-75.578272,6.190532]}},{"type":"Feature","properties":{"name":"Cancha de Tenis","cat":"recreacion","tipo":"pitch","c":0},"geometry":{"type":"Point","coordinates":[-75.574696,6.189443]}},{"type":"Feature","properties":{"name":"Biomedical Esthetic Center","cat":"salud","tipo":"clinic","c":0},"geometry":{"type":"Point","coordinates":[-75.576513,6.20342]}},{"type":"Feature","properties":{"name":"B2B Abogados & Consultores","cat":"oficinas","tipo":"company","c":0},"geometry":{"type":"Point","coordinates":[-75.571733,6.202617]}},{"type":"Feature","properties":{"name":"El Laboratorio de Café","cat":"gastronomia","tipo":"cafe","c":1},"geometry":{"type":"Point","coordinates":[-75.5793,6.198501]}},{"type":"Feature","properties":{"name":"Sushi Light","cat":"gastronomia","tipo":"restaurant","c":1},"geometry":{"type":"Point","coordinates":[-75.578978,6.198323]}},{"type":"Feature","properties":{"name":"Nativos","cat":"gastronomia","tipo":"fast_food","c":1},"geometry":{"type":"Point","coordinates":[-75.578978,6.1987]}},{"type":"Feature","properties":{"name":"La Bodeguita","cat":"comercio","tipo":"convenience","c":1},"geometry":{"type":"Point","coordinates":[-75.578985,6.199116]}},{"type":"Feature","properties":{"name":"Aldea Nikkei","cat":"gastronomia","tipo":"restaurant","c":1},"geometry":{"type":"Point","coordinates":[-75.578432,6.199391]}},{"type":"Feature","properties":{"name":"Hood","cat":"gastronomia","tipo":"restaurant","c":1},"geometry":{"type":"Point","coordinates":[-75.578441,6.199294]}},{"type":"Feature","properties":{"name":"Frisby","cat":"gastronomia","tipo":"fast_food","c":1},"geometry":{"type":"Point","coordinates":[-75.578351,6.199067]}},{"type":"Feature","properties":{"name":"Bigos","cat":"gastronomia","tipo":"restaurant","c":1},"geometry":{"type":"Point","coordinates":[-75.578356,6.199178]}},{"type":"Feature","properties":{"name":"Dunkin'","cat":"gastronomia","tipo":"fast_food","c":1},"geometry":{"type":"Point","coordinates":[-75.578531,6.199123]}},{"type":"Feature","properties":{"name":"El Corral","cat":"gastronomia","tipo":"fast_food","c":1},"geometry":{"type":"Point","coordinates":[-75.578426,6.199442]}},{"type":"Feature","properties":{"name":"Taco Factory","cat":"gastronomia","tipo":"fast_food","c":1},"geometry":{"type":"Point","coordinates":[-75.578432,6.199364]}},{"type":"Feature","properties":{"name":"Farmacia Pasteur","cat":"comercio","tipo":"chemist","c":1},"geometry":{"type":"Point","coordinates":[-75.578166,6.198915]}},{"type":"Feature","properties":{"name":"biomedical esthetic center","cat":"salud","tipo":"clinic","c":0},"geometry":{"type":"Point","coordinates":[-75.576792,6.203966]}},{"type":"Feature","properties":{"name":"Chispa Supreme","cat":"cultura","tipo":"events_venue","c":0},"geometry":{"type":"Point","coordinates":[-75.569904,6.210434]}},{"type":"Feature","properties":{"name":"Mahalo Tropical","cat":"comercio","tipo":"beverages","c":0},"geometry":{"type":"Point","coordinates":[-75.57487,6.197791]}},{"type":"Feature","properties":{"name":"Parque El Poblado","cat":"recreacion","tipo":"park","c":0},"geometry":{"type":"Point","coordinates":[-75.570973,6.210356]}},{"type":"Feature","properties":{"name":"San José del Poblado","cat":"cultura","tipo":"place_of_worship","c":0},"geometry":{"type":"Point","coordinates":[-75.570238,6.210025]}},{"type":"Feature","properties":{"name":"Parque de la bailarina Isabel Cristina Restrepo Cárdenas","cat":"recreacion","tipo":"park","c":0},"geometry":{"type":"Point","coordinates":[-75.574435,6.210062]}},{"type":"Feature","properties":{"name":"Parque Lineal La Presidenta","cat":"recreacion","tipo":"park","c":0},"geometry":{"type":"Point","coordinates":[-75.569931,6.207792]}},{"type":"Feature","properties":{"name":"Biblioteca Luis Echavarría Villegas","cat":"educacion","tipo":"library","c":1},"geometry":{"type":"Point","coordinates":[-75.578431,6.201116]}},{"type":"Feature","properties":{"name":"Universidad EAFIT","cat":"educacion","tipo":"university","c":1},"geometry":{"type":"Point","coordinates":[-75.578666,6.199934]}},{"type":"Feature","properties":{"name":"Carulla","cat":"comercio","tipo":"supermarket","c":0},"geometry":{"type":"Point","coordinates":[-75.57496,6.197705]}},{"type":"Feature","properties":{"name":"Rio Sur","cat":"comercio","tipo":"mall","c":0},"geometry":{"type":"Point","coordinates":[-75.573294,6.198831]}},{"type":"Feature","properties":{"name":"Centro Comercial Santafé","cat":"comercio","tipo":"mall","c":0},"geometry":{"type":"Point","coordinates":[-75.573838,6.196455]}},{"type":"Feature","properties":{"name":"Santa Maria de Los Angeles","cat":"cultura","tipo":"place_of_worship","c":0},"geometry":{"type":"Point","coordinates":[-75.579418,6.191003]}},{"type":"Feature","properties":{"name":"La Strada","cat":"comercio","tipo":"mall","c":0},"geometry":{"type":"Point","coordinates":[-75.571853,6.201983]}},{"type":"Feature","properties":{"name":"Éxito Poblado","cat":"comercio","tipo":"supermarket","c":0},"geometry":{"type":"Point","coordinates":[-75.574793,6.211623]}},{"type":"Feature","properties":{"name":"Panamericana","cat":"comercio","tipo":"department_store","c":0},"geometry":{"type":"Point","coordinates":[-75.573749,6.198013]}},{"type":"Feature","properties":{"name":"Centro Comercial Oviedo","cat":"comercio","tipo":"mall","c":0},"geometry":{"type":"Point","coordinates":[-75.575118,6.19914]}},{"type":"Feature","properties":{"name":"Office Depot","cat":"comercio","tipo":"stationery","c":0},"geometry":{"type":"Point","coordinates":[-75.57286,6.201063]}},{"type":"Feature","properties":{"name":"Politécnico Jaime Isaza Cadavid","cat":"educacion","tipo":"college","c":0},"geometry":{"type":"Point","coordinates":[-75.577194,6.210758]}},{"type":"Feature","properties":{"name":"San Fernando Plaza","cat":"comercio","tipo":"mall","c":0},"geometry":{"type":"Point","coordinates":[-75.570934,6.204131]}},{"type":"Feature","properties":{"name":"INEM José Félix de Restrepo","cat":"educacion","tipo":"school","c":0},"geometry":{"type":"Point","coordinates":[-75.577619,6.206829]}},{"type":"Feature","properties":{"name":"Cancha Sintética","cat":"recreacion","tipo":"pitch","c":1},"geometry":{"type":"Point","coordinates":[-75.578429,6.198513]}},{"type":"Feature","properties":{"name":"Cancha de grama","cat":"recreacion","tipo":"pitch","c":1},"geometry":{"type":"Point","coordinates":[-75.578252,6.202566]}},{"type":"Feature","properties":{"name":"Cancha de microfútbol","cat":"recreacion","tipo":"pitch","c":1},"geometry":{"type":"Point","coordinates":[-75.578644,6.202792]}},{"type":"Feature","properties":{"name":"Gimnasio VIVO","cat":"recreacion","tipo":"sports_centre","c":1},"geometry":{"type":"Point","coordinates":[-75.578068,6.198941]}},{"type":"Feature","properties":{"name":"cafetería principal","cat":"gastronomia","tipo":"cafe","c":1},"geometry":{"type":"Point","coordinates":[-75.578476,6.199173]}},{"type":"Feature","properties":{"name":"Placa deportiva","cat":"recreacion","tipo":"pitch","c":1},"geometry":{"type":"Point","coordinates":[-75.578188,6.199749]}},{"type":"Feature","properties":{"name":"Milla de Oro","cat":"comercio","tipo":"mall","c":0},"geometry":{"type":"Point","coordinates":[-75.572317,6.200023]}},{"type":"Feature","properties":{"name":"Guarderia El Arca","cat":"educacion","tipo":"kindergarten","c":0},"geometry":{"type":"Point","coordinates":[-75.566317,6.201944]}},{"type":"Feature","properties":{"name":"Parque Cristo Rey","cat":"recreacion","tipo":"park","c":0},"geometry":{"type":"Point","coordinates":[-75.586465,6.207322]}},{"type":"Feature","properties":{"name":"Manzanares","cat":"recreacion","tipo":"park","c":0},"geometry":{"type":"Point","coordinates":[-75.586471,6.210572]}},{"type":"Feature","properties":{"name":"Hotel Dann Carlton","cat":"hospedaje","tipo":"hotel","c":0},"geometry":{"type":"Point","coordinates":[-75.570727,6.207286]}},{"type":"Feature","properties":{"name":"Cancha de balonmano y baloncesto","cat":"recreacion","tipo":"pitch","c":1},"geometry":{"type":"Point","coordinates":[-75.578833,6.202657]}},{"type":"Feature","properties":{"name":"Cancha de tenis de campo","cat":"recreacion","tipo":"pitch","c":1},"geometry":{"type":"Point","coordinates":[-75.578654,6.202463]}},{"type":"Feature","properties":{"name":"Gimnasio Los Pinares","cat":"educacion","tipo":"school","c":0},"geometry":{"type":"Point","coordinates":[-75.571218,6.190706]}},{"type":"Feature","properties":{"name":"Cenisario","cat":"cultura","tipo":"place_of_worship","c":0},"geometry":{"type":"Point","coordinates":[-75.58967,6.20694]}},{"type":"Feature","properties":{"name":"Iglesia","cat":"cultura","tipo":"place_of_worship","c":0},"geometry":{"type":"Point","coordinates":[-75.589728,6.206184]}},{"type":"Feature","properties":{"name":"Parroquia Cristo Rey","cat":"cultura","tipo":"place_of_worship","c":0},"geometry":{"type":"Point","coordinates":[-75.587158,6.207549]}},{"type":"Feature","properties":{"name":"Parroquia Cristo Rey","cat":"cultura","tipo":"community_centre","c":0},"geometry":{"type":"Point","coordinates":[-75.587081,6.207548]}},{"type":"Feature","properties":{"name":"aeropuerto #1","cat":"recreacion","tipo":"park","c":0},"geometry":{"type":"Point","coordinates":[-75.577595,6.210632]}},{"type":"Feature","properties":{"name":"Centro del Buen Vivir","cat":"recreacion","tipo":"park","c":0},"geometry":{"type":"Point","coordinates":[-75.577308,6.212361]}},{"type":"Feature","properties":{"name":"Cancha de arena San Rafael","cat":"recreacion","tipo":"pitch","c":0},"geometry":{"type":"Point","coordinates":[-75.589769,6.200946]}},{"type":"Feature","properties":{"name":"Casa de la Cultura Poblado / Escuela Red de Música","cat":"cultura","tipo":"arts_centre","c":0},"geometry":{"type":"Point","coordinates":[-75.578623,6.190572]}},{"type":"Feature","properties":{"name":"Mall Zona Dos","cat":"comercio","tipo":"mall","c":0},"geometry":{"type":"Point","coordinates":[-75.565841,6.198429]}},{"type":"Feature","properties":{"name":"El Laboratorio del Café","cat":"gastronomia","tipo":"cafe","c":0},"geometry":{"type":"Point","coordinates":[-75.587583,6.198704]}},{"type":"Feature","properties":{"name":"Parque Santa Maria de los angeles","cat":"recreacion","tipo":"park","c":0},"geometry":{"type":"Point","coordinates":[-75.580325,6.187969]}},{"type":"Feature","properties":{"name":"Casa Teatro el Poblado","cat":"cultura","tipo":"theatre","c":0},"geometry":{"type":"Point","coordinates":[-75.580665,6.188053]}},{"type":"Feature","properties":{"name":"Gimnasio Santillana","cat":"recreacion","tipo":"fitness_centre","c":0},"geometry":{"type":"Point","coordinates":[-75.574431,6.202827]}},{"type":"Feature","properties":{"name":"Hotel Sites","cat":"hospedaje","tipo":"hotel","c":0},"geometry":{"type":"Point","coordinates":[-75.574435,6.206841]}},{"type":"Feature","properties":{"name":"Parroquia Santa María de Los Dolores","cat":"cultura","tipo":"place_of_worship","c":0},"geometry":{"type":"Point","coordinates":[-75.574551,6.209104]}},{"type":"Feature","properties":{"name":"Supertienda EASY","cat":"comercio","tipo":"doityourself","c":0},"geometry":{"type":"Point","coordinates":[-75.581375,6.202912]}},{"type":"Feature","properties":{"name":"Parque Casa de la cultura del Poblado","cat":"recreacion","tipo":"park","c":0},"geometry":{"type":"Point","coordinates":[-75.578898,6.190395]}},{"type":"Feature","properties":{"name":"NH Collection Medellín Royal","cat":"hospedaje","tipo":"hotel","c":0},"geometry":{"type":"Point","coordinates":[-75.572516,6.197142]}},{"type":"Feature","properties":{"name":"Parque Natural Oviedo","cat":"recreacion","tipo":"park","c":0},"geometry":{"type":"Point","coordinates":[-75.574744,6.198425]}},{"type":"Feature","properties":{"name":"Parque de los pimientos","cat":"recreacion","tipo":"park","c":1},"geometry":{"type":"Point","coordinates":[-75.578765,6.200724]}},{"type":"Feature","properties":{"name":"Primax","cat":"servicios","tipo":"fuel","c":0},"geometry":{"type":"Point","coordinates":[-75.578273,6.187276]}},{"type":"Feature","properties":{"name":"Clinica Sanitas","cat":"salud","tipo":"clinic","c":0},"geometry":{"type":"Point","coordinates":[-75.57775,6.190843]}},{"type":"Feature","properties":{"name":"Makro","cat":"comercio","tipo":"wholesale","c":0},"geometry":{"type":"Point","coordinates":[-75.580329,6.213451]}},{"type":"Feature","properties":{"name":"Terpel","cat":"servicios","tipo":"fuel","c":0},"geometry":{"type":"Point","coordinates":[-75.59076,6.194483]}},{"type":"Feature","properties":{"name":"Iglesia Gozo Santo","cat":"cultura","tipo":"place_of_worship","c":0},"geometry":{"type":"Point","coordinates":[-75.572675,6.209888]}},{"type":"Feature","properties":{"name":"Texaco","cat":"servicios","tipo":"fuel","c":0},"geometry":{"type":"Point","coordinates":[-75.584225,6.196617]}},{"type":"Feature","properties":{"name":"Mall La Visitación","cat":"comercio","tipo":"mall","c":0},"geometry":{"type":"Point","coordinates":[-75.56553,6.196469]}},{"type":"Feature","properties":{"name":"Colegio Palermo de San José","cat":"educacion","tipo":"school","c":0},"geometry":{"type":"Point","coordinates":[-75.569328,6.208837]}},{"type":"Feature","properties":{"name":"Spa ZaZen","cat":"comercio","tipo":"beauty","c":0},"geometry":{"type":"Point","coordinates":[-75.571169,6.20122]}},{"type":"Feature","properties":{"name":"City Express Plus","cat":"hospedaje","tipo":"hotel","c":0},"geometry":{"type":"Point","coordinates":[-75.573343,6.200532]}},{"type":"Feature","properties":{"name":"Hotel Porton Medellin","cat":"hospedaje","tipo":"hotel","c":0},"geometry":{"type":"Point","coordinates":[-75.575627,6.195818]}},{"type":"Feature","properties":{"name":"Parque Inflexion","cat":"recreacion","tipo":"park","c":0},"geometry":{"type":"Point","coordinates":[-75.577722,6.191373]}},{"type":"Feature","properties":{"name":"Colegio Cristo Rey","cat":"educacion","tipo":"school","c":0},"geometry":{"type":"Point","coordinates":[-75.581605,6.20533]}},{"type":"Feature","properties":{"name":"Sofina Clinic","cat":"salud","tipo":"clinic","c":0},"geometry":{"type":"Point","coordinates":[-75.572956,6.210852]}},{"type":"Feature","properties":{"name":"Edifico Medical","cat":"salud","tipo":"clinic","c":0},"geometry":{"type":"Point","coordinates":[-75.570113,6.206345]}},{"type":"Feature","properties":{"name":"INTERMEDICA Centro de Especialistas","cat":"salud","tipo":"clinic","c":0},"geometry":{"type":"Point","coordinates":[-75.570542,6.206192]}},{"type":"Feature","properties":{"name":"Consultorios Clínica Medellín Torre Fundadores","cat":"salud","tipo":"clinic","c":0},"geometry":{"type":"Point","coordinates":[-75.571016,6.206795]}},{"type":"Feature","properties":{"name":"Laboratorio Clínico Hematológico","cat":"salud","tipo":"clinic","c":0},"geometry":{"type":"Point","coordinates":[-75.57318,6.206373]}},{"type":"Feature","properties":{"name":"Umma Especialistas","cat":"salud","tipo":"clinic","c":0},"geometry":{"type":"Point","coordinates":[-75.574812,6.208826]}},{"type":"Feature","properties":{"name":"Centro de comercio El Rodeo","cat":"comercio","tipo":"mall","c":0},"geometry":{"type":"Point","coordinates":[-75.587683,6.205261]}},{"type":"Feature","properties":{"name":"IE José Acevedo y Goméz","cat":"educacion","tipo":"school","c":0},"geometry":{"type":"Point","coordinates":[-75.59002,6.202471]}},{"type":"Feature","properties":{"name":"Sky Bar Medellin","cat":"gastronomia","tipo":"bar","c":0},"geometry":{"type":"Point","coordinates":[-75.567883,6.208489]}},{"type":"Feature","properties":{"name":"WeWork","cat":"oficinas","tipo":"coworking","c":0},"geometry":{"type":"Point","coordinates":[-75.571581,6.208733]}},{"type":"Feature","properties":{"name":"Clínica Las Vegas","cat":"salud","tipo":"hospital","c":0},"geometry":{"type":"Point","coordinates":[-75.576476,6.203344]}},{"type":"Feature","properties":{"name":"Square Plaza","cat":"comercio","tipo":"mall","c":0},"geometry":{"type":"Point","coordinates":[-75.57564,6.194724]}},{"type":"Feature","properties":{"name":"Terpel de la 80","cat":"servicios","tipo":"fuel","c":0},"geometry":{"type":"Point","coordinates":[-75.585847,6.203913]}},{"type":"Feature","properties":{"name":"Farmatodo","cat":"salud","tipo":"pharmacy","c":0},"geometry":{"type":"Point","coordinates":[-75.573094,6.199272]}},{"type":"Feature","properties":{"name":"McDonald's","cat":"gastronomia","tipo":"fast_food","c":0},"geometry":{"type":"Point","coordinates":[-75.573899,6.199542]}},{"type":"Feature","properties":{"name":"NOVA Cirugía Plástica","cat":"salud","tipo":"clinic","c":0},"geometry":{"type":"Point","coordinates":[-75.578814,6.196959]}},{"type":"Feature","properties":{"name":"Torre Médica Salud Vegas","cat":"salud","tipo":"clinic","c":0},"geometry":{"type":"Point","coordinates":[-75.576643,6.204063]}},{"type":"Feature","properties":{"name":"Clínica Aurora","cat":"salud","tipo":"clinic","c":0},"geometry":{"type":"Point","coordinates":[-75.575161,6.209387]}},{"type":"Feature","properties":{"name":"Clínica Aurora Sede 2","cat":"salud","tipo":"clinic","c":0},"geometry":{"type":"Point","coordinates":[-75.575085,6.209082]}},{"type":"Feature","properties":{"name":"Haru No Hinata","cat":"oficinas","tipo":"educational_institution","c":0},"geometry":{"type":"Point","coordinates":[-75.581111,6.191582]}},{"type":"Feature","properties":{"name":"Colegio San José de las Vegas","cat":"educacion","tipo":"school","c":0},"geometry":{"type":"Point","coordinates":[-75.576967,6.198533]}},{"type":"Feature","properties":{"name":"Parque Santa María de los Ángeles","cat":"recreacion","tipo":"park","c":0},"geometry":{"type":"Point","coordinates":[-75.581077,6.19181]}},{"type":"Feature","properties":{"name":"Universidad EAFIT","cat":"educacion","tipo":"university","c":1},"geometry":{"type":"Point","coordinates":[-75.580203,6.1962]}},{"type":"Feature","properties":{"name":"Universidad EAFIT","cat":"educacion","tipo":"university","c":1},"geometry":{"type":"Point","coordinates":[-75.579549,6.196319]}},{"type":"Feature","properties":{"name":"Universidad EAFIT","cat":"educacion","tipo":"university","c":0},"geometry":{"type":"Point","coordinates":[-75.579798,6.196056]}},{"type":"Feature","properties":{"name":"Farmatodo","cat":"salud","tipo":"pharmacy","c":0},"geometry":{"type":"Point","coordinates":[-75.568078,6.201462]}},{"type":"Feature","properties":{"name":"Vivero Tierranegra","cat":"comercio","tipo":"garden_centre","c":0},"geometry":{"type":"Point","coordinates":[-75.571734,6.208022]}},{"type":"Feature","properties":{"name":"Parque de la Ceiba","cat":"recreacion","tipo":"park","c":1},"geometry":{"type":"Point","coordinates":[-75.578856,6.199903]}},{"type":"Feature","properties":{"name":"Las Hermosas","cat":"gastronomia","tipo":"cafe","c":1},"geometry":{"type":"Point","coordinates":[-75.579351,6.199487]}},{"type":"Feature","properties":{"name":"Parroquia San Gabriel de la Dolorosa","cat":"cultura","tipo":"place_of_worship","c":0},"geometry":{"type":"Point","coordinates":[-75.58997,6.200544]}},{"type":"Feature","properties":{"name":"Colegio Sanjose de Las Vegas","cat":"educacion","tipo":"school","c":0},"geometry":{"type":"Point","coordinates":[-75.576213,6.198183]}},{"type":"Feature","properties":{"name":"Casa El Ramal y Bar Mandarino","cat":"gastronomia","tipo":"restaurant","c":0},"geometry":{"type":"Point","coordinates":[-75.57213,6.211845]}},{"type":"Feature","properties":{"name":"Canchas - Zona Común","cat":"recreacion","tipo":"pitch","c":0},"geometry":{"type":"Point","coordinates":[-75.576505,6.199081]}},{"type":"Feature","properties":{"name":"Parque Origen","cat":"recreacion","tipo":"park","c":1},"geometry":{"type":"Point","coordinates":[-75.578586,6.199811]}},{"type":"Feature","properties":{"name":"El Jardín de Cachi","cat":"recreacion","tipo":"garden","c":1},"geometry":{"type":"Point","coordinates":[-75.578429,6.201503]}},{"type":"Feature","properties":{"name":"Librería Acentos","cat":"comercio","tipo":"books","c":1},"geometry":{"type":"Point","coordinates":[-75.578836,6.199409]}},{"type":"Feature","properties":{"name":"Domo de visitantes","cat":"cultura","tipo":"events_venue","c":1},"geometry":{"type":"Point","coordinates":[-75.578086,6.200436]}},{"type":"Feature","properties":{"name":"Madelo EAFIT","cat":"gastronomia","tipo":"ice_cream","c":1},"geometry":{"type":"Point","coordinates":[-75.578177,6.200319]}},{"type":"Feature","properties":{"name":"Tienda EAFIT","cat":"comercio","tipo":"general","c":1},"geometry":{"type":"Point","coordinates":[-75.578004,6.200315]}},{"type":"Feature","properties":{"name":"Dogger EAFIT","cat":"gastronomia","tipo":"fast_food","c":1},"geometry":{"type":"Point","coordinates":[-75.578416,6.200182]}},{"type":"Feature","properties":{"name":"Jardín funcional","cat":"recreacion","tipo":"garden","c":1},"geometry":{"type":"Point","coordinates":[-75.578855,6.199673]}},{"type":"Feature","properties":{"name":"Colegio La Enseñanza","cat":"educacion","tipo":"school","c":0},"geometry":{"type":"Point","coordinates":[-75.574065,6.193398]}}]}