{"type":"FeatureCollection","features":[{"type":"Feature","properties":{"codigo_tramiento":"Z6_API_31","tratamiento":"Áreas de Preservación de Infraestructuras y del Sistema Público y Colectivo","tipo":"API","densidadmax":"N/A","indiceconstruccmax":"N/A","alturanormativa":"N/A"},"geometry":{"type":"Polygon","coordinates":[[[-75.590503,6.202401],[-75.590497,6.201652],[-75.590731,6.20172],[-75.591366,6.201966],[-75.591633,6.202097],[-75.591807,6.202214],[-75.591978,6.202304],[-75.592035,6.202326],[-75.592108,6.20234],[-75.592209,6.202334],[-75.592261,6.202318],[-75.592296,6.202296],[-75.591795,6.208189],[-75.59029,6.20807],[-75.590039,6.208031],[-75.589767,6.207953],[-75.589636,6.20785],[-75.58956,6.207777],[-75.589401,6.207577],[-75.589367,6.207526],[-75.589309,6.207405],[-75.589113,6.206711],[-75.588974,6.206123],[-75.588811,6.205504],[-75.588762,6.205399],[-75.588658,6.205262],[-75.588657,6.204859],[-75.588672,6.204745],[-75.588805,6.204359],[-75.588948,6.203992],[-75.589077,6.203692],[-75.58915,6.203576],[-75.589272,6.203486],[-75.58938,6.203442],[-75.589617,6.203384],[-75.589681,6.203349],[-75.589759,6.203284],[-75.589808,6.203218],[-75.589932,6.203014],[-75.589987,6.202904],[-75.590104,6.20278],[-75.590337,6.202654],[-75.590399,6.202612],[-75.590459,6.202544],[-75.59049,6.202479],[-75.590503,6.202401]]]}},{"type":"Feature","properties":{"codigo_tramiento":"Z5_API_25","tratamiento":"Áreas de Preservación de Infraestructuras y del Sistema Público y Colectivo","tipo":"API","densidadmax":"N/A","indiceconstruccmax":"N/A","alturanormativa":"N/A"},"geometry":{"type":"Polygon","coordinates":[[[-75.576287,6.212905],[-75.576316,6.212659],[-75.576678,6.208774],[-75.576967,6.205559],[-75.57707,6.204562],[-75.577225,6.204634],[-75.577222,6.204666],[-75.57857,6.205347],[-75.578571,6.205313],[-75.578666,6.205361],[-75.578267,6.208144],[-75.5776,6.212948],[-75.577396,6.213107],[-75.577283,6.213163],[-75.577144,6.213185],[-75.577005,6.213181],[-75.576914,6.213169],[-75.576782,6.213123],[-75.576749,6.213103],[-75.576696,6.213056],[-75.576543,6.212847],[-75.576513,6.213011],[-75.576407,6.21298],[-75.57635,6.212938],[-75.576287,6.212905]]]}},{"type":"Feature","properties":{"codigo_tramiento":"Z5_API_28","tratamiento":"Áreas de Preservación de Infraestructuras y del Sistema Público y Colectivo","tipo":"API","densidadmax":"N/A","indiceconstruccmax":"N/A","alturanormativa":"N/A"},"geometry":{"type":"Polygon","coordinates":[[[-75.578374,6.197355],[-75.578646,6.197387],[-75.579516,6.197517],[-75.580077,6.197614],[-75.579967,6.197907],[-75.579794,6.198483],[-75.579717,6.198757],[-75.579613,6.199211],[-75.57941,6.200449],[-75.579055,6.202703],[-75.579031,6.202756],[-75.578996,6.202809],[-75.578932,6.202867],[-75.578404,6.203174],[-75.578343,6.203203],[-75.578254,6.203284],[-75.578094,6.203697],[-75.577203,6.203361],[-75.577264,6.202708],[-75.576654,6.202458],[-75.576493,6.202374],[-75.576447,6.202368],[-75.576295,6.202265],[-75.576166,6.202221],[-75.576075,6.202205],[-75.575999,6.202153],[-75.575842,6.202077],[-75.575753,6.202007],[-75.575666,6.201891],[-75.575657,6.201781],[-75.575669,6.201686],[-75.575686,6.201662],[-75.575714,6.201588],[-75.575863,6.201127],[-75.575876,6.201098],[-75.575917,6.201048],[-75.575976,6.201024],[-75.576071,6.201032],[-75.57623,6.201101],[-75.57698,6.201521],[-75.577142,6.201566],[-75.577379,6.201603],[-75.577447,6.200896],[-75.577569,6.199838],[-75.577672,6.199354],[-75.577525,6.199336],[-75.577411,6.199356],[-75.57739,6.199309],[-75.577298,6.199348],[-75.577064,6.199149],[-75.576963,6.199077],[-75.576927,6.199087],[-75.576907,6.199102],[-75.57686,6.199161],[-75.576767,6.199175],[-75.576692,6.199119],[-75.576564,6.198945],[-75.576442,6.198882],[-75.576378,6.198876],[-75.576338,6.198892],[-75.576299,6.198853],[-75.576249,6.198798],[-75.576144,6.198592],[-75.576123,6.198536],[-75.576122,6.198436],[-75.576102,6.198414],[-75.576006,6.198409],[-75.576026,6.19834],[-75.576229,6.19783],[-75.576224,6.197814],[-75.576254,6.197791],[-75.576284,6.197802],[-75.577098,6.198231],[-75.577261,6.197953],[-75.577253,6.197882],[-75.577234,6.197841],[-75.57747,6.197523],[-75.577538,6.197446],[-75.577603,6.1975],[-75.57784,6.19775],[-75.577954,6.197788],[-75.57799,6.197808],[-75.578023,6.197728],[-75.578216,6.197719],[-75.578374,6.197355]]]}},{"type":"Feature","properties":{"codigo_tramiento":"Z5_API_30","tratamiento":"Áreas de Preservación de Infraestructuras y del Sistema Público y Colectivo","tipo":"API","densidadmax":"N/A","indiceconstruccmax":"N/A","alturanormativa":"N/A"},"geometry":{"type":"Polygon","coordinates":[[[-75.573644,6.191216],[-75.573514,6.191216],[-75.573669,6.190827],[-75.573634,6.190023],[-75.573779,6.189918],[-75.573794,6.189763],[-75.573641,6.189628],[-75.573622,6.189602],[-75.573583,6.189575],[-75.573508,6.189554],[-75.573472,6.189552],[-75.57342,6.18953],[-75.573255,6.189507],[-75.573159,6.189508],[-75.573071,6.189478],[-75.572949,6.189471],[-75.572877,6.189551],[-75.572796,6.189672],[-75.572756,6.189762],[-75.572722,6.189879],[-75.572708,6.189897],[-75.572578,6.190001],[-75.572476,6.190049],[-75.572478,6.190093],[-75.572221,6.190176],[-75.572112,6.190106],[-75.572134,6.189754],[-75.571688,6.189929],[-75.571389,6.190013],[-75.571326,6.190045],[-75.570972,6.190119],[-75.570913,6.190104],[-75.570872,6.190053],[-75.570632,6.189992],[-75.570446,6.189927],[-75.570332,6.189936],[-75.569855,6.189748],[-75.569784,6.189585],[-75.569769,6.189572],[-75.569777,6.189555],[-75.569806,6.189529],[-75.56979,6.189479],[-75.569807,6.189465],[-75.569899,6.189329],[-75.56989,6.189301],[-75.569967,6.189211],[-75.569981,6.189118],[-75.570049,6.189095],[-75.570197,6.188855],[-75.570061,6.188777],[-75.570103,6.188659],[-75.570182,6.188611],[-75.570261,6.188536],[-75.570292,6.188416],[-75.570389,6.188119],[-75.570483,6.187859],[-75.570396,6.187721],[-75.570202,6.187366],[-75.569942,6.186799],[-75.569852,6.186811],[-75.569866,6.186705],[-75.569885,6.186266],[-75.569876,6.186161],[-75.569888,6.186055],[-75.569978,6.185852],[-75.570017,6.185825],[-75.570106,6.185801],[-75.570283,6.185787],[-75.571187,6.185758],[-75.571446,6.185763],[-75.571501,6.185772],[-75.571611,6.185812],[-75.571702,6.185866],[-75.572359,6.186161],[-75.573529,6.186786],[-75.574183,6.187227],[-75.574284,6.187301],[-75.574318,6.18734],[-75.574401,6.187508],[-75.574472,6.187686],[-75.574583,6.188012],[-75.574665,6.188169],[-75.574749,6.188311],[-75.574828,6.188408],[-75.574902,6.188489],[-75.575056,6.188626],[-75.575932,6.189237],[-75.576359,6.189521],[-75.576438,6.189561],[-75.576855,6.18971],[-75.577152,6.189802],[-75.576979,6.190337],[-75.576728,6.191207],[-75.575737,6.190598],[-75.5753,6.190434],[-75.575148,6.190351],[-75.574691,6.190043],[-75.574557,6.189943],[-75.574398,6.189942],[-75.5743,6.190023],[-75.574244,6.190122],[-75.574377,6.190225],[-75.574458,6.190423],[-75.574535,6.190515],[-75.574586,6.190557],[-75.574661,6.190661],[-75.57469,6.190736],[-75.574697,6.190802],[-75.574722,6.190844],[-75.574774,6.190871],[-75.574825,6.190886],[-75.574366,6.191361],[-75.574237,6.191316],[-75.574035,6.191265],[-75.573801,6.191229],[-75.573644,6.191216]]]}},{"type":"Feature","properties":{"codigo_tramiento":"Z5_API_29","tratamiento":"Áreas de Preservación de Infraestructuras y del Sistema Público y Colectivo","tipo":"API","densidadmax":"N/A","indiceconstruccmax":"N/A","alturanormativa":"N/A"},"geometry":{"type":"Polygon","coordinates":[[[-75.569605,6.190796],[-75.569578,6.19074],[-75.569512,6.190685],[-75.568566,6.190549],[-75.568741,6.189828],[-75.568838,6.189475],[-75.568849,6.18947],[-75.568993,6.188975],[-75.56905,6.188772],[-75.569083,6.188626],[-75.569136,6.188653],[-75.56917,6.188658],[-75.569168,6.188597],[-75.569389,6.188595],[-75.569558,6.188676],[-75.569631,6.188694],[-75.569704,6.188731],[-75.569789,6.188733],[-75.570004,6.188662],[-75.570092,6.188666],[-75.570103,6.188659],[-75.570061,6.188777],[-75.570197,6.188855],[-75.570049,6.189095],[-75.569981,6.189118],[-75.569967,6.189211],[-75.56989,6.189301],[-75.569899,6.189329],[-75.569807,6.189465],[-75.56979,6.189479],[-75.569806,6.189529],[-75.569777,6.189555],[-75.569769,6.189572],[-75.569784,6.189585],[-75.569855,6.189748],[-75.570332,6.189936],[-75.570446,6.189927],[-75.570663,6.190001],[-75.57042,6.19091],[-75.569918,6.190794],[-75.569914,6.190856],[-75.569927,6.19087],[-75.5699,6.191052],[-75.569889,6.191059],[-75.569772,6.191071],[-75.56967,6.191092],[-75.569605,6.190796]]]}},{"type":"Feature","properties":{"codigo_tramiento":"Z6_CN2_22","tratamiento":"Consolidación Nivel 2","tipo":"CN2","densidadmax":"300","indiceconstruccmax":"2,1","alturanormativa":"N/A"},"geometry":{"type":"Polygon","coordinates":[[[-75.588153,6.201749],[-75.58979,6.197766],[-75.590223,6.196691],[-75.591532,6.193558],[-75.59154,6.193491],[-75.591648,6.193249],[-75.591761,6.19333],[-75.591787,6.193333],[-75.591894,6.193861],[-75.591901,6.194004],[-75.591877,6.194004],[-75.591891,6.194063],[-75.591937,6.194063],[-75.591958,6.194162],[-75.591979,6.194384],[-75.591991,6.194429],[-75.592003,6.194427],[-75.592018,6.194508],[-75.592055,6.194611],[-75.592094,6.194784],[-75.5922,6.195372],[-75.592255,6.195802],[-75.592232,6.196438],[-75.592208,6.196529],[-75.592853,6.196758],[-75.592975,6.196456],[-75.593275,6.196575],[-75.593287,6.196548],[-75.593315,6.196565],[-75.593377,6.196634],[-75.593318,6.196773],[-75.593549,6.196904],[-75.593565,6.196885],[-75.593604,6.196913],[-75.593621,6.196935],[-75.59347,6.197153],[-75.593816,6.197322],[-75.593811,6.19733],[-75.594002,6.197436],[-75.594266,6.197456],[-75.594404,6.197523],[-75.594505,6.197583],[-75.594595,6.197552],[-75.594646,6.197516],[-75.594748,6.197488],[-75.595043,6.197293],[-75.595076,6.197212],[-75.595069,6.197199],[-75.595159,6.197162],[-75.595289,6.197264],[-75.595333,6.197343],[-75.595477,6.19765],[-75.595537,6.197755],[-75.595608,6.197848],[-75.595696,6.197927],[-75.595772,6.198017],[-75.595855,6.198101],[-75.595937,6.198176],[-75.596136,6.198295],[-75.596447,6.198446],[-75.596502,6.198485],[-75.596521,6.198605],[-75.596546,6.198649],[-75.596464,6.198927],[-75.596095,6.199424],[-75.595915,6.199298],[-75.595842,6.199483],[-75.595535,6.199961],[-75.595521,6.199968],[-75.595347,6.200203],[-75.59525,6.200404],[-75.595421,6.200509],[-75.595323,6.200747],[-75.595247,6.200713],[-75.595155,6.200758],[-75.595182,6.200805],[-75.595218,6.200902],[-75.595224,6.200946],[-75.595211,6.200983],[-75.595182,6.201024],[-75.594624,6.201394],[-75.594251,6.201713],[-75.594186,6.201801],[-75.594139,6.20188],[-75.594117,6.202045],[-75.593912,6.202029],[-75.593013,6.202129],[-75.592459,6.202332],[-75.592334,6.202422],[-75.592278,6.202502],[-75.592296,6.202296],[-75.592261,6.202318],[-75.592209,6.202334],[-75.592108,6.20234],[-75.592035,6.202326],[-75.591978,6.202304],[-75.591807,6.202214],[-75.591633,6.202097],[-75.591366,6.201966],[-75.590731,6.20172],[-75.590497,6.201652],[-75.590503,6.202401],[-75.59049,6.202479],[-75.590459,6.202544],[-75.590399,6.202612],[-75.590337,6.202654],[-75.590104,6.20278],[-75.590054,6.202826],[-75.589987,6.202904],[-75.589932,6.203014],[-75.589808,6.203218],[-75.589759,6.203284],[-75.589681,6.203349],[-75.589617,6.203384],[-75.58938,6.203442],[-75.589272,6.203486],[-75.58915,6.203576],[-75.589077,6.203692],[-75.588948,6.203992],[-75.588805,6.204359],[-75.588672,6.204745],[-75.588657,6.204859],[-75.588658,6.205262],[-75.588462,6.205072],[-75.58712,6.204301],[-75.588153,6.201749]]]}},{"type":"Feature","properties":{"codigo_tramiento":"RIO_API_62","tratamiento":"Áreas de Preservación de Infraestructuras y del Sistema Público y Colectivo","tipo":"API","densidadmax":"N/A","indiceconstruccmax":"N/A","alturanormativa":"N/A"},"geometry":{"type":"Polygon","coordinates":[[[-75.557114,6.31015],[-75.556986,6.310027],[-75.556978,6.310029],[-75.556934,6.309957],[-75.556922,6.309922],[-75.556928,6.309875],[-75.556923,6.309799],[-75.556894,6.309751],[-75.556824,6.309723],[-75.55675,6.309681],[-75.556674,6.309681],[-75.556593,6.309659],[-75.556556,6.309631],[-75.556508,6.309547],[-75.55641,6.30949],[-75.556339,6.309427],[-75.556165,6.309358],[-75.556078,6.309285],[-75.556006,6.309197],[-75.55597,6.309166],[-75.55594,6.309098],[-75.555938,6.309051],[-75.555925,6.309015],[-75.555717,6.308791],[-75.555649,6.308737],[-75.555456,6.308655],[-75.555364,6.308576],[-75.555323,6.308523],[-75.555406,6.30816],[-75.55545,6.307833],[-75.555468,6.307613],[-75.55553,6.307108],[-75.555745,6.305507],[-75.555861,6.304896],[-75.555915,6.304658],[-75.556076,6.304303],[-75.556129,6.304111],[-75.556159,6.303729],[-75.556154,6.303567],[-75.55614,6.303475],[-75.55608,6.30325],[-75.556069,6.303159],[-75.556078,6.303104],[-75.556257,6.302555],[-75.556277,6.302256],[-75.556277,6.302131],[-75.556316,6.301879],[-75.556342,6.301767],[-75.556407,6.301592],[-75.556582,6.301025],[-75.556643,6.300884],[-75.556884,6.300502],[-75.557039,6.300226],[-75.557524,6.299183],[-75.557776,6.29849],[-75.557722,6.298251],[-75.557688,6.298012],[-75.557672,6.2975],[-75.55768,6.297409],[-75.557702,6.297313],[-75.557733,6.297233],[-75.557771,6.297168],[-75.557912,6.29699],[-75.558708,6.296147],[-75.558881,6.295974],[-75.559029,6.295802],[-75.559177,6.295607],[-75.559243,6.295499],[-75.559617,6.295262],[-75.560061,6.294961],[-75.560247,6.294807],[-75.560823,6.294262],[-75.560867,6.29421],[-75.561133,6.293832],[-75.561523,6.293221],[-75.561822,6.292729],[-75.561877,6.292607],[-75.562055,6.292054],[-75.562198,6.291495],[-75.562296,6.291255],[-75.562351,6.291155],[-75.562549,6.290895],[-75.562682,6.290739],[-75.56274,6.290638],[-75.56282,6.290533],[-75.563718,6.289432],[-75.563903,6.289144],[-75.564205,6.288394],[-75.564405,6.287925],[-75.564484,6.287665],[-75.564507,6.287511],[-75.56448,6.287321],[-75.564328,6.286752],[-75.564305,6.286573],[-75.564309,6.286508],[-75.564323,6.286447],[-75.564422,6.286214],[-75.56443,6.286115],[-75.564396,6.286006],[-75.564242,6.285695],[-75.564135,6.285499],[-75.564057,6.285331],[-75.564091,6.285324],[-75.564147,6.285364],[-75.564236,6.285386],[-75.564316,6.285392],[-75.564434,6.285386],[-75.564472,6.285395],[-75.564688,6.28541],[-75.564765,6.285403],[-75.564867,6.285342],[-75.564894,6.285334],[-75.564921,6.28534],[-75.564924,6.285311],[-75.565153,6.285276],[-75.565281,6.285267],[-75.565502,6.285286],[-75.565497,6.28526],[-75.565754,6.284951],[-75.565871,6.285058],[-75.565887,6.285091],[-75.566088,6.28528],[-75.566126,6.285238],[-75.566155,6.285264],[-75.566235,6.285173],[-75.566217,6.285156],[-75.566272,6.285127],[-75.566128,6.284983],[-75.566139,6.284751],[-75.566167,6.284697],[-75.566459,6.284445],[-75.566505,6.284412],[-75.566602,6.284365],[-75.566814,6.284315],[-75.566959,6.284304],[-75.567133,6.284267],[-75.566888,6.284145],[-75.566989,6.284124],[-75.567133,6.284075],[-75.567269,6.284014],[-75.567373,6.28395],[-75.567522,6.283818],[-75.567584,6.283749],[-75.567676,6.283606],[-75.567703,6.283542],[-75.567773,6.283444],[-75.567793,6.283405],[-75.567853,6.283226],[-75.567892,6.282934],[-75.567877,6.282936],[-75.567879,6.282866],[-75.567894,6.282866],[-75.567894,6.282833],[-75.56788,6.282832],[-75.567909,6.281817],[-75.567931,6.281499],[-75.567965,6.281237],[-75.567984,6.281185],[-75.567985,6.281133],[-75.568097,6.280588],[-75.568557,6.278567],[-75.568691,6.278001],[-75.568696,6.278002],[-75.568711,6.277949],[-75.568703,6.277947],[-75.568737,6.27779],[-75.568753,6.277727],[-75.568759,6.277727],[-75.568758,6.277704],[-75.568885,6.277183],[-75.568896,6.277186],[-75.568982,6.276799],[-75.568991,6.276746],[-75.568988,6.276692],[-75.568978,6.276693],[-75.568974,6.276667],[-75.568979,6.276599],[-75.568958,6.276458],[-75.568957,6.276353],[-75.569031,6.275686],[-75.569287,6.274503],[-75.569974,6.271508],[-75.570201,6.270557],[-75.571167,6.266374],[-75.571411,6.265066],[-75.570067,6.264854],[-75.570092,6.264665],[-75.570218,6.264632],[-75.570298,6.264594],[-75.571496,6.263843],[-75.571748,6.263693],[-75.571825,6.263631],[-75.571873,6.263569],[-75.571912,6.263491],[-75.572134,6.262811],[-75.572374,6.262153],[-75.572302,6.261753],[-75.572071,6.26074],[-75.572043,6.2605],[-75.571959,6.260044],[-75.571947,6.259873],[-75.57193,6.259772],[-75.571759,6.259097],[-75.571707,6.258952],[-75.572387,6.258552],[-75.572421,6.258598],[-75.572484,6.25866],[-75.572545,6.258707],[-75.572598,6.258732],[-75.572818,6.258764],[-75.573512,6.258808],[-75.573589,6.258799],[-75.573663,6.258777],[-75.573726,6.258748],[-75.573759,6.258728],[-75.573891,6.258607],[-75.573994,6.258537],[-75.57457,6.257641],[-75.574667,6.257474],[-75.575206,6.256532],[-75.576072,6.254953],[-75.576031,6.254806],[-75.576027,6.254753],[-75.576049,6.254534],[-75.575964,6.254414],[-75.575922,6.254337],[-75.575883,6.254222],[-75.575875,6.25414],[-75.575879,6.254058],[-75.575902,6.253843],[-75.575893,6.253783],[-75.575872,6.253726],[-75.575841,6.253673],[-75.575809,6.253637],[-75.575758,6.253599],[-75.575638,6.253538],[-75.575466,6.253466],[-75.575344,6.253452],[-75.575517,6.253031],[-75.575817,6.253213],[-75.575881,6.253225],[-75.576724,6.253041],[-75.577122,6.252996],[-75.57716,6.252965],[-75.577203,6.252908],[-75.579163,6.249361],[-75.579184,6.249131],[-75.579134,6.248938],[-75.57913,6.248895],[-75.579077,6.248754],[-75.578981,6.248538],[-75.578917,6.24832],[-75.578746,6.247804],[-75.578715,6.247746],[-75.578653,6.24766],[-75.578604,6.247622],[-75.578551,6.247594],[-75.578441,6.247551],[-75.578277,6.247505],[-75.578079,6.247436],[-75.578182,6.246931],[-75.578298,6.246935],[-75.578402,6.246927],[-75.578509,6.246904],[-75.578588,6.246877],[-75.578691,6.246825],[-75.578779,6.246763],[-75.578847,6.246698],[-75.578907,6.246622],[-75.578988,6.246475],[-75.579035,6.24632],[-75.579046,6.246229],[-75.579039,6.246018],[-75.578775,6.245257],[-75.578746,6.245122],[-75.578635,6.244779],[-75.578581,6.244711],[-75.577317,6.241037],[-75.577176,6.240872],[-75.577136,6.240835],[-75.57644,6.240359],[-75.576311,6.240201],[-75.576162,6.239959],[-75.576127,6.239924],[-75.576064,6.239884],[-75.576034,6.239881],[-75.576006,6.239891],[-75.57578,6.240027],[-75.575714,6.240107],[-75.575663,6.240218],[-75.57518,6.240194],[-75.575187,6.239892],[-75.575179,6.239784],[-75.575126,6.239593],[-75.575081,6.239494],[-75.575015,6.23939],[-75.574931,6.239296],[-75.57487,6.239253],[-75.574949,6.239044],[-75.575001,6.239043],[-75.575101,6.239068],[-75.575189,6.239056],[-75.575284,6.239013],[-75.575342,6.238962],[-75.575385,6.238902],[-75.575416,6.238828],[-75.575428,6.238778],[-75.57546,6.238732],[-75.575853,6.237759],[-75.575906,6.237608],[-75.575907,6.237491],[-75.575892,6.237216],[-75.575848,6.236861],[-75.5758,6.236647],[-75.575647,6.236198],[-75.575646,6.236183],[-75.575656,6.236172],[-75.575621,6.236108],[-75.575188,6.234879],[-75.575214,6.234766],[-75.575198,6.234614],[-75.575051,6.234224],[-75.574935,6.23395],[-75.574853,6.233628],[-75.574797,6.233448],[-75.574774,6.233338],[-75.574763,6.233226],[-75.574684,6.232866],[-75.57457,6.231795],[-75.57435,6.231767],[-75.574327,6.231589],[-75.574303,6.231496],[-75.57427,6.231405],[-75.574221,6.231299],[-75.574162,6.231202],[-75.574103,6.231125],[-75.574015,6.231028],[-75.573919,6.230939],[-75.57403,6.230615],[-75.57412,6.230628],[-75.574207,6.230615],[-75.574297,6.230572],[-75.574373,6.230497],[-75.574404,6.230445],[-75.574426,6.230381],[-75.574441,6.23022],[-75.574619,6.230237],[-75.574615,6.23044],[-75.575028,6.230491],[-75.575045,6.23038],[-75.575127,6.23039],[-75.575645,6.226731],[-75.57584,6.225291],[-75.57625,6.222454],[-75.576317,6.221887],[-75.577397,6.214366],[-75.577415,6.214095],[-75.577411,6.213989],[-75.577388,6.213905],[-75.577356,6.213853],[-75.577316,6.21381],[-75.577272,6.21377],[-75.577228,6.213748],[-75.576669,6.213608],[-75.576214,6.213588],[-75.57624,6.213272],[-75.576287,6.212905],[-75.57635,6.212938],[-75.576407,6.21298],[-75.576513,6.213011],[-75.576543,6.212847],[-75.576696,6.213056],[-75.576749,6.213103],[-75.576782,6.213123],[-75.576914,6.213169],[-75.577005,6.213181],[-75.577144,6.213185],[-75.577283,6.213163],[-75.577396,6.213107],[-75.5776,6.212948],[-75.578267,6.208144],[-75.578849,6.204086],[-75.578688,6.203969],[-75.57808,6.203733],[-75.578254,6.203284],[-75.578343,6.203203],[-75.578404,6.203174],[-75.578932,6.202867],[-75.578996,6.202809],[-75.579031,6.202756],[-75.579055,6.202703],[-75.57941,6.200449],[-75.579613,6.199211],[-75.579717,6.198757],[-75.579967,6.197907],[-75.580091,6.197574],[-75.580574,6.196201],[-75.580731,6.195856],[-75.580677,6.195773],[-75.580628,6.195729],[-75.580404,6.195635],[-75.580331,6.195578],[-75.580257,6.195482],[-75.580228,6.195417],[-75.580213,6.195343],[-75.580202,6.195189],[-75.580179,6.195122],[-75.580153,6.195073],[-75.58013,6.195047],[-75.5801,6.195031],[-75.580148,6.194731],[-75.580296,6.194791],[-75.580399,6.194809],[-75.580517,6.194803],[-75.580621,6.194775],[-75.580763,6.1947],[-75.580957,6.194565],[-75.581131,6.194426],[-75.581285,6.194267],[-75.581671,6.193233],[-75.581695,6.193122],[-75.58177,6.192906],[-75.581842,6.192652],[-75.582013,6.19195],[-75.582398,6.190149],[-75.582657,6.189214],[-75.582716,6.189037],[-75.582797,6.188826],[-75.58289,6.18862],[-75.582978,6.188449],[-75.583192,6.189007],[-75.58326,6.189124],[-75.583162,6.18934],[-75.583045,6.18976],[-75.582923,6.190373],[-75.582782,6.190872],[-75.582525,6.192127],[-75.582372,6.192805],[-75.582115,6.193522],[-75.582145,6.193528],[-75.582106,6.193556],[-75.58201,6.19389],[-75.581963,6.194004],[-75.581337,6.195757],[-75.580874,6.196984],[-75.58081,6.197172],[-75.58111,6.197038],[-75.581154,6.197005],[-75.580841,6.197799],[-75.580616,6.198413],[-75.580503,6.19879],[-75.580357,6.199374],[-75.580542,6.199415],[-75.580502,6.199574],[-75.580503,6.199649],[-75.580523,6.199734],[-75.580569,6.199835],[-75.580643,6.199946],[-75.580459,6.201292],[-75.580406,6.20127],[-75.580319,6.201253],[-75.58026,6.201777],[-75.579887,6.201644],[-75.579645,6.202923],[-75.580987,6.203314],[-75.580772,6.204076],[-75.580786,6.204081],[-75.580703,6.204371],[-75.58087,6.204435],[-75.580763,6.204678],[-75.580721,6.204667],[-75.580471,6.205239],[-75.580023,6.205062],[-75.579965,6.205106],[-75.579938,6.205139],[-75.579762,6.205068],[-75.579427,6.207354],[-75.579601,6.207381],[-75.579593,6.207432],[-75.579435,6.20741],[-75.579237,6.208963],[-75.579372,6.208991],[-75.578886,6.212402],[-75.579762,6.213654],[-75.579988,6.214024],[-75.58003,6.214068],[-75.58009,6.214096],[-75.58004,6.214289],[-75.579649,6.214144],[-75.579577,6.214124],[-75.579506,6.214118],[-75.579435,6.214123],[-75.579366,6.21414],[-75.5793,6.214168],[-75.57878,6.214554],[-75.578713,6.214619],[-75.578563,6.214743],[-75.578501,6.215058],[-75.577764,6.220253],[-75.577537,6.221887],[-75.577049,6.22551],[-75.576444,6.229819],[-75.576535,6.229834],[-75.576908,6.229972],[-75.57716,6.230113],[-75.57735,6.230785],[-75.577465,6.231255],[-75.577528,6.231556],[-75.57757,6.231857],[-75.5776,6.23217],[-75.577611,6.232507],[-75.577607,6.232864],[-75.577583,6.233235],[-75.577539,6.233598],[-75.577471,6.233997],[-75.57739,6.234006],[-75.577372,6.234096],[-75.576519,6.234733],[-75.576225,6.234985],[-75.576401,6.23552],[-75.57694,6.237091],[-75.577137,6.237124],[-75.577442,6.237948],[-75.577594,6.238272],[-75.577762,6.23876],[-75.577853,6.238828],[-75.577936,6.238947],[-75.577991,6.239012],[-75.57805,6.239073],[-75.578179,6.239182],[-75.578249,6.23923],[-75.578391,6.239309],[-75.578694,6.239435],[-75.578687,6.239922],[-75.578593,6.240002],[-75.57855,6.24006],[-75.578408,6.240378],[-75.57841,6.240407],[-75.578752,6.241424],[-75.579695,6.24414],[-75.57975,6.24425],[-75.580206,6.244871],[-75.580537,6.245222],[-75.580842,6.245454],[-75.581433,6.245866],[-75.581641,6.246062],[-75.581732,6.246167],[-75.581811,6.246279],[-75.581991,6.24659],[-75.582071,6.247061],[-75.581941,6.247189],[-75.581969,6.247758],[-75.582023,6.248156],[-75.582276,6.248456],[-75.582459,6.248478],[-75.582332,6.248505],[-75.582213,6.248558],[-75.582107,6.248632],[-75.58206,6.248677],[-75.581981,6.248779],[-75.581923,6.248896],[-75.581903,6.248957],[-75.581847,6.24934],[-75.581789,6.249546],[-75.581751,6.249647],[-75.581708,6.249745],[-75.581604,6.249933],[-75.58148,6.250108],[-75.581411,6.25019],[-75.581233,6.250281],[-75.581044,6.250348],[-75.580848,6.25039],[-75.580749,6.250402],[-75.580459,6.250414],[-75.580365,6.250428],[-75.580182,6.250476],[-75.580007,6.250551],[-75.579925,6.250598],[-75.579743,6.250746],[-75.579507,6.251178],[-75.579564,6.251206],[-75.579627,6.251222],[-75.579747,6.251232],[-75.579934,6.251329],[-75.580492,6.251695],[-75.580688,6.251843],[-75.580516,6.252237],[-75.579915,6.253322],[-75.578594,6.252622],[-75.578241,6.253255],[-75.578472,6.253376],[-75.578237,6.253818],[-75.578202,6.253935],[-75.578192,6.254056],[-75.578208,6.254177],[-75.578225,6.254236],[-75.578278,6.254346],[-75.578313,6.254396],[-75.579442,6.255327],[-75.579176,6.255904],[-75.578405,6.255534],[-75.578302,6.255762],[-75.577797,6.255469],[-75.577414,6.256133],[-75.57703,6.255923],[-75.577001,6.255836],[-75.57539,6.258778],[-75.575254,6.259345],[-75.575222,6.259604],[-75.575197,6.260453],[-75.575199,6.260857],[-75.575179,6.261947],[-75.575204,6.262984],[-75.574812,6.262998],[-75.574777,6.262936],[-75.574731,6.262877],[-75.574676,6.262826],[-75.574614,6.262784],[-75.574545,6.262753],[-75.574473,6.262733],[-75.574266,6.262722],[-75.573868,6.262727],[-75.57379,6.262742],[-75.57371,6.262769],[-75.57364,6.262811],[-75.573566,6.262869],[-75.573499,6.262935],[-75.573441,6.26301],[-75.573393,6.263091],[-75.573346,6.263195],[-75.573195,6.263626],[-75.573183,6.263815],[-75.573192,6.263896],[-75.573213,6.263975],[-75.573245,6.26405],[-75.573516,6.264407],[-75.57356,6.264448],[-75.573947,6.264986],[-75.574082,6.265191],[-75.574125,6.265239],[-75.574167,6.265266],[-75.574108,6.265783],[-75.574012,6.265817],[-75.57384,6.265915],[-75.573837,6.265909],[-75.573736,6.265959],[-75.573599,6.266036],[-75.573023,6.266375],[-75.572692,6.266617],[-75.572429,6.266742],[-75.571743,6.269662],[-75.571717,6.269838],[-75.571419,6.271129],[-75.571403,6.271319],[-75.570726,6.274298],[-75.570674,6.274414],[-75.570428,6.27554],[-75.569378,6.280167],[-75.569398,6.280336],[-75.569328,6.280608],[-75.569182,6.281327],[-75.56915,6.281699],[-75.569153,6.282207],[-75.569185,6.283173],[-75.569177,6.283292],[-75.569161,6.283386],[-75.569135,6.283484],[-75.569079,6.283639],[-75.568929,6.28396],[-75.568354,6.285055],[-75.568184,6.285412],[-75.568086,6.285997],[-75.568072,6.286215],[-75.568079,6.286367],[-75.568138,6.287028],[-75.568164,6.287128],[-75.568203,6.287202],[-75.567911,6.28773],[-75.56787,6.28785],[-75.567833,6.287743],[-75.567752,6.287628],[-75.567633,6.287566],[-75.567404,6.287485],[-75.567337,6.287466],[-75.567107,6.287427],[-75.566935,6.28736],[-75.566815,6.287327],[-75.566638,6.287307],[-75.566542,6.287342],[-75.566479,6.287423],[-75.566462,6.287478],[-75.566397,6.287891],[-75.566271,6.288848],[-75.566229,6.289047],[-75.566121,6.289312],[-75.565964,6.289565],[-75.565819,6.289754],[-75.56515,6.290577],[-75.564732,6.291112],[-75.564616,6.29132],[-75.564572,6.291427],[-75.564525,6.291613],[-75.5645,6.291758],[-75.564482,6.291938],[-75.564469,6.29214],[-75.564492,6.292319],[-75.564492,6.292433],[-75.564474,6.292593],[-75.564356,6.292959],[-75.564184,6.293406],[-75.56417,6.293475],[-75.564165,6.29357],[-75.563822,6.293411],[-75.563737,6.293755],[-75.563674,6.293929],[-75.563553,6.294168],[-75.563436,6.294338],[-75.563323,6.294469],[-75.561338,6.296579],[-75.560929,6.297635],[-75.560894,6.297615],[-75.560898,6.297543],[-75.560886,6.297495],[-75.560863,6.297452],[-75.560829,6.297416],[-75.560789,6.297389],[-75.560743,6.297372],[-75.560699,6.297368],[-75.560646,6.297374],[-75.560601,6.297392],[-75.560561,6.297421],[-75.560401,6.297614],[-75.560326,6.297677],[-75.56019,6.297764],[-75.560006,6.297982],[-75.559912,6.298129],[-75.559889,6.298179],[-75.559893,6.298248],[-75.559548,6.299066],[-75.559498,6.299205],[-75.558942,6.300504],[-75.558749,6.301032],[-75.558519,6.301756],[-75.558175,6.302895],[-75.557997,6.303594],[-75.557948,6.303859],[-75.55793,6.304099],[-75.557934,6.304312],[-75.558059,6.305584],[-75.558098,6.305852],[-75.558445,6.307878],[-75.558476,6.308111],[-75.558489,6.30833],[-75.558485,6.308605],[-75.558461,6.308855],[-75.558414,6.309117],[-75.558354,6.309347],[-75.558264,6.309604],[-75.558164,6.309831],[-75.558059,6.310028],[-75.557921,6.310245],[-75.556917,6.311699],[-75.556621,6.311531],[-75.556308,6.311391],[-75.556458,6.311197],[-75.557106,6.31029],[-75.557171,6.310168],[-75.557114,6.31015]]]}},{"type":"Feature","properties":{"codigo_tramiento":"Z6_CN1_29","tratamiento":"Consolidación Nivel 1","tipo":"CN1","densidadmax":"350","indiceconstruccmax":"N/A","alturanormativa":"6"},"geometry":{"type":"Polygon","coordinates":[[[-75.585317,6.215513],[-75.58464,6.215154],[-75.584011,6.214794],[-75.584025,6.214767],[-75.583848,6.214674],[-75.583839,6.21469],[-75.582997,6.214239],[-75.583095,6.214059],[-75.582433,6.213709],[-75.582754,6.213198],[-75.582968,6.212885],[-75.583203,6.212488],[-75.583776,6.21157],[-75.583991,6.211206],[-75.584288,6.210759],[-75.58452,6.210384],[-75.584727,6.210002],[-75.585457,6.208284],[-75.58574,6.207654],[-75.585921,6.207178],[-75.586402,6.206033],[-75.586837,6.204965],[-75.58712,6.204301],[-75.588462,6.205072],[-75.588658,6.205262],[-75.588762,6.205399],[-75.588811,6.205504],[-75.588974,6.206123],[-75.589113,6.206711],[-75.589309,6.207405],[-75.589367,6.207526],[-75.589401,6.207577],[-75.58956,6.207777],[-75.589636,6.20785],[-75.589767,6.207953],[-75.590039,6.208031],[-75.59029,6.20807],[-75.591929,6.208199],[-75.591907,6.208399],[-75.591828,6.208625],[-75.591786,6.208706],[-75.591707,6.208817],[-75.591367,6.209177],[-75.590964,6.209575],[-75.590767,6.2098],[-75.590569,6.21005],[-75.590479,6.210184],[-75.590378,6.210417],[-75.590268,6.210781],[-75.590223,6.210997],[-75.590186,6.211092],[-75.590129,6.211186],[-75.590085,6.211237],[-75.589984,6.211313],[-75.589888,6.211355],[-75.589819,6.211366],[-75.589745,6.211369],[-75.589647,6.211334],[-75.589102,6.211047],[-75.588555,6.210745],[-75.588504,6.211022],[-75.588293,6.212373],[-75.588151,6.213092],[-75.58673,6.212796],[-75.586622,6.213223],[-75.586229,6.215363],[-75.585713,6.21532],[-75.585618,6.215577],[-75.585592,6.215619],[-75.585497,6.215591],[-75.585317,6.215513]]]}},{"type":"Feature","properties":{"codigo_tramiento":"Z5_CN4_9","tratamiento":"Consolidación Nivel 4","tipo":"CN4","densidadmax":"220","indiceconstruccmax":"N/A","alturanormativa":"Variable 1"},"geometry":{"type":"Polygon","coordinates":[[[-75.5696,6.211099],[-75.568889,6.210833],[-75.568507,6.210703],[-75.567708,6.210405],[-75.567619,6.210625],[-75.567485,6.211018],[-75.567419,6.210992],[-75.567399,6.211045],[-75.567264,6.210969],[-75.567247,6.210925],[-75.566104,6.210517],[-75.566047,6.210656],[-75.565402,6.210411],[-75.5657,6.209639],[-75.565983,6.20888],[-75.565561,6.208717],[-75.565836,6.20806],[-75.566055,6.207503],[-75.566115,6.20752],[-75.566118,6.207512],[-75.566195,6.207542],[-75.566577,6.207647],[-75.566335,6.207005],[-75.566209,6.206635],[-75.566501,6.206449],[-75.566472,6.206477],[-75.566583,6.206659],[-75.566672,6.206827],[-75.566781,6.206968],[-75.566857,6.20704],[-75.566947,6.207162],[-75.567103,6.207296],[-75.567269,6.207255],[-75.567328,6.207253],[-75.567545,6.20709],[-75.567709,6.207019],[-75.567815,6.207052],[-75.567895,6.207063],[-75.567988,6.207088],[-75.568086,6.207119],[-75.568173,6.207157],[-75.568246,6.207203],[-75.568399,6.207353],[-75.568513,6.207425],[-75.568577,6.207486],[-75.568592,6.207487],[-75.568578,6.207524],[-75.568669,6.207524],[-75.568886,6.207664],[-75.568757,6.207868],[-75.568752,6.207866],[-75.568689,6.207949],[-75.568753,6.207971],[-75.569119,6.208139],[-75.569188,6.208144],[-75.569251,6.208136],[-75.569328,6.208106],[-75.569396,6.208054],[-75.569438,6.208067],[-75.56949,6.207924],[-75.569528,6.207887],[-75.570053,6.208041],[-75.570068,6.208091],[-75.570066,6.208146],[-75.570096,6.208184],[-75.570121,6.208266],[-75.570261,6.208331],[-75.570406,6.208381],[-75.570409,6.208373],[-75.570691,6.208482],[-75.570719,6.208487],[-75.571134,6.208253],[-75.571297,6.208267],[-75.571291,6.208364],[-75.571368,6.208374],[-75.571752,6.208479],[-75.571996,6.208562],[-75.573816,6.209259],[-75.574267,6.209422],[-75.573677,6.210964],[-75.573402,6.211719],[-75.574324,6.212206],[-75.573904,6.212882],[-75.573758,6.213091],[-75.573472,6.213583],[-75.573352,6.213905],[-75.573103,6.214665],[-75.572925,6.21515],[-75.572878,6.215141],[-75.572747,6.215094],[-75.571476,6.214787],[-75.571364,6.214773],[-75.571058,6.214764],[-75.570991,6.214775],[-75.570797,6.214831],[-75.570609,6.214798],[-75.570429,6.214784],[-75.570071,6.214724],[-75.570071,6.214713],[-75.569961,6.21469],[-75.569993,6.212791],[-75.57009,6.212783],[-75.570374,6.212858],[-75.570431,6.212474],[-75.570636,6.212501],[-75.570645,6.21244],[-75.570374,6.212405],[-75.5704,6.21198],[-75.570029,6.211989],[-75.570076,6.21167],[-75.570216,6.211224],[-75.56991,6.211163],[-75.569735,6.211138],[-75.5696,6.211099]]]}},{"type":"Feature","properties":{"codigo_tramiento":"Z5_CN5_15","tratamiento":"Consolidación Nivel 5","tipo":"CN5","densidadmax":"220","indiceconstruccmax":"2,5","alturanormativa":"N/A"},"geometry":{"type":"Polygon","coordinates":[[[-75.576085,6.214951],[-75.576161,6.214224],[-75.576214,6.213588],[-75.576669,6.213608],[-75.577228,6.213748],[-75.577272,6.21377],[-75.577356,6.213853],[-75.577388,6.213905],[-75.577411,6.213989],[-75.577417,6.214049],[-75.577397,6.214366],[-75.577295,6.215076],[-75.577268,6.215067],[-75.577113,6.215078],[-75.576085,6.214951]]]}},{"type":"Feature","properties":{"codigo_tramiento":"Z6_CN1_5","tratamiento":"Consolidación Nivel 1","tipo":"CN1","densidadmax":"350","indiceconstruccmax":"N/A","alturanormativa":"5"},"geometry":{"type":"Polygon","coordinates":[[[-75.583512,6.207035],[-75.583021,6.206843],[-75.582957,6.207009],[-75.582173,6.206881],[-75.582512,6.206056],[-75.582016,6.205854],[-75.581816,6.205785],[-75.581081,6.205478],[-75.580471,6.205239],[-75.580721,6.204667],[-75.580763,6.204678],[-75.58087,6.204435],[-75.580703,6.204371],[-75.580786,6.204081],[-75.580772,6.204076],[-75.580987,6.203314],[-75.582603,6.203785],[-75.582626,6.203807],[-75.582659,6.203772],[-75.58271,6.203753],[-75.582777,6.203744],[-75.582946,6.203768],[-75.583019,6.203807],[-75.583171,6.203337],[-75.583301,6.202857],[-75.583283,6.202381],[-75.583538,6.202475],[-75.584509,6.202896],[-75.585201,6.203219],[-75.5859,6.203591],[-75.58712,6.204301],[-75.586837,6.204965],[-75.586402,6.206033],[-75.585921,6.207178],[-75.58574,6.207654],[-75.58568,6.207787],[-75.585493,6.207689],[-75.585065,6.207517],[-75.584179,6.207196],[-75.583406,6.207091],[-75.583512,6.207035]]]}},{"type":"Feature","properties":{"codigo_tramiento":"Z5_R_25","tratamiento":"Renovación Urbana","tipo":"R","densidadmax":"250","indiceconstruccmax":"2,5","alturanormativa":"N/A"},"geometry":{"type":"Polygon","coordinates":[[[-75.572925,6.21515],[-75.573103,6.214665],[-75.573352,6.213905],[-75.573472,6.213583],[-75.573758,6.213091],[-75.573904,6.212882],[-75.574063,6.212909],[-75.574718,6.213054],[-75.575506,6.213093],[-75.57624,6.213272],[-75.576161,6.214224],[-75.576085,6.214951],[-75.575526,6.214891],[-75.575473,6.214836],[-75.575295,6.214803],[-75.574933,6.214763],[-75.574732,6.214754],[-75.574625,6.214779],[-75.574149,6.214924],[-75.574016,6.214974],[-75.573739,6.215092],[-75.57345,6.21516],[-75.573194,6.215263],[-75.573066,6.215384],[-75.572925,6.21515]]]}},{"type":"Feature","properties":{"codigo_tramiento":"Z6_R_30","tratamiento":"Renovación Urbana","tipo":"R","densidadmax":"310","indiceconstruccmax":"2,5","alturanormativa":"N/A"},"geometry":{"type":"Polygon","coordinates":[[[-75.580439,6.219152],[-75.580792,6.217602],[-75.580401,6.217516],[-75.580209,6.217452],[-75.578223,6.217019],[-75.578501,6.215058],[-75.578563,6.214743],[-75.578713,6.214619],[-75.57878,6.214554],[-75.578908,6.214457],[-75.579241,6.214207],[-75.5793,6.214168],[-75.579366,6.21414],[-75.579435,6.214123],[-75.579506,6.214118],[-75.579577,6.214124],[-75.579649,6.214144],[-75.58004,6.214289],[-75.58009,6.214096],[-75.58003,6.214068],[-75.579988,6.214024],[-75.579762,6.213654],[-75.578886,6.212402],[-75.579111,6.21082],[-75.579204,6.210846],[-75.579207,6.210826],[-75.583452,6.211789],[-75.583594,6.211855],[-75.583203,6.212488],[-75.582968,6.212885],[-75.582754,6.213198],[-75.582433,6.213709],[-75.583095,6.214059],[-75.582997,6.214239],[-75.583839,6.21469],[-75.583848,6.214674],[-75.584025,6.214767],[-75.584011,6.214794],[-75.58464,6.215154],[-75.585317,6.215513],[-75.585497,6.215591],[-75.585592,6.215619],[-75.585618,6.215577],[-75.585713,6.21532],[-75.586229,6.215363],[-75.586031,6.216439],[-75.585913,6.217472],[-75.585754,6.218124],[-75.585595,6.21873],[-75.585506,6.219109],[-75.58541,6.219377],[-75.585155,6.219962],[-75.585039,6.220202],[-75.583919,6.219932],[-75.582051,6.2195],[-75.580439,6.219152]]]}},{"type":"Feature","properties":{"codigo_tramiento":"Z6_R_29","tratamiento":"Renovación Urbana","tipo":"R","densidadmax":"310","indiceconstruccmax":"2,5","alturanormativa":"N/A"},"geometry":{"type":"Polygon","coordinates":[[[-75.579111,6.21082],[-75.579372,6.208991],[-75.579237,6.208963],[-75.579435,6.20741],[-75.579593,6.207432],[-75.579601,6.207381],[-75.579427,6.207354],[-75.579762,6.205068],[-75.579938,6.205139],[-75.579965,6.205106],[-75.580023,6.205062],[-75.581081,6.205478],[-75.581816,6.205785],[-75.582016,6.205854],[-75.582512,6.206056],[-75.582173,6.206881],[-75.582957,6.207009],[-75.583021,6.206843],[-75.583512,6.207035],[-75.583406,6.207091],[-75.584179,6.207196],[-75.585065,6.207517],[-75.585493,6.207689],[-75.58568,6.207787],[-75.585457,6.208284],[-75.584727,6.210002],[-75.58452,6.210384],[-75.584288,6.210759],[-75.583991,6.211206],[-75.58382,6.211498],[-75.583594,6.211855],[-75.583452,6.211789],[-75.579207,6.210826],[-75.579204,6.210846],[-75.579111,6.21082]]]}},{"type":"Feature","properties":{"codigo_tramiento":"Z6_R_28","tratamiento":"Renovación Urbana","tipo":"R","densidadmax":"310","indiceconstruccmax":"2,5","alturanormativa":"N/A"},"geometry":{"type":"Polygon","coordinates":[[[-75.582603,6.203785],[-75.579645,6.202923],[-75.579887,6.201644],[-75.58026,6.201777],[-75.580319,6.201253],[-75.580406,6.20127],[-75.580459,6.201292],[-75.580643,6.199946],[-75.580569,6.199835],[-75.580523,6.199734],[-75.580503,6.199649],[-75.580502,6.199574],[-75.580542,6.199415],[-75.580357,6.199374],[-75.580503,6.19879],[-75.580616,6.198413],[-75.580841,6.197799],[-75.581154,6.197005],[-75.581616,6.196664],[-75.58316,6.195823],[-75.58654,6.196651],[-75.586516,6.196712],[-75.586945,6.196838],[-75.586812,6.197251],[-75.586577,6.198059],[-75.587243,6.198243],[-75.586954,6.198992],[-75.585063,6.198441],[-75.584245,6.201692],[-75.58418,6.202047],[-75.584185,6.202162],[-75.58421,6.20234],[-75.584273,6.20255],[-75.584336,6.202689],[-75.584393,6.202773],[-75.584509,6.202896],[-75.583538,6.202475],[-75.583283,6.202381],[-75.583301,6.202857],[-75.583171,6.203337],[-75.583019,6.203807],[-75.582946,6.203768],[-75.582777,6.203744],[-75.58271,6.203753],[-75.582659,6.203772],[-75.582626,6.203807],[-75.582603,6.203785]]]}},{"type":"Feature","properties":{"codigo_tramiento":"Z6_R_47","tratamiento":"Renovación Urbana","tipo":"R","densidadmax":"310","indiceconstruccmax":"2,5","alturanormativa":"N/A"},"geometry":{"type":"Polygon","coordinates":[[[-75.58712,6.204301],[-75.5859,6.203591],[-75.585201,6.203219],[-75.584509,6.202896],[-75.584393,6.202773],[-75.584336,6.202689],[-75.584273,6.20255],[-75.58421,6.20234],[-75.584185,6.202162],[-75.58418,6.202047],[-75.584195,6.201945],[-75.584245,6.201692],[-75.584481,6.200738],[-75.58467,6.200016],[-75.585063,6.198441],[-75.586954,6.198992],[-75.587243,6.198243],[-75.586577,6.198059],[-75.586812,6.197251],[-75.586945,6.196838],[-75.586516,6.196712],[-75.58654,6.196651],[-75.58735,6.196849],[-75.587496,6.19682],[-75.587633,6.196683],[-75.588383,6.194879],[-75.588469,6.194891],[-75.588495,6.194883],[-75.588524,6.194886],[-75.588735,6.194751],[-75.58924,6.194489],[-75.589331,6.194451],[-75.589333,6.194442],[-75.589601,6.194296],[-75.589604,6.194279],[-75.589649,6.194256],[-75.589696,6.194259],[-75.589841,6.194201],[-75.589847,6.194151],[-75.590022,6.194055],[-75.590031,6.194063],[-75.590258,6.193947],[-75.590205,6.193925],[-75.590209,6.193903],[-75.590465,6.193781],[-75.590513,6.193765],[-75.590567,6.193768],[-75.590573,6.193745],[-75.59055,6.193743],[-75.5906,6.193673],[-75.59061,6.193675],[-75.590615,6.193657],[-75.590782,6.193481],[-75.590831,6.193464],[-75.590897,6.193415],[-75.591056,6.193384],[-75.591217,6.193282],[-75.591209,6.193278],[-75.591245,6.193212],[-75.59127,6.193225],[-75.591343,6.193188],[-75.591387,6.193206],[-75.591378,6.193171],[-75.591401,6.193148],[-75.591528,6.193164],[-75.591648,6.193249],[-75.59154,6.193491],[-75.591532,6.193558],[-75.590223,6.196691],[-75.58979,6.197766],[-75.588242,6.20153],[-75.58712,6.204301]],[[-75.586457,6.202311],[-75.586969,6.20102],[-75.587645,6.201284],[-75.587823,6.200857],[-75.587887,6.200658],[-75.58807,6.200734],[-75.58813,6.200585],[-75.588176,6.200604],[-75.58835,6.200186],[-75.588262,6.200149],[-75.588244,6.20019],[-75.587623,6.199936],[-75.58729,6.199863],[-75.587259,6.199872],[-75.587234,6.199895],[-75.587159,6.20008],[-75.586687,6.199895],[-75.586683,6.199902],[-75.586624,6.199878],[-75.586485,6.200246],[-75.586267,6.200757],[-75.585956,6.201374],[-75.585764,6.201329],[-75.585356,6.201806],[-75.585303,6.201886],[-75.586457,6.202311]]]}},{"type":"Feature","properties":{"codigo_tramiento":"Z5_R_27","tratamiento":"Renovación Urbana","tipo":"R","densidadmax":"250","indiceconstruccmax":"2,5","alturanormativa":"N/A"},"geometry":{"type":"Polygon","coordinates":[[[-75.578646,6.197387],[-75.578351,6.197352],[-75.579101,6.19562],[-75.579109,6.195579],[-75.57933,6.195072],[-75.579465,6.194712],[-75.578274,6.194431],[-75.57807,6.194355],[-75.577838,6.194238],[-75.57775,6.194182],[-75.577648,6.194101],[-75.577429,6.193852],[-75.577403,6.193837],[-75.577395,6.193807],[-75.577415,6.193783],[-75.577413,6.193749],[-75.577379,6.193671],[-75.577345,6.193616],[-75.57732,6.19354],[-75.577301,6.19353],[-75.577279,6.193492],[-75.577198,6.193411],[-75.576907,6.193188],[-75.576918,6.193163],[-75.577046,6.192992],[-75.576967,6.192944],[-75.577162,6.192484],[-75.576904,6.192286],[-75.577085,6.19198],[-75.577281,6.191586],[-75.577289,6.191591],[-75.57753,6.190654],[-75.577912,6.18926],[-75.578087,6.188555],[-75.578354,6.187591],[-75.578472,6.187477],[-75.578556,6.187371],[-75.579119,6.186775],[-75.579211,6.186689],[-75.579251,6.186667],[-75.579335,6.18666],[-75.57939,6.186669],[-75.579462,6.186707],[-75.579614,6.186873],[-75.580111,6.186459],[-75.580308,6.18633],[-75.580367,6.186588],[-75.58042,6.18672],[-75.580494,6.186832],[-75.581361,6.187621],[-75.581509,6.18774],[-75.58164,6.187836],[-75.581691,6.18786],[-75.581829,6.187895],[-75.582338,6.188137],[-75.582854,6.188259],[-75.582904,6.188254],[-75.582978,6.188449],[-75.58289,6.18862],[-75.582797,6.188826],[-75.582716,6.189037],[-75.582657,6.189214],[-75.582398,6.190149],[-75.582013,6.19195],[-75.581842,6.192652],[-75.58177,6.192906],[-75.581695,6.193122],[-75.581671,6.193233],[-75.581285,6.194267],[-75.581131,6.194426],[-75.580957,6.194565],[-75.580763,6.1947],[-75.580621,6.194775],[-75.580517,6.194803],[-75.580399,6.194809],[-75.580296,6.194791],[-75.580148,6.194731],[-75.5801,6.195031],[-75.58013,6.195047],[-75.580153,6.195073],[-75.580179,6.195122],[-75.580202,6.195189],[-75.580213,6.195343],[-75.580228,6.195417],[-75.580257,6.195482],[-75.580331,6.195578],[-75.580404,6.195635],[-75.580628,6.195729],[-75.580677,6.195773],[-75.580731,6.195856],[-75.580574,6.196201],[-75.580077,6.197614],[-75.579516,6.197517],[-75.578646,6.197387]]]}},{"type":"Feature","properties":{"codigo_tramiento":"Z5_R_26","tratamiento":"Renovación Urbana","tipo":"R","densidadmax":"250","indiceconstruccmax":"2,5","alturanormativa":"N/A"},"geometry":{"type":"Polygon","coordinates":[[[-75.573904,6.212882],[-75.574324,6.212206],[-75.573402,6.211719],[-75.573677,6.210964],[-75.574268,6.209419],[-75.57429,6.209288],[-75.574275,6.209215],[-75.574208,6.209096],[-75.574108,6.20895],[-75.574089,6.208906],[-75.573964,6.208291],[-75.573944,6.208129],[-75.573842,6.208204],[-75.573729,6.208248],[-75.573551,6.208285],[-75.573392,6.208301],[-75.573179,6.208307],[-75.573039,6.208303],[-75.573031,6.208115],[-75.573035,6.207913],[-75.573021,6.207881],[-75.572947,6.207523],[-75.572885,6.207077],[-75.572883,6.206809],[-75.572946,6.206307],[-75.572995,6.20613],[-75.573012,6.2061],[-75.573037,6.206077],[-75.573482,6.206062],[-75.57434,6.206511],[-75.575386,6.206971],[-75.576782,6.207608],[-75.576316,6.212659],[-75.57624,6.213272],[-75.575506,6.213093],[-75.574718,6.213054],[-75.574063,6.212909],[-75.573904,6.212882]]]}},{"type":"Feature","properties":{"codigo_tramiento":"Z5_CN3_33","tratamiento":"Consolidación Nivel 3","tipo":"CN3","densidadmax":"75","indiceconstruccmax":"N/A","alturanormativa":"4"},"geometry":{"type":"Polygon","coordinates":[[[-75.567726,6.196969],[-75.568287,6.196926],[-75.568434,6.196931],[-75.568275,6.197291],[-75.568201,6.197504],[-75.568141,6.197727],[-75.568197,6.19775],[-75.568112,6.197968],[-75.56795,6.198321],[-75.567194,6.198128],[-75.567281,6.197892],[-75.567353,6.197756],[-75.567335,6.197707],[-75.56662,6.19747],[-75.566613,6.197487],[-75.566592,6.197481],[-75.566529,6.197684],[-75.566508,6.197678],[-75.566369,6.19804],[-75.566436,6.198062],[-75.566388,6.198219],[-75.566207,6.198157],[-75.566227,6.198109],[-75.566044,6.198032],[-75.566024,6.198088],[-75.565693,6.197957],[-75.565688,6.197967],[-75.565528,6.197904],[-75.565529,6.197874],[-75.565356,6.197778],[-75.565158,6.197708],[-75.56488,6.197581],[-75.564708,6.197975],[-75.564533,6.197895],[-75.564429,6.197834],[-75.564469,6.19776],[-75.564485,6.197769],[-75.564532,6.197633],[-75.564589,6.197534],[-75.564052,6.197249],[-75.563855,6.197634],[-75.563509,6.197567],[-75.563531,6.197469],[-75.563483,6.197461],[-75.563505,6.197421],[-75.563518,6.19731],[-75.563573,6.197092],[-75.563401,6.197014],[-75.563367,6.197011],[-75.563324,6.197028],[-75.563297,6.19706],[-75.563201,6.197278],[-75.563176,6.197316],[-75.563157,6.197485],[-75.56292,6.197474],[-75.562898,6.197519],[-75.562881,6.197534],[-75.562936,6.197723],[-75.562947,6.1979],[-75.562962,6.197992],[-75.562955,6.198031],[-75.562514,6.197788],[-75.562402,6.197767],[-75.562391,6.197854],[-75.562171,6.198823],[-75.562166,6.198887],[-75.56219,6.198972],[-75.56222,6.199013],[-75.562278,6.199046],[-75.562552,6.199148],[-75.562908,6.199263],[-75.563044,6.199318],[-75.562867,6.199669],[-75.562808,6.199772],[-75.56272,6.199874],[-75.562647,6.200027],[-75.562335,6.199967],[-75.562116,6.199917],[-75.561924,6.199864],[-75.561816,6.199847],[-75.561294,6.200839],[-75.561127,6.200772],[-75.561063,6.200724],[-75.561045,6.200697],[-75.561037,6.200655],[-75.561063,6.200541],[-75.560982,6.200411],[-75.56095,6.20038],[-75.560887,6.200341],[-75.560851,6.200328],[-75.560747,6.200325],[-75.560695,6.200287],[-75.56059,6.200184],[-75.560496,6.200035],[-75.56046,6.199993],[-75.560377,6.199949],[-75.560207,6.199896],[-75.560034,6.199869],[-75.559964,6.199851],[-75.559871,6.199804],[-75.559832,6.199761],[-75.559804,6.199716],[-75.559468,6.199675],[-75.55947,6.199644],[-75.559496,6.199575],[-75.559611,6.199366],[-75.559634,6.199263],[-75.559629,6.199197],[-75.559614,6.199144],[-75.559552,6.199027],[-75.55955,6.198978],[-75.559379,6.198895],[-75.559299,6.19883],[-75.559272,6.19871],[-75.559281,6.198617],[-75.560156,6.197458],[-75.561276,6.195106],[-75.561363,6.19504],[-75.561451,6.195004],[-75.561751,6.195004],[-75.56188,6.194966],[-75.562149,6.195017],[-75.562436,6.195093],[-75.562619,6.195164],[-75.562651,6.195145],[-75.562687,6.195195],[-75.562644,6.19526],[-75.562555,6.195458],[-75.56256,6.195487],[-75.562612,6.19555],[-75.562616,6.195582],[-75.562484,6.195998],[-75.562461,6.196025],[-75.562435,6.196034],[-75.562313,6.196019],[-75.562292,6.196033],[-75.562271,6.196063],[-75.562744,6.196301],[-75.562845,6.19636],[-75.562864,6.196328],[-75.563428,6.196553],[-75.563744,6.196717],[-75.564213,6.197045],[-75.564229,6.197068],[-75.56425,6.197081],[-75.564374,6.197087],[-75.564739,6.196944],[-75.564958,6.196876],[-75.565105,6.196906],[-75.565472,6.197003],[-75.565547,6.196861],[-75.565716,6.196907],[-75.565791,6.196891],[-75.565837,6.196852],[-75.565894,6.196757],[-75.565926,6.196747],[-75.566096,6.196727],[-75.566317,6.196574],[-75.566436,6.196481],[-75.566458,6.196479],[-75.566524,6.196416],[-75.566691,6.196538],[-75.566926,6.196674],[-75.567158,6.196802],[-75.567423,6.19692],[-75.567515,6.196948],[-75.567726,6.196969]]]}},{"type":"Feature","properties":{"codigo_tramiento":"Z5_CN5_18","tratamiento":"Consolidación Nivel 5","tipo":"CN5","densidadmax":"120","indiceconstruccmax":"1,4","alturanormativa":"N/A"},"geometry":{"type":"Polygon","coordinates":[[[-75.565783,6.224509],[-75.565253,6.224659],[-75.565105,6.224092],[-75.565074,6.223917],[-75.565067,6.223771],[-75.565076,6.223607],[-75.565114,6.223346],[-75.565323,6.22207],[-75.565438,6.221432],[-75.565453,6.221268],[-75.565506,6.221081],[-75.565533,6.221038],[-75.565662,6.220883],[-75.565972,6.220653],[-75.566101,6.220591],[-75.566186,6.220516],[-75.566266,6.220427],[-75.566312,6.220356],[-75.566346,6.220256],[-75.566361,6.220176],[-75.566349,6.220001],[-75.566188,6.219534],[-75.566046,6.219162],[-75.566034,6.219101],[-75.566032,6.219005],[-75.566049,6.218768],[-75.566049,6.218593],[-75.56601,6.218612],[-75.565964,6.218668],[-75.565901,6.218689],[-75.565763,6.218843],[-75.565717,6.218738],[-75.565684,6.218686],[-75.565628,6.218628],[-75.565179,6.218665],[-75.565201,6.218549],[-75.565314,6.218106],[-75.565203,6.218115],[-75.564982,6.218118],[-75.564873,6.218108],[-75.56478,6.218088],[-75.564668,6.21804],[-75.564603,6.217992],[-75.564527,6.217917],[-75.564467,6.217823],[-75.564425,6.217718],[-75.564408,6.217625],[-75.564396,6.217513],[-75.564374,6.216955],[-75.564343,6.216813],[-75.564306,6.216702],[-75.564267,6.216615],[-75.564195,6.216508],[-75.563643,6.216013],[-75.5635,6.215862],[-75.563393,6.215783],[-75.563206,6.215675],[-75.563023,6.215614],[-75.56271,6.215539],[-75.561913,6.215367],[-75.561941,6.215236],[-75.561946,6.215237],[-75.562069,6.2149],[-75.562079,6.214841],[-75.56214,6.214838],[-75.562208,6.214812],[-75.562283,6.214766],[-75.56233,6.214708],[-75.562394,6.214604],[-75.562452,6.214203],[-75.562534,6.213528],[-75.562548,6.213449],[-75.562577,6.213381],[-75.562656,6.213284],[-75.562724,6.213219],[-75.563262,6.213101],[-75.563423,6.213051],[-75.563471,6.212945],[-75.563554,6.212688],[-75.563618,6.212708],[-75.563714,6.212405],[-75.563595,6.212366],[-75.563691,6.212056],[-75.563517,6.211986],[-75.563614,6.211655],[-75.563344,6.211578],[-75.563178,6.211552],[-75.563013,6.211538],[-75.563013,6.21146],[-75.56303,6.211455],[-75.563022,6.211438],[-75.56302,6.211263],[-75.56308,6.211193],[-75.562947,6.211171],[-75.5628,6.210549],[-75.563543,6.210356],[-75.563397,6.209763],[-75.563361,6.209656],[-75.563327,6.209596],[-75.563302,6.209492],[-75.563302,6.209362],[-75.56333,6.209165],[-75.563323,6.209032],[-75.563243,6.208691],[-75.563715,6.208662],[-75.563854,6.208637],[-75.563983,6.208601],[-75.563893,6.208515],[-75.563833,6.208437],[-75.563763,6.208342],[-75.563619,6.208118],[-75.563521,6.207923],[-75.563503,6.207847],[-75.5635,6.207717],[-75.563553,6.207593],[-75.563603,6.207604],[-75.56388,6.207585],[-75.563834,6.207406],[-75.563821,6.207318],[-75.563811,6.206868],[-75.563794,6.206731],[-75.563724,6.206547],[-75.564221,6.206381],[-75.564091,6.205963],[-75.564331,6.205943],[-75.564286,6.20556],[-75.564292,6.20556],[-75.5644,6.205147],[-75.564498,6.204968],[-75.564224,6.204861],[-75.564396,6.204451],[-75.564417,6.204188],[-75.564313,6.204154],[-75.564179,6.204086],[-75.564077,6.203868],[-75.564029,6.203922],[-75.563973,6.203826],[-75.565115,6.201709],[-75.565105,6.201602],[-75.565113,6.20152],[-75.56515,6.201411],[-75.5654,6.200943],[-75.565456,6.200858],[-75.565716,6.20033],[-75.566008,6.199389],[-75.56604,6.199359],[-75.566247,6.199051],[-75.566066,6.198967],[-75.566388,6.198229],[-75.566436,6.198062],[-75.566369,6.19804],[-75.566508,6.197678],[-75.566529,6.197684],[-75.566592,6.197481],[-75.566613,6.197487],[-75.56662,6.19747],[-75.567335,6.197707],[-75.567353,6.197756],[-75.567281,6.197892],[-75.567194,6.198128],[-75.56795,6.198321],[-75.568112,6.197968],[-75.568197,6.19775],[-75.568141,6.197727],[-75.568201,6.197504],[-75.568275,6.197291],[-75.568434,6.196931],[-75.568287,6.196926],[-75.567945,6.196953],[-75.568165,6.196096],[-75.568004,6.195711],[-75.567946,6.195614],[-75.568038,6.195616],[-75.568121,6.195577],[-75.568176,6.195576],[-75.56824,6.195586],[-75.568161,6.195475],[-75.568032,6.195364],[-75.568011,6.195323],[-75.568013,6.195296],[-75.568059,6.195252],[-75.568075,6.195211],[-75.568044,6.19513],[-75.567982,6.195053],[-75.567931,6.19503],[-75.567876,6.194992],[-75.567814,6.194899],[-75.567756,6.19484],[-75.56791,6.194663],[-75.568037,6.19454],[-75.568621,6.193846],[-75.569106,6.193138],[-75.569164,6.193048],[-75.568911,6.192894],[-75.569041,6.192572],[-75.569343,6.192692],[-75.56965,6.191927],[-75.569725,6.192011],[-75.56978,6.192118],[-75.569802,6.192212],[-75.569821,6.192412],[-75.56988,6.192049],[-75.56967,6.191092],[-75.569772,6.191071],[-75.569889,6.191059],[-75.5699,6.191052],[-75.569927,6.19087],[-75.569914,6.190856],[-75.569918,6.190794],[-75.57042,6.19091],[-75.570663,6.190001],[-75.570872,6.190053],[-75.570913,6.190104],[-75.570972,6.190119],[-75.571326,6.190045],[-75.571389,6.190013],[-75.571688,6.189929],[-75.572134,6.189754],[-75.572112,6.190106],[-75.572221,6.190176],[-75.572478,6.190093],[-75.572476,6.190049],[-75.572578,6.190001],[-75.572708,6.189897],[-75.572722,6.189879],[-75.572756,6.189762],[-75.572796,6.189672],[-75.572877,6.189551],[-75.572949,6.189471],[-75.573071,6.189478],[-75.573159,6.189508],[-75.573255,6.189507],[-75.573423,6.18953],[-75.573466,6.18955],[-75.573508,6.189554],[-75.573601,6.189583],[-75.573641,6.189628],[-75.573794,6.189763],[-75.573779,6.189918],[-75.573634,6.190023],[-75.573669,6.190827],[-75.573514,6.191216],[-75.573644,6.191216],[-75.573912,6.191244],[-75.574143,6.191291],[-75.574366,6.191361],[-75.574411,6.191314],[-75.574546,6.191407],[-75.574649,6.191503],[-75.574831,6.191758],[-75.574904,6.191763],[-75.574844,6.19178],[-75.574661,6.191745],[-75.574618,6.191745],[-75.574689,6.191835],[-75.574751,6.19194],[-75.57478,6.192031],[-75.574832,6.192263],[-75.574906,6.192448],[-75.575203,6.192919],[-75.575295,6.193038],[-75.575379,6.193128],[-75.575534,6.193269],[-75.575721,6.193371],[-75.575807,6.193408],[-75.575918,6.193444],[-75.57591,6.193512],[-75.575924,6.193513],[-75.575912,6.193563],[-75.57592,6.193632],[-75.575902,6.193709],[-75.575842,6.193719],[-75.575882,6.193787],[-75.575898,6.193867],[-75.575901,6.193959],[-75.575885,6.194084],[-75.57586,6.194189],[-75.575786,6.194372],[-75.57569,6.194518],[-75.57555,6.194672],[-75.57485,6.195279],[-75.574704,6.195385],[-75.574603,6.195263],[-75.574569,6.195234],[-75.57385,6.194886],[-75.573714,6.19518],[-75.573273,6.195873],[-75.573168,6.196122],[-75.572897,6.196927],[-75.572806,6.197258],[-75.572671,6.198045],[-75.572709,6.198488],[-75.572713,6.198634],[-75.572679,6.198744],[-75.572583,6.198842],[-75.572367,6.199006],[-75.572274,6.199146],[-75.571781,6.200277],[-75.571656,6.200592],[-75.571619,6.200648],[-75.571268,6.201417],[-75.571244,6.201503],[-75.571308,6.201757],[-75.57112,6.202094],[-75.571065,6.202087],[-75.570579,6.202954],[-75.570509,6.202985],[-75.570269,6.20372],[-75.570253,6.203946],[-75.570245,6.204219],[-75.57038,6.204247],[-75.570362,6.204514],[-75.570278,6.204865],[-75.570223,6.204979],[-75.570118,6.205345],[-75.570174,6.205364],[-75.570263,6.205588],[-75.57029,6.205635],[-75.569989,6.2057],[-75.569888,6.205743],[-75.570002,6.206129],[-75.5698,6.206195],[-75.569865,6.206362],[-75.569863,6.206379],[-75.569876,6.206389],[-75.569974,6.206641],[-75.569988,6.206637],[-75.570016,6.206691],[-75.569968,6.206776],[-75.569957,6.207138],[-75.570004,6.207528],[-75.570101,6.207465],[-75.570198,6.207423],[-75.570225,6.207418],[-75.570252,6.207425],[-75.570275,6.207446],[-75.570284,6.207487],[-75.57027,6.20765],[-75.570187,6.207837],[-75.570165,6.20798],[-75.570107,6.207971],[-75.570076,6.207988],[-75.570068,6.208091],[-75.570053,6.208041],[-75.569528,6.207887],[-75.56949,6.207924],[-75.569438,6.208067],[-75.569396,6.208054],[-75.569328,6.208106],[-75.569251,6.208136],[-75.569188,6.208144],[-75.569119,6.208139],[-75.568753,6.207971],[-75.568689,6.207949],[-75.568752,6.207866],[-75.568757,6.207868],[-75.568886,6.207664],[-75.568669,6.207524],[-75.568578,6.207524],[-75.568592,6.207487],[-75.568577,6.207486],[-75.568513,6.207425],[-75.568399,6.207353],[-75.568246,6.207203],[-75.568173,6.207157],[-75.568086,6.207119],[-75.567895,6.207063],[-75.567815,6.207052],[-75.567709,6.207019],[-75.567545,6.20709],[-75.567328,6.207253],[-75.567269,6.207255],[-75.567103,6.207296],[-75.566947,6.207162],[-75.566857,6.20704],[-75.566781,6.206968],[-75.566672,6.206827],[-75.566583,6.206659],[-75.566472,6.206477],[-75.566501,6.206449],[-75.566209,6.206635],[-75.566335,6.207005],[-75.566577,6.207647],[-75.566195,6.207542],[-75.566118,6.207512],[-75.566115,6.20752],[-75.566055,6.207503],[-75.565836,6.20806],[-75.565561,6.208717],[-75.565983,6.20888],[-75.5657,6.209639],[-75.565402,6.210411],[-75.566047,6.210656],[-75.566104,6.210517],[-75.567247,6.210925],[-75.567264,6.210969],[-75.567399,6.211045],[-75.567419,6.210992],[-75.567485,6.211018],[-75.567619,6.210625],[-75.567708,6.210405],[-75.568507,6.210703],[-75.568889,6.210833],[-75.569294,6.210984],[-75.569168,6.211445],[-75.569089,6.211469],[-75.569028,6.211588],[-75.568803,6.211588],[-75.568763,6.212006],[-75.568755,6.212028],[-75.568687,6.212014],[-75.568528,6.213032],[-75.568624,6.213056],[-75.568614,6.213512],[-75.568675,6.213513],[-75.568627,6.214336],[-75.568784,6.21438],[-75.568972,6.214378],[-75.569135,6.214388],[-75.569427,6.214503],[-75.569191,6.215274],[-75.569059,6.215808],[-75.56935,6.215913],[-75.569218,6.2165],[-75.569162,6.216484],[-75.569051,6.217142],[-75.569106,6.21715],[-75.569099,6.217494],[-75.569144,6.217494],[-75.569177,6.21751],[-75.569191,6.217531],[-75.56919,6.217567],[-75.569179,6.217558],[-75.569188,6.217575],[-75.56914,6.217664],[-75.56914,6.217685],[-75.56917,6.217728],[-75.569203,6.21775],[-75.569462,6.217793],[-75.56937,6.218293],[-75.569307,6.21828],[-75.569167,6.218332],[-75.569303,6.218389],[-75.569216,6.218675],[-75.568886,6.218606],[-75.568897,6.21867],[-75.568831,6.218849],[-75.568829,6.218948],[-75.568807,6.219106],[-75.568806,6.219173],[-75.568786,6.2193],[-75.568749,6.219388],[-75.568733,6.219535],[-75.568738,6.219765],[-75.568722,6.219915],[-75.568942,6.219946],[-75.568711,6.220484],[-75.568723,6.220531],[-75.568714,6.220713],[-75.568689,6.22079],[-75.568659,6.220831],[-75.568641,6.220841],[-75.56865,6.2209],[-75.568803,6.220879],[-75.568748,6.221244],[-75.568701,6.22171],[-75.568792,6.221739],[-75.568879,6.221779],[-75.568792,6.222053],[-75.568579,6.221975],[-75.568441,6.22238],[-75.568427,6.2224],[-75.568611,6.222664],[-75.568526,6.222662],[-75.568484,6.222681],[-75.568468,6.22283],[-75.568501,6.222824],[-75.56847,6.223252],[-75.56842,6.223261],[-75.56841,6.22338],[-75.568728,6.223442],[-75.569105,6.223587],[-75.569064,6.22363],[-75.568988,6.22369],[-75.568693,6.224103],[-75.568695,6.224579],[-75.568763,6.224615],[-75.568745,6.224663],[-75.568678,6.224721],[-75.56828,6.225493],[-75.568279,6.225621],[-75.568135,6.225682],[-75.568028,6.225699],[-75.567951,6.225697],[-75.567782,6.225669],[-75.567435,6.225574],[-75.567189,6.225531],[-75.566896,6.225442],[-75.566788,6.225388],[-75.56676,6.225353],[-75.566699,6.225225],[-75.566694,6.225107],[-75.566702,6.224959],[-75.566683,6.224844],[-75.566571,6.224721],[-75.566474,6.22467],[-75.566337,6.224632],[-75.565988,6.224565],[-75.565817,6.224541],[-75.565783,6.224509]]]}},{"type":"Feature","properties":{"codigo_tramiento":"Z5_CN5_19","tratamiento":"Consolidación Nivel 5","tipo":"CN5","densidadmax":"200","indiceconstruccmax":"2,5","alturanormativa":"N/A"},"geometry":{"type":"Polygon","coordinates":[[[-75.570066,6.208146],[-75.570076,6.207988],[-75.570107,6.207971],[-75.570165,6.20798],[-75.570187,6.207837],[-75.57027,6.20765],[-75.570284,6.207487],[-75.570275,6.207446],[-75.570252,6.207425],[-75.570225,6.207418],[-75.570198,6.207423],[-75.570101,6.207465],[-75.570004,6.207528],[-75.569957,6.207138],[-75.569968,6.206776],[-75.570016,6.206691],[-75.569988,6.206637],[-75.569974,6.206641],[-75.569876,6.206389],[-75.569863,6.206379],[-75.569865,6.206362],[-75.5698,6.206195],[-75.570002,6.206129],[-75.569888,6.205743],[-75.569989,6.2057],[-75.57029,6.205635],[-75.570263,6.205588],[-75.570174,6.205364],[-75.570118,6.205345],[-75.570223,6.204979],[-75.570278,6.204865],[-75.570362,6.204514],[-75.57038,6.204247],[-75.570245,6.204219],[-75.570253,6.203946],[-75.570275,6.203696],[-75.570509,6.202985],[-75.570579,6.202954],[-75.571065,6.202087],[-75.57112,6.202094],[-75.571308,6.201757],[-75.571244,6.201503],[-75.571268,6.201417],[-75.571619,6.200648],[-75.571656,6.200592],[-75.571781,6.200277],[-75.572274,6.199146],[-75.572367,6.199006],[-75.572583,6.198842],[-75.572679,6.198744],[-75.572713,6.198634],[-75.572709,6.198488],[-75.572671,6.198045],[-75.572806,6.197258],[-75.572897,6.196927],[-75.573168,6.196122],[-75.573273,6.195873],[-75.573714,6.19518],[-75.57385,6.194886],[-75.574569,6.195234],[-75.574603,6.195263],[-75.574704,6.195385],[-75.57485,6.195279],[-75.57555,6.194672],[-75.57569,6.194518],[-75.575786,6.194372],[-75.57586,6.194189],[-75.575885,6.194084],[-75.575901,6.193959],[-75.575898,6.193867],[-75.575882,6.193787],[-75.575842,6.193719],[-75.575902,6.193709],[-75.57592,6.193632],[-75.575912,6.193563],[-75.575924,6.193513],[-75.57591,6.193512],[-75.575918,6.193444],[-75.575807,6.193408],[-75.575721,6.193371],[-75.575534,6.193269],[-75.57534,6.193087],[-75.575203,6.192919],[-75.574906,6.192448],[-75.574832,6.192263],[-75.57478,6.192031],[-75.574751,6.19194],[-75.574689,6.191835],[-75.574618,6.191745],[-75.574661,6.191745],[-75.574844,6.19178],[-75.574904,6.191763],[-75.574831,6.191758],[-75.574649,6.191503],[-75.574546,6.191407],[-75.574411,6.191314],[-75.574825,6.190886],[-75.574774,6.190871],[-75.574722,6.190844],[-75.574697,6.190802],[-75.57469,6.190736],[-75.574661,6.190661],[-75.574586,6.190557],[-75.574535,6.190515],[-75.574458,6.190423],[-75.574377,6.190225],[-75.574244,6.190122],[-75.5743,6.190023],[-75.57439,6.189946],[-75.574557,6.189943],[-75.574691,6.190043],[-75.575148,6.190351],[-75.5753,6.190434],[-75.575737,6.190598],[-75.576728,6.191207],[-75.576979,6.190337],[-75.577152,6.189802],[-75.576855,6.18971],[-75.576438,6.189561],[-75.576359,6.189521],[-75.576228,6.189434],[-75.576262,6.189341],[-75.576602,6.188581],[-75.576658,6.188433],[-75.576797,6.187983],[-75.577003,6.187082],[-75.577076,6.18709],[-75.577077,6.187081],[-75.577125,6.18708],[-75.577129,6.187103],[-75.577222,6.187084],[-75.577226,6.187106],[-75.578158,6.186713],[-75.578558,6.185704],[-75.578422,6.185649],[-75.578144,6.185497],[-75.57804,6.185468],[-75.577817,6.185325],[-75.577684,6.185211],[-75.577899,6.184637],[-75.578203,6.184549],[-75.578293,6.184417],[-75.578234,6.184359],[-75.578577,6.183783],[-75.578583,6.183787],[-75.578814,6.18341],[-75.578925,6.183484],[-75.579217,6.183655],[-75.57931,6.18366],[-75.579401,6.183623],[-75.579472,6.183664],[-75.579525,6.183709],[-75.579751,6.183955],[-75.579835,6.184072],[-75.579906,6.184211],[-75.579951,6.184385],[-75.579978,6.184542],[-75.579983,6.184856],[-75.580017,6.185092],[-75.580152,6.185709],[-75.580308,6.18633],[-75.580111,6.186459],[-75.579614,6.186873],[-75.579462,6.186707],[-75.57939,6.186669],[-75.579335,6.18666],[-75.579251,6.186667],[-75.579211,6.186689],[-75.579119,6.186775],[-75.578556,6.187371],[-75.578472,6.187477],[-75.578354,6.187591],[-75.578087,6.188555],[-75.577912,6.18926],[-75.57753,6.190654],[-75.577289,6.191591],[-75.577281,6.191586],[-75.577085,6.19198],[-75.576904,6.192286],[-75.577162,6.192484],[-75.576967,6.192944],[-75.577046,6.192992],[-75.576918,6.193163],[-75.576907,6.193188],[-75.577246,6.193454],[-75.577301,6.19353],[-75.57732,6.19354],[-75.577345,6.193616],[-75.577379,6.193671],[-75.577413,6.193749],[-75.577415,6.193783],[-75.577395,6.193807],[-75.577403,6.193837],[-75.577429,6.193852],[-75.577648,6.194101],[-75.57775,6.194182],[-75.577838,6.194238],[-75.57807,6.194355],[-75.578274,6.194431],[-75.579465,6.194712],[-75.57933,6.195072],[-75.579109,6.195579],[-75.579101,6.19562],[-75.578351,6.197352],[-75.578374,6.197355],[-75.578216,6.197719],[-75.578023,6.197728],[-75.57799,6.197808],[-75.577954,6.197788],[-75.577844,6.197751],[-75.577603,6.1975],[-75.577538,6.197446],[-75.57747,6.197523],[-75.577234,6.197841],[-75.577253,6.197882],[-75.577261,6.197953],[-75.577098,6.198231],[-75.576254,6.197791],[-75.576224,6.197814],[-75.576229,6.19783],[-75.576011,6.198387],[-75.576006,6.198409],[-75.576102,6.198414],[-75.576122,6.198436],[-75.576123,6.198536],[-75.576144,6.198592],[-75.576249,6.198798],[-75.576299,6.198853],[-75.576338,6.198892],[-75.576378,6.198876],[-75.576442,6.198882],[-75.576564,6.198945],[-75.576692,6.199119],[-75.576767,6.199175],[-75.57686,6.199161],[-75.576907,6.199102],[-75.576927,6.199087],[-75.576963,6.199077],[-75.577064,6.199149],[-75.577298,6.199348],[-75.57739,6.199309],[-75.577411,6.199356],[-75.577525,6.199336],[-75.577672,6.199354],[-75.577569,6.199838],[-75.577447,6.200896],[-75.577379,6.201603],[-75.577142,6.201566],[-75.57698,6.201521],[-75.57623,6.201101],[-75.576071,6.201032],[-75.575976,6.201024],[-75.575917,6.201048],[-75.575876,6.201098],[-75.575863,6.201127],[-75.575714,6.201588],[-75.575686,6.201662],[-75.575669,6.201686],[-75.575657,6.201781],[-75.575666,6.201891],[-75.575753,6.202007],[-75.575842,6.202077],[-75.575999,6.202153],[-75.576075,6.202205],[-75.576166,6.202221],[-75.576295,6.202265],[-75.576447,6.202368],[-75.576493,6.202374],[-75.576654,6.202458],[-75.577264,6.202708],[-75.577203,6.203361],[-75.578094,6.203697],[-75.57808,6.203733],[-75.578688,6.203969],[-75.578849,6.204086],[-75.578666,6.205361],[-75.578571,6.205313],[-75.57857,6.205347],[-75.577222,6.204666],[-75.577225,6.204634],[-75.57707,6.204562],[-75.576967,6.205559],[-75.576782,6.207608],[-75.575386,6.206971],[-75.57434,6.206511],[-75.573482,6.206062],[-75.573037,6.206077],[-75.573012,6.2061],[-75.572995,6.20613],[-75.572946,6.206307],[-75.572883,6.206809],[-75.572885,6.207077],[-75.572947,6.207523],[-75.573021,6.207881],[-75.573035,6.207913],[-75.573031,6.208115],[-75.573039,6.208303],[-75.573179,6.208307],[-75.573392,6.208301],[-75.573551,6.208285],[-75.573729,6.208248],[-75.573842,6.208204],[-75.573944,6.208129],[-75.573964,6.208291],[-75.574089,6.208906],[-75.574108,6.20895],[-75.574208,6.209096],[-75.574275,6.209215],[-75.57429,6.209288],[-75.574267,6.209422],[-75.573816,6.209259],[-75.571996,6.208562],[-75.571752,6.208479],[-75.571368,6.208374],[-75.571291,6.208364],[-75.571297,6.208267],[-75.571134,6.208253],[-75.570719,6.208487],[-75.570409,6.208373],[-75.570406,6.208381],[-75.570261,6.208331],[-75.570121,6.208266],[-75.570096,6.208184],[-75.570066,6.208146]],[[-75.576163,6.202646],[-75.575875,6.203348],[-75.576981,6.203852],[-75.577007,6.203854],[-75.577031,6.203839],[-75.57704,6.203816],[-75.57707,6.203466],[-75.576875,6.203375],[-75.576163,6.202646]]]}},{"type":"Feature","properties":{"codigo_tramiento":"Z5_CN5_17","tratamiento":"Consolidación Nivel 5","tipo":"CN5","densidadmax":"75","indiceconstruccmax":"1,2","alturanormativa":"20"},"geometry":{"type":"Polygon","coordinates":[[[-75.561913,6.215367],[-75.559276,6.214799],[-75.559092,6.214772],[-75.558265,6.214581],[-75.557958,6.214533],[-75.557843,6.214549],[-75.557676,6.214611],[-75.55763,6.214631],[-75.557533,6.214717],[-75.55746,6.21484],[-75.557416,6.214959],[-75.557399,6.215066],[-75.557404,6.215167],[-75.557418,6.215262],[-75.557429,6.215285],[-75.557316,6.215312],[-75.55719,6.215276],[-75.556849,6.215212],[-75.556852,6.215246],[-75.556836,6.21528],[-75.556817,6.215297],[-75.556781,6.215306],[-75.556745,6.215297],[-75.556724,6.215278],[-75.556321,6.215267],[-75.556199,6.215237],[-75.556251,6.214879],[-75.556226,6.214861],[-75.556161,6.214767],[-75.556041,6.214653],[-75.555979,6.214609],[-75.555928,6.214586],[-75.555931,6.214556],[-75.555843,6.214549],[-75.555844,6.21459],[-75.555539,6.214569],[-75.555592,6.214307],[-75.555605,6.214149],[-75.555552,6.213998],[-75.555505,6.214032],[-75.555501,6.213769],[-75.555525,6.21353],[-75.555519,6.213413],[-75.555141,6.213252],[-75.554918,6.213184],[-75.5548,6.213199],[-75.554613,6.213181],[-75.554083,6.213055],[-75.553881,6.212977],[-75.553738,6.212935],[-75.553724,6.212949],[-75.553686,6.212927],[-75.553691,6.212908],[-75.553657,6.212903],[-75.553807,6.212642],[-75.553469,6.212442],[-75.553253,6.212282],[-75.552922,6.212063],[-75.553284,6.211094],[-75.553318,6.21109],[-75.553516,6.210001],[-75.553601,6.209593],[-75.553652,6.209391],[-75.553368,6.209323],[-75.55336,6.20931],[-75.553341,6.209307],[-75.553389,6.209003],[-75.55341,6.20898],[-75.553387,6.208986],[-75.553323,6.208884],[-75.553371,6.208867],[-75.553446,6.208857],[-75.553521,6.208861],[-75.553591,6.208878],[-75.553735,6.208397],[-75.553827,6.208146],[-75.553824,6.208082],[-75.553746,6.207835],[-75.553514,6.207872],[-75.553478,6.207863],[-75.55344,6.20784],[-75.55341,6.207804],[-75.553395,6.20776],[-75.553392,6.207681],[-75.553402,6.20759],[-75.553389,6.207533],[-75.553351,6.207483],[-75.553241,6.207413],[-75.553563,6.206634],[-75.553606,6.206655],[-75.553726,6.206676],[-75.553732,6.206662],[-75.554021,6.206678],[-75.554296,6.206787],[-75.554398,6.20684],[-75.554542,6.206861],[-75.554756,6.207039],[-75.554756,6.207054],[-75.554858,6.207146],[-75.554872,6.207141],[-75.554868,6.20703],[-75.554876,6.20681],[-75.554903,6.206634],[-75.554965,6.20649],[-75.555171,6.206158],[-75.554782,6.206031],[-75.554882,6.205795],[-75.554892,6.2058],[-75.554927,6.205725],[-75.55497,6.205592],[-75.555029,6.204737],[-75.555008,6.204691],[-75.554924,6.204632],[-75.554872,6.204677],[-75.554813,6.2047],[-75.554769,6.204698],[-75.554739,6.20467],[-75.554762,6.204427],[-75.554777,6.204344],[-75.554778,6.204273],[-75.554744,6.204117],[-75.554644,6.203911],[-75.554633,6.203859],[-75.554641,6.20381],[-75.554663,6.203765],[-75.554697,6.203729],[-75.55474,6.203704],[-75.554738,6.203594],[-75.554858,6.203167],[-75.554924,6.203083],[-75.555034,6.202966],[-75.555114,6.202858],[-75.555069,6.202753],[-75.55503,6.202772],[-75.554977,6.202773],[-75.554925,6.202701],[-75.554901,6.202449],[-75.554917,6.202336],[-75.554774,6.202006],[-75.554835,6.201946],[-75.554965,6.201953],[-75.555091,6.201823],[-75.554856,6.201624],[-75.554444,6.201316],[-75.554357,6.201267],[-75.554268,6.201238],[-75.55427,6.201189],[-75.554318,6.201057],[-75.55435,6.200887],[-75.554352,6.200732],[-75.554336,6.200606],[-75.554302,6.20048],[-75.554029,6.199674],[-75.554013,6.199498],[-75.553992,6.199506],[-75.553847,6.199088],[-75.553855,6.199053],[-75.553874,6.199031],[-75.553834,6.198869],[-75.553885,6.198851],[-75.553991,6.198834],[-75.554084,6.198841],[-75.554194,6.198884],[-75.554243,6.198919],[-75.554285,6.198962],[-75.554325,6.199021],[-75.554353,6.199087],[-75.554407,6.199551],[-75.554784,6.199344],[-75.554848,6.19935],[-75.555116,6.199435],[-75.555127,6.199321],[-75.555111,6.199216],[-75.555083,6.199186],[-75.555046,6.198871],[-75.555016,6.19881],[-75.555034,6.198766],[-75.555015,6.198589],[-75.554988,6.198407],[-75.554957,6.198278],[-75.554945,6.198151],[-75.555071,6.198154],[-75.55514,6.198203],[-75.55519,6.198199],[-75.55522,6.198214],[-75.555253,6.198257],[-75.555336,6.198313],[-75.555371,6.198313],[-75.55542,6.198326],[-75.555424,6.198309],[-75.555497,6.198319],[-75.55551,6.198292],[-75.555609,6.198258],[-75.555614,6.19824],[-75.555725,6.198126],[-75.555833,6.198087],[-75.555906,6.198105],[-75.555965,6.198098],[-75.556002,6.198118],[-75.556032,6.198118],[-75.556051,6.19814],[-75.556135,6.198195],[-75.556194,6.198203],[-75.556243,6.198187],[-75.556287,6.198154],[-75.556166,6.198091],[-75.556203,6.198063],[-75.556154,6.198041],[-75.556278,6.197777],[-75.556238,6.197752],[-75.556269,6.197652],[-75.556564,6.197188],[-75.556523,6.197153],[-75.556483,6.197098],[-75.55646,6.197043],[-75.556439,6.196951],[-75.556482,6.195821],[-75.556647,6.195791],[-75.556728,6.195844],[-75.556766,6.195879],[-75.556775,6.195914],[-75.556842,6.195649],[-75.556895,6.195297],[-75.556958,6.195318],[-75.557085,6.195329],[-75.557317,6.195266],[-75.55755,6.195178],[-75.557583,6.19515],[-75.557652,6.195042],[-75.557706,6.194931],[-75.557779,6.194901],[-75.55784,6.194938],[-75.557961,6.194899],[-75.558258,6.194837],[-75.557582,6.194544],[-75.558053,6.193554],[-75.557997,6.19353],[-75.557773,6.193404],[-75.557474,6.193271],[-75.557325,6.193257],[-75.557103,6.193358],[-75.556993,6.193394],[-75.556991,6.193371],[-75.557014,6.1933],[-75.557073,6.19322],[-75.557134,6.193172],[-75.55718,6.193149],[-75.55729,6.193115],[-75.557582,6.193074],[-75.557643,6.193057],[-75.557765,6.193004],[-75.557875,6.192921],[-75.557943,6.192829],[-75.558021,6.192633],[-75.558041,6.192546],[-75.558042,6.19247],[-75.558287,6.19234],[-75.558337,6.192297],[-75.558395,6.192205],[-75.558423,6.19211],[-75.558529,6.191885],[-75.558572,6.191875],[-75.558604,6.19188],[-75.558774,6.19185],[-75.559212,6.192001],[-75.559424,6.191655],[-75.559447,6.191665],[-75.559706,6.191182],[-75.559779,6.19123],[-75.559827,6.191163],[-75.55981,6.191151],[-75.560018,6.190774],[-75.559933,6.190707],[-75.559904,6.190672],[-75.559874,6.190607],[-75.55987,6.190438],[-75.559968,6.190196],[-75.560189,6.189698],[-75.560278,6.189573],[-75.560416,6.189356],[-75.56042,6.189342],[-75.560337,6.18931],[-75.560406,6.189037],[-75.560607,6.188499],[-75.560622,6.188504],[-75.56073,6.188192],[-75.560908,6.188192],[-75.561,6.187498],[-75.560981,6.187495],[-75.561007,6.187114],[-75.560939,6.187111],[-75.560925,6.187095],[-75.56091,6.187091],[-75.560763,6.187088],[-75.560584,6.187068],[-75.560273,6.18701],[-75.560252,6.187018],[-75.560239,6.187035],[-75.560291,6.186897],[-75.559901,6.186821],[-75.559919,6.186679],[-75.559941,6.186647],[-75.55995,6.186575],[-75.559966,6.186577],[-75.55998,6.186514],[-75.55998,6.1865],[-75.559957,6.186496],[-75.559961,6.186464],[-75.559924,6.186456],[-75.560044,6.185494],[-75.560137,6.184876],[-75.560162,6.18488],[-75.560281,6.18438],[-75.560191,6.184368],[-75.560193,6.184355],[-75.560103,6.184343],[-75.560137,6.18407],[-75.56013,6.184069],[-75.56015,6.183877],[-75.560242,6.183773],[-75.560293,6.183615],[-75.560361,6.183499],[-75.560308,6.183418],[-75.560303,6.183374],[-75.560337,6.183312],[-75.560387,6.183273],[-75.560448,6.183204],[-75.560471,6.183152],[-75.560554,6.183081],[-75.560576,6.183053],[-75.560605,6.182988],[-75.560789,6.183128],[-75.561069,6.182932],[-75.561084,6.182888],[-75.561286,6.18302],[-75.561642,6.183208],[-75.561674,6.183279],[-75.561654,6.183321],[-75.56171,6.183296],[-75.562269,6.18367],[-75.562676,6.182861],[-75.562135,6.182537],[-75.562142,6.182522],[-75.562092,6.182515],[-75.562065,6.182568],[-75.562164,6.182323],[-75.562149,6.182309],[-75.562147,6.182287],[-75.562197,6.182106],[-75.562287,6.181948],[-75.561275,6.181385],[-75.561311,6.18129],[-75.561229,6.181253],[-75.561232,6.181247],[-75.561052,6.181173],[-75.560761,6.181036],[-75.560718,6.181124],[-75.560731,6.181094],[-75.56062,6.181059],[-75.560446,6.180976],[-75.560551,6.180635],[-75.560564,6.180639],[-75.560691,6.180364],[-75.560458,6.180273],[-75.560382,6.180209],[-75.560694,6.180003],[-75.560844,6.179945],[-75.560951,6.179936],[-75.561089,6.180033],[-75.561159,6.179722],[-75.561189,6.179502],[-75.561024,6.179449],[-75.561,6.179391],[-75.56099,6.179271],[-75.560974,6.179201],[-75.560939,6.178918],[-75.560927,6.178632],[-75.561075,6.1787],[-75.561251,6.178679],[-75.561247,6.178697],[-75.561263,6.1787],[-75.561286,6.178694],[-75.561286,6.178644],[-75.56128,6.178634],[-75.56129,6.178629],[-75.56134,6.178658],[-75.561352,6.17872],[-75.561371,6.17877],[-75.561408,6.178795],[-75.561417,6.178735],[-75.561438,6.178676],[-75.561482,6.178618],[-75.561616,6.178497],[-75.56161,6.178477],[-75.561677,6.178465],[-75.561699,6.178552],[-75.561833,6.178553],[-75.562036,6.178686],[-75.562172,6.178336],[-75.562376,6.178426],[-75.56249,6.178142],[-75.562534,6.178203],[-75.562963,6.178236],[-75.563479,6.178398],[-75.563545,6.178389],[-75.563588,6.17849],[-75.563736,6.178511],[-75.563884,6.178505],[-75.564543,6.178344],[-75.564663,6.178326],[-75.564785,6.178327],[-75.564829,6.178336],[-75.56492,6.178373],[-75.565366,6.178606],[-75.565432,6.178659],[-75.565511,6.178249],[-75.56553,6.17806],[-75.565977,6.178071],[-75.566222,6.178172],[-75.566582,6.178196],[-75.566611,6.17793],[-75.566494,6.177538],[-75.566542,6.177169],[-75.56667,6.177065],[-75.56656,6.177055],[-75.566459,6.177064],[-75.566322,6.177027],[-75.566236,6.177057],[-75.56603,6.176982],[-75.566039,6.176754],[-75.566238,6.176626],[-75.566241,6.176686],[-75.566299,6.176786],[-75.566314,6.176797],[-75.566468,6.176816],[-75.566608,6.176857],[-75.566776,6.176944],[-75.566865,6.177001],[-75.566941,6.177012],[-75.567107,6.17707],[-75.567296,6.177199],[-75.567377,6.177274],[-75.567472,6.177332],[-75.567566,6.17743],[-75.567705,6.177547],[-75.567848,6.177708],[-75.56797,6.177968],[-75.568103,6.178159],[-75.568279,6.178345],[-75.568279,6.17838],[-75.56881,6.178785],[-75.56895,6.178845],[-75.569264,6.178824],[-75.569554,6.179007],[-75.569692,6.179121],[-75.569846,6.179171],[-75.570077,6.17926],[-75.570202,6.179268],[-75.57033,6.179206],[-75.570536,6.179244],[-75.570738,6.179314],[-75.571091,6.179393],[-75.57122,6.179401],[-75.571353,6.179375],[-75.571467,6.179245],[-75.571545,6.179173],[-75.571594,6.179173],[-75.571594,6.179364],[-75.57164,6.179395],[-75.57161,6.179403],[-75.571605,6.179433],[-75.571489,6.179494],[-75.571455,6.179576],[-75.571276,6.179714],[-75.571188,6.179822],[-75.571101,6.179823],[-75.571048,6.180085],[-75.571056,6.180152],[-75.571223,6.18018],[-75.571193,6.180577],[-75.571222,6.18058],[-75.571186,6.18114],[-75.571139,6.181102],[-75.571146,6.181605],[-75.571194,6.182087],[-75.571304,6.184222],[-75.57134,6.184353],[-75.571394,6.184484],[-75.571497,6.184648],[-75.571518,6.184719],[-75.571511,6.18478],[-75.571483,6.184834],[-75.571388,6.184937],[-75.571364,6.18498],[-75.571366,6.185024],[-75.571513,6.185295],[-75.571541,6.185377],[-75.571549,6.185584],[-75.57158,6.185674],[-75.571659,6.18584],[-75.571611,6.185812],[-75.571501,6.185772],[-75.571446,6.185763],[-75.571187,6.185758],[-75.570283,6.185787],[-75.570106,6.185801],[-75.570017,6.185825],[-75.569978,6.185852],[-75.569888,6.186055],[-75.569876,6.186161],[-75.569885,6.186266],[-75.569866,6.186705],[-75.569852,6.186811],[-75.569942,6.186799],[-75.570202,6.187366],[-75.570396,6.187721],[-75.570483,6.187859],[-75.570476,6.187888],[-75.570389,6.188119],[-75.570292,6.188416],[-75.570261,6.188536],[-75.570182,6.188611],[-75.570092,6.188666],[-75.570004,6.188662],[-75.569789,6.188733],[-75.569704,6.188731],[-75.569631,6.188694],[-75.569558,6.188676],[-75.569389,6.188595],[-75.569168,6.188597],[-75.56917,6.188658],[-75.569136,6.188653],[-75.569083,6.188626],[-75.56905,6.188772],[-75.568993,6.188975],[-75.568849,6.18947],[-75.568838,6.189475],[-75.568741,6.189828],[-75.568566,6.190549],[-75.569512,6.190685],[-75.569578,6.19074],[-75.569605,6.190796],[-75.56988,6.192049],[-75.569821,6.192412],[-75.569802,6.192212],[-75.56978,6.192118],[-75.569725,6.192011],[-75.56965,6.191927],[-75.569343,6.192692],[-75.569041,6.192572],[-75.568911,6.192894],[-75.569164,6.193048],[-75.569106,6.193138],[-75.568621,6.193846],[-75.568037,6.19454],[-75.56791,6.194663],[-75.567756,6.19484],[-75.567814,6.194899],[-75.567876,6.194992],[-75.567931,6.19503],[-75.567982,6.195053],[-75.568044,6.19513],[-75.568075,6.195211],[-75.568059,6.195252],[-75.568013,6.195296],[-75.568011,6.195323],[-75.568032,6.195364],[-75.568161,6.195475],[-75.56824,6.195586],[-75.568176,6.195576],[-75.568121,6.195577],[-75.568038,6.195616],[-75.567946,6.195614],[-75.568004,6.195711],[-75.568165,6.196096],[-75.567945,6.196953],[-75.567726,6.196969],[-75.567515,6.196948],[-75.567423,6.19692],[-75.567158,6.196802],[-75.566926,6.196674],[-75.566691,6.196538],[-75.566524,6.196416],[-75.566458,6.196479],[-75.566436,6.196481],[-75.566317,6.196574],[-75.566096,6.196727],[-75.565926,6.196747],[-75.565894,6.196757],[-75.565837,6.196852],[-75.565791,6.196891],[-75.565716,6.196907],[-75.565547,6.196861],[-75.565472,6.197003],[-75.565105,6.196906],[-75.564958,6.196876],[-75.564739,6.196944],[-75.564374,6.197087],[-75.56425,6.197081],[-75.564229,6.197068],[-75.564213,6.197045],[-75.563744,6.196717],[-75.563428,6.196553],[-75.562864,6.196328],[-75.562845,6.19636],[-75.562744,6.196301],[-75.562271,6.196063],[-75.562292,6.196033],[-75.562313,6.196019],[-75.562435,6.196034],[-75.562461,6.196025],[-75.562484,6.195998],[-75.562616,6.195582],[-75.562612,6.19555],[-75.56256,6.195487],[-75.562555,6.195458],[-75.562644,6.19526],[-75.562687,6.195195],[-75.562651,6.195145],[-75.562619,6.195164],[-75.562436,6.195093],[-75.562149,6.195017],[-75.56188,6.194966],[-75.561751,6.195004],[-75.561451,6.195004],[-75.561363,6.19504],[-75.561276,6.195106],[-75.560156,6.197458],[-75.559281,6.198617],[-75.559272,6.19871],[-75.559299,6.19883],[-75.559379,6.198895],[-75.55955,6.198978],[-75.559552,6.199027],[-75.559614,6.199144],[-75.559629,6.199197],[-75.559634,6.199263],[-75.559611,6.199366],[-75.559496,6.199575],[-75.55947,6.199644],[-75.559468,6.199675],[-75.559804,6.199716],[-75.559832,6.199761],[-75.559871,6.199804],[-75.559964,6.199851],[-75.560034,6.199869],[-75.560207,6.199896],[-75.560377,6.199949],[-75.56046,6.199993],[-75.560496,6.200035],[-75.56059,6.200184],[-75.560695,6.200287],[-75.560747,6.200325],[-75.560851,6.200328],[-75.560887,6.200341],[-75.56095,6.20038],[-75.560982,6.200411],[-75.561063,6.200541],[-75.561037,6.200655],[-75.561045,6.200697],[-75.561063,6.200724],[-75.561127,6.200772],[-75.561294,6.200839],[-75.561816,6.199847],[-75.561924,6.199864],[-75.562116,6.199917],[-75.562335,6.199967],[-75.562647,6.200027],[-75.56272,6.199874],[-75.562808,6.199772],[-75.562867,6.199669],[-75.563044,6.199318],[-75.562908,6.199263],[-75.562552,6.199148],[-75.562278,6.199046],[-75.56222,6.199013],[-75.56219,6.198972],[-75.562166,6.198887],[-75.562171,6.198823],[-75.562391,6.197854],[-75.562402,6.197767],[-75.562514,6.197788],[-75.562955,6.198031],[-75.562962,6.197992],[-75.562947,6.1979],[-75.562936,6.197723],[-75.562881,6.197534],[-75.562898,6.197519],[-75.56292,6.197474],[-75.563157,6.197485],[-75.563176,6.197316],[-75.563201,6.197278],[-75.563301,6.197053],[-75.563339,6.19702],[-75.563367,6.197011],[-75.563401,6.197014],[-75.563573,6.197092],[-75.563518,6.19731],[-75.563505,6.197421],[-75.563483,6.197461],[-75.563531,6.197469],[-75.563509,6.197567],[-75.563855,6.197634],[-75.564052,6.197249],[-75.564589,6.197534],[-75.564532,6.197633],[-75.564485,6.197769],[-75.564469,6.19776],[-75.564429,6.197834],[-75.564533,6.197895],[-75.564708,6.197975],[-75.56488,6.197581],[-75.565158,6.197708],[-75.565356,6.197778],[-75.565529,6.197874],[-75.565528,6.197904],[-75.565688,6.197967],[-75.565693,6.197957],[-75.566024,6.198088],[-75.566044,6.198032],[-75.566227,6.198109],[-75.566207,6.198157],[-75.566388,6.198219],[-75.566066,6.198967],[-75.566247,6.199051],[-75.56604,6.199359],[-75.566008,6.199389],[-75.565716,6.20033],[-75.565456,6.200858],[-75.5654,6.200943],[-75.56515,6.201411],[-75.565113,6.20152],[-75.565105,6.201602],[-75.565115,6.201709],[-75.563973,6.203826],[-75.564029,6.203922],[-75.564077,6.203868],[-75.564179,6.204086],[-75.564313,6.204154],[-75.564417,6.204188],[-75.564396,6.204451],[-75.564224,6.204861],[-75.564498,6.204968],[-75.5644,6.205147],[-75.564292,6.20556],[-75.564286,6.20556],[-75.564331,6.205943],[-75.564091,6.205963],[-75.564221,6.206381],[-75.563724,6.206547],[-75.563794,6.206731],[-75.563811,6.206868],[-75.563821,6.207318],[-75.563834,6.207406],[-75.56388,6.207585],[-75.563603,6.207604],[-75.563553,6.207593],[-75.5635,6.207717],[-75.563503,6.207847],[-75.563521,6.207923],[-75.563619,6.208118],[-75.563763,6.208342],[-75.563833,6.208437],[-75.563893,6.208515],[-75.563983,6.208601],[-75.563854,6.208637],[-75.563715,6.208662],[-75.563243,6.208691],[-75.563323,6.209032],[-75.56333,6.209165],[-75.563302,6.209362],[-75.563302,6.209492],[-75.563327,6.209596],[-75.563361,6.209656],[-75.563397,6.209763],[-75.563543,6.210356],[-75.5628,6.210549],[-75.562947,6.211171],[-75.56308,6.211193],[-75.56302,6.211263],[-75.563022,6.211438],[-75.56303,6.211455],[-75.563013,6.21146],[-75.563013,6.211538],[-75.563178,6.211552],[-75.563344,6.211578],[-75.563614,6.211655],[-75.563517,6.211986],[-75.563691,6.212056],[-75.563595,6.212366],[-75.563714,6.212405],[-75.563701,6.21246],[-75.563618,6.212708],[-75.563554,6.212688],[-75.563471,6.212945],[-75.563423,6.213051],[-75.563262,6.213101],[-75.562724,6.213219],[-75.562656,6.213284],[-75.562577,6.213381],[-75.562548,6.213449],[-75.562534,6.213528],[-75.562452,6.214203],[-75.562394,6.214604],[-75.56233,6.214708],[-75.562283,6.214766],[-75.562208,6.214812],[-75.56214,6.214838],[-75.562079,6.214841],[-75.562069,6.2149],[-75.561946,6.215237],[-75.561941,6.215236],[-75.561913,6.215367]]]}},{"type":"Feature","properties":{"codigo_tramiento":"Z6_CN2_23","tratamiento":"Consolidación Nivel 2","tipo":"CN2","densidadmax":"270","indiceconstruccmax":"N/A","alturanormativa":"2"},"geometry":{"type":"Polygon","coordinates":[[[-75.585356,6.201806],[-75.585764,6.201329],[-75.585956,6.201374],[-75.586267,6.200757],[-75.586485,6.200246],[-75.586624,6.199878],[-75.586683,6.199902],[-75.586687,6.199895],[-75.587159,6.20008],[-75.587234,6.199895],[-75.587259,6.199872],[-75.58729,6.199863],[-75.587623,6.199936],[-75.588244,6.20019],[-75.588262,6.200149],[-75.58835,6.200186],[-75.588176,6.200604],[-75.58813,6.200585],[-75.58807,6.200734],[-75.587887,6.200658],[-75.587823,6.200857],[-75.587645,6.201284],[-75.586969,6.20102],[-75.586861,6.201279],[-75.586457,6.202311],[-75.585303,6.201886],[-75.585356,6.201806]]]}},{"type":"Feature","properties":{"codigo_tramiento":"Z5_API_69","tratamiento":"Áreas de Preservación de Infraestructuras y del Sistema Público y Colectivo","tipo":"API","densidadmax":"N/A","indiceconstruccmax":"N/A","alturanormativa":"N/A"},"geometry":{"type":"Polygon","coordinates":[[[-75.577638,6.185173],[-75.577817,6.185325],[-75.57804,6.185468],[-75.578144,6.185497],[-75.578422,6.185649],[-75.578558,6.185704],[-75.578158,6.186713],[-75.577226,6.187106],[-75.577222,6.187084],[-75.577129,6.187103],[-75.577125,6.18708],[-75.577077,6.187081],[-75.577076,6.18709],[-75.576998,6.187081],[-75.576825,6.187218],[-75.576716,6.187248],[-75.576615,6.187262],[-75.576497,6.18729],[-75.576398,6.187321],[-75.576395,6.187307],[-75.576284,6.1873],[-75.576183,6.187332],[-75.576089,6.187325],[-75.576005,6.187291],[-75.575831,6.187261],[-75.575677,6.187261],[-75.575556,6.187232],[-75.575555,6.187202],[-75.575607,6.186988],[-75.575648,6.186757],[-75.57564,6.186753],[-75.575664,6.186648],[-75.575565,6.186028],[-75.575536,6.185909],[-75.575524,6.185751],[-75.575481,6.185654],[-75.575381,6.185751],[-75.575274,6.185789],[-75.575145,6.18577],[-75.575081,6.185678],[-75.575045,6.185656],[-75.574997,6.185649],[-75.574944,6.185655],[-75.574851,6.18571],[-75.574754,6.185734],[-75.574614,6.185725],[-75.574529,6.185702],[-75.574455,6.185663],[-75.574323,6.185645],[-75.574307,6.185639],[-75.574269,6.185602],[-75.574182,6.185564],[-75.574082,6.18555],[-75.574051,6.185537],[-75.574008,6.185485],[-75.573976,6.185423],[-75.573954,6.185409],[-75.573826,6.185385],[-75.573501,6.185406],[-75.57336,6.185344],[-75.573486,6.185126],[-75.573585,6.184933],[-75.573491,6.184982],[-75.573478,6.184956],[-75.573505,6.184913],[-75.57354,6.184809],[-75.573633,6.184656],[-75.573824,6.184261],[-75.57396,6.184262],[-75.574259,6.184363],[-75.574465,6.18444],[-75.574899,6.184647],[-75.574974,6.184671],[-75.575507,6.184738],[-75.575845,6.18473],[-75.576441,6.184761],[-75.576772,6.1848],[-75.576947,6.184856],[-75.577049,6.184919],[-75.577082,6.184948],[-75.577513,6.185112],[-75.577638,6.185173]]]}},{"type":"Feature","properties":{"codigo_tramiento":"Z5_CN5_20","tratamiento":"Consolidación Nivel 5","tipo":"CN5","densidadmax":"75","indiceconstruccmax":"1,4","alturanormativa":"N/A"},"geometry":{"type":"Polygon","coordinates":[[[-75.571659,6.18584],[-75.57158,6.185674],[-75.571549,6.185584],[-75.571541,6.185377],[-75.571513,6.185295],[-75.571366,6.185024],[-75.571364,6.18498],[-75.571388,6.184937],[-75.571483,6.184834],[-75.571511,6.18478],[-75.571518,6.184719],[-75.571497,6.184648],[-75.571394,6.184484],[-75.57134,6.184353],[-75.571304,6.184222],[-75.571194,6.182087],[-75.571146,6.181605],[-75.571139,6.181102],[-75.571186,6.18114],[-75.571222,6.18058],[-75.571193,6.180577],[-75.571223,6.18018],[-75.571056,6.180152],[-75.571048,6.180085],[-75.571101,6.179823],[-75.571188,6.179822],[-75.571276,6.179714],[-75.571455,6.179576],[-75.571489,6.179494],[-75.571605,6.179433],[-75.57161,6.179403],[-75.57164,6.179395],[-75.571594,6.179364],[-75.571594,6.179173],[-75.571644,6.179172],[-75.571811,6.179229],[-75.572428,6.17937],[-75.572723,6.179485],[-75.573412,6.180085],[-75.573604,6.18023],[-75.573852,6.180334],[-75.57419,6.180355],[-75.574237,6.180382],[-75.574371,6.180579],[-75.574436,6.180631],[-75.574605,6.180664],[-75.57493,6.180765],[-75.575188,6.180868],[-75.575256,6.18106],[-75.575297,6.181307],[-75.575393,6.181496],[-75.575534,6.18162],[-75.575675,6.181762],[-75.57594,6.181939],[-75.576105,6.182061],[-75.576239,6.18213],[-75.576464,6.182126],[-75.576808,6.182203],[-75.576944,6.182258],[-75.578814,6.18341],[-75.578583,6.183787],[-75.578577,6.183783],[-75.578234,6.184359],[-75.578293,6.184417],[-75.578203,6.184549],[-75.577899,6.184637],[-75.577684,6.185211],[-75.577638,6.185173],[-75.577513,6.185112],[-75.577082,6.184948],[-75.577049,6.184919],[-75.576947,6.184856],[-75.576772,6.1848],[-75.576441,6.184761],[-75.575845,6.18473],[-75.575507,6.184738],[-75.574974,6.184671],[-75.574899,6.184647],[-75.574465,6.18444],[-75.57396,6.184262],[-75.573824,6.184261],[-75.573633,6.184656],[-75.57354,6.184809],[-75.573505,6.184913],[-75.573478,6.184956],[-75.573491,6.184982],[-75.573585,6.184933],[-75.573486,6.185126],[-75.57336,6.185344],[-75.573501,6.185406],[-75.573826,6.185385],[-75.573954,6.185409],[-75.573976,6.185423],[-75.574008,6.185485],[-75.574051,6.185537],[-75.574082,6.18555],[-75.574182,6.185564],[-75.574269,6.185602],[-75.574307,6.185639],[-75.574323,6.185645],[-75.574455,6.185663],[-75.574529,6.185702],[-75.574614,6.185725],[-75.574754,6.185734],[-75.574851,6.18571],[-75.574944,6.185655],[-75.574997,6.185649],[-75.575045,6.185656],[-75.575081,6.185678],[-75.575145,6.18577],[-75.575274,6.185789],[-75.575381,6.185751],[-75.575481,6.185654],[-75.575524,6.185751],[-75.575536,6.185909],[-75.575565,6.186028],[-75.575664,6.186648],[-75.57564,6.186753],[-75.575648,6.186757],[-75.575607,6.186988],[-75.575555,6.187202],[-75.575556,6.187232],[-75.575677,6.187261],[-75.575831,6.187261],[-75.576005,6.187291],[-75.576089,6.187325],[-75.576183,6.187332],[-75.576284,6.1873],[-75.576395,6.187307],[-75.576398,6.187321],[-75.576497,6.18729],[-75.576615,6.187262],[-75.576716,6.187248],[-75.576825,6.187218],[-75.577003,6.187082],[-75.576797,6.187983],[-75.576658,6.188433],[-75.576602,6.188581],[-75.576262,6.189341],[-75.576228,6.189434],[-75.575932,6.189237],[-75.575056,6.188626],[-75.574902,6.188489],[-75.574828,6.188408],[-75.574749,6.188311],[-75.574583,6.188012],[-75.574472,6.187686],[-75.574401,6.187508],[-75.574318,6.18734],[-75.574284,6.187301],[-75.573529,6.186786],[-75.572359,6.186161],[-75.571702,6.185866],[-75.571659,6.18584]]]}},{"type":"Feature","properties":{"codigo_tramiento":"Z5_API_27","tratamiento":"Áreas de Preservación de Infraestructuras y del Sistema Público y Colectivo","tipo":"API","densidadmax":"N/A","indiceconstruccmax":"N/A","alturanormativa":"N/A"},"geometry":{"type":"Polygon","coordinates":[[[-75.575875,6.203348],[-75.576163,6.202646],[-75.576875,6.203375],[-75.57707,6.203466],[-75.57704,6.203816],[-75.577031,6.203839],[-75.577007,6.203854],[-75.576981,6.203852],[-75.575875,6.203348]]]}}]}