{"type":"FeatureCollection","features":[{"type":"Feature","properties":{"name":"Río Medellín"},"geometry":{"type":"Polygon","coordinates":[[[-75.604183,6.164161],[-75.603895,6.164485],[-75.603721,6.164812],[-75.603507,6.16529],[-75.603358,6.165942],[-75.603195,6.166725],[-75.603033,6.167573],[-75.60269,6.169166],[-75.602537,6.169696],[-75.602427,6.169989],[-75.602204,6.170407],[-75.601966,6.170742],[-75.601631,6.171128],[-75.600819,6.171796],[-75.600109,6.172447],[-75.599875,6.172628],[-75.598986,6.17327],[-75.597157,6.174578],[-75.596157,6.175279],[-75.595238,6.17588],[-75.595032,6.176029],[-75.594307,6.176633],[-75.593825,6.177073],[-75.59337,6.177505],[-75.592613,6.178378],[-75.591956,6.17931],[-75.591106,6.180652],[-75.590994,6.180852],[-75.590693,6.181341],[-75.589607,6.183086],[-75.589229,6.183585],[-75.588983,6.183846],[-75.588466,6.18446],[-75.587527,6.185432],[-75.587292,6.185625],[-75.586438,6.186235],[-75.585096,6.18723],[-75.584381,6.187777],[-75.583965,6.188155],[-75.583776,6.188401],[-75.583602,6.188705],[-75.583425,6.189035],[-75.583338,6.189242],[-75.583219,6.189615],[-75.583075,6.19018],[-75.582534,6.19253],[-75.58244,6.192887],[-75.582332,6.19324],[-75.58211,6.193814],[-75.580985,6.197027],[-75.580745,6.196945],[-75.581872,6.193728],[-75.582094,6.193153],[-75.582197,6.192815],[-75.582288,6.192472],[-75.582829,6.190119],[-75.582974,6.189549],[-75.583099,6.189159],[-75.583194,6.188931],[-75.583311,6.18898],[-75.5832,6.18892],[-75.583381,6.188581],[-75.583571,6.188254],[-75.583779,6.187983],[-75.584223,6.187579],[-75.584945,6.187027],[-75.586289,6.186031],[-75.587141,6.185421],[-75.587361,6.185241],[-75.588275,6.184293],[-75.588792,6.18368],[-75.589031,6.183427],[-75.589402,6.182938],[-75.590777,6.180722],[-75.59089,6.180519],[-75.591748,6.179167],[-75.592417,6.178217],[-75.593192,6.177325],[-75.593654,6.176886],[-75.594139,6.176444],[-75.59488,6.175826],[-75.595097,6.17567],[-75.596013,6.17507],[-75.597011,6.174371],[-75.598838,6.173064],[-75.599725,6.172423],[-75.59995,6.17225],[-75.600656,6.171602],[-75.601454,6.170946],[-75.60177,6.170581],[-75.601993,6.170268],[-75.6022,6.169877],[-75.602295,6.169621],[-75.602445,6.1691],[-75.602785,6.167521],[-75.602947,6.166676],[-75.60311,6.165889],[-75.603271,6.165198],[-75.603492,6.164704],[-75.603696,6.164328],[-75.604015,6.163971],[-75.604392,6.163662],[-75.604852,6.163316],[-75.605004,6.163518],[-75.604546,6.163863],[-75.604183,6.164161]]]}}]}