{"type":"FeatureCollection","features":[{"type":"Feature","properties":{"k":"sendero"},"geometry":{"type":"Polygon","coordinates":[[[-75.579664,6.197623],[-75.579668,6.19761],[-75.579888,6.197678],[-75.579879,6.197702],[-75.579661,6.197636],[-75.579455,6.197603],[-75.579421,6.197609],[-75.579418,6.197763],[-75.579409,6.197772],[-75.579385,6.197772],[-75.579379,6.197867],[-75.579343,6.197875],[-75.579336,6.198079],[-75.579551,6.198096],[-75.579562,6.198109],[-75.579557,6.19824],[-75.579531,6.198239],[-75.579535,6.198122],[-75.579478,6.198119],[-75.579478,6.198105],[-75.579475,6.198118],[-75.579476,6.198548],[-75.579433,6.198639],[-75.579433,6.198784],[-75.579449,6.19905],[-75.579374,6.199137],[-75.579293,6.199426],[-75.579377,6.199425],[-75.579378,6.199451],[-75.579257,6.199452],[-75.579257,6.199462],[-75.579321,6.199462],[-75.579321,6.199488],[-75.579023,6.199489],[-75.579023,6.199512],[-75.579397,6.199521],[-75.579394,6.199543],[-75.579023,6.199538],[-75.579022,6.199562],[-75.578999,6.199622],[-75.578998,6.200173],[-75.579096,6.200226],[-75.579091,6.200482],[-75.579155,6.200484],[-75.579165,6.200498],[-75.579148,6.200592],[-75.579098,6.200609],[-75.579095,6.200597],[-75.579094,6.20061],[-75.579072,6.200609],[-75.579069,6.200927],[-75.578871,6.200933],[-75.578871,6.20092],[-75.578871,6.200933],[-75.578842,6.200932],[-75.578844,6.201088],[-75.57907,6.201088],[-75.57907,6.201114],[-75.578845,6.201114],[-75.578848,6.201275],[-75.579018,6.201275],[-75.579018,6.201301],[-75.578848,6.201301],[-75.578854,6.201819],[-75.578827,6.201819],[-75.578827,6.201784],[-75.578516,6.20179],[-75.578518,6.201887],[-75.578492,6.201887],[-75.57849,6.201791],[-75.578081,6.201795],[-75.578072,6.201783],[-75.578076,6.201455],[-75.577985,6.201454],[-75.577991,6.201844],[-75.577982,6.201925],[-75.578118,6.201902],[-75.578122,6.201928],[-75.57798,6.201952],[-75.577928,6.20272],[-75.577902,6.202719],[-75.577965,6.201844],[-75.577958,6.201442],[-75.577916,6.200779],[-75.577862,6.200783],[-75.577842,6.201192],[-75.57785,6.201355],[-75.577875,6.201527],[-75.577886,6.2017],[-75.577875,6.202853],[-75.577849,6.202853],[-75.57785,6.202732],[-75.577536,6.202737],[-75.577535,6.20271],[-75.57785,6.202706],[-75.577852,6.20258],[-75.577505,6.202569],[-75.577506,6.202543],[-75.577852,6.202553],[-75.577854,6.20241],[-75.577526,6.202397],[-75.577527,6.20237],[-75.577854,6.202384],[-75.577856,6.202233],[-75.57755,6.202222],[-75.577551,6.202196],[-75.577856,6.202207],[-75.577858,6.202057],[-75.577556,6.202042],[-75.577558,6.202016],[-75.577858,6.202031],[-75.577859,6.201949],[-75.577814,6.201946],[-75.577814,6.201979],[-75.577801,6.201989],[-75.577648,6.201983],[-75.577648,6.201969],[-75.577635,6.201969],[-75.577635,6.201945],[-75.577489,6.201942],[-75.577492,6.201915],[-75.577635,6.201919],[-75.577649,6.201909],[-75.577859,6.201923],[-75.57786,6.201712],[-75.577577,6.201689],[-75.577579,6.201663],[-75.577859,6.201686],[-75.57785,6.201542],[-75.577569,6.20153],[-75.57757,6.201504],[-75.577847,6.201515],[-75.577826,6.201369],[-75.577582,6.201359],[-75.577583,6.201333],[-75.577824,6.201342],[-75.577816,6.201204],[-75.577591,6.201193],[-75.577592,6.201166],[-75.577816,6.201178],[-75.577823,6.201013],[-75.577618,6.201009],[-75.577618,6.200983],[-75.577825,6.200987],[-75.577833,6.200836],[-75.577642,6.200827],[-75.577643,6.2008],[-75.577834,6.200809],[-75.577841,6.200639],[-75.577661,6.200636],[-75.577662,6.20061],[-75.577914,6.200613],[-75.577908,6.20052],[-75.577869,6.200467],[-75.577848,6.200394],[-75.577829,6.200188],[-75.577809,6.200186],[-75.577811,6.20016],[-75.57792,6.20015],[-75.578253,6.200168],[-75.578317,6.200185],[-75.578351,6.20022],[-75.578415,6.200234],[-75.578519,6.200217],[-75.578572,6.200177],[-75.578633,6.200109],[-75.578697,6.20009],[-75.578706,6.199559],[-75.578291,6.199551],[-75.578327,6.199994],[-75.578301,6.199997],[-75.578268,6.199568],[-75.578243,6.199502],[-75.578237,6.199337],[-75.578215,6.199334],[-75.578207,6.199323],[-75.578218,6.199106],[-75.578197,6.19869],[-75.578198,6.198535],[-75.578208,6.198527],[-75.57824,6.198527],[-75.57824,6.198554],[-75.578223,6.198553],[-75.578223,6.198689],[-75.57824,6.199015],[-75.578686,6.19901],[-75.578684,6.198836],[-75.578717,6.198758],[-75.578725,6.198548],[-75.578723,6.198197],[-75.578679,6.198191],[-75.57864,6.198141],[-75.578668,6.197993],[-75.57886,6.197519],[-75.578884,6.197529],[-75.578748,6.19787],[-75.578971,6.197913],[-75.57898,6.198062],[-75.57931,6.198077],[-75.579317,6.19786],[-75.579326,6.197851],[-75.579356,6.197848],[-75.57936,6.197755],[-75.579368,6.197747],[-75.579393,6.197746],[-75.579395,6.197597],[-75.579407,6.197568],[-75.579631,6.197589],[-75.579724,6.197527],[-75.579987,6.19759],[-75.579988,6.197597],[-75.57998,6.197617],[-75.579972,6.197617],[-75.579727,6.197554],[-75.579976,6.197629],[-75.579969,6.197648],[-75.579697,6.197576],[-75.579651,6.197608],[-75.579666,6.19761],[-75.579664,6.197623]],[[-75.577661,6.201957],[-75.577788,6.201962],[-75.577788,6.201949],[-75.577661,6.201946],[-75.577661,6.201957]],[[-75.578402,6.200384],[-75.578135,6.200395],[-75.578133,6.200369],[-75.578402,6.200358],[-75.578402,6.200258],[-75.578339,6.200244],[-75.578304,6.200208],[-75.578249,6.200194],[-75.578097,6.200185],[-75.578098,6.200331],[-75.578072,6.200331],[-75.57807,6.200184],[-75.57792,6.200176],[-75.577888,6.200181],[-75.577939,6.200203],[-75.577981,6.200247],[-75.577987,6.2003],[-75.577961,6.200302],[-75.577958,6.20026],[-75.577924,6.200225],[-75.577856,6.200196],[-75.577874,6.200389],[-75.577893,6.200455],[-75.577927,6.200502],[-75.578402,6.200489],[-75.578402,6.200384]],[[-75.577867,6.200639],[-75.577863,6.200756],[-75.577915,6.200752],[-75.577915,6.20064],[-75.577867,6.200639]],[[-75.578402,6.200515],[-75.577935,6.200528],[-75.577941,6.200614],[-75.578402,6.200611],[-75.578402,6.200515]],[[-75.57825,6.20064],[-75.57825,6.200627],[-75.57825,6.20064],[-75.577941,6.20064],[-75.577941,6.200752],[-75.578403,6.200756],[-75.578403,6.200638],[-75.57825,6.20064]],[[-75.578323,6.200905],[-75.578327,6.200795],[-75.578355,6.200782],[-75.57826,6.200782],[-75.57826,6.200769],[-75.57826,6.200782],[-75.577942,6.200778],[-75.577947,6.20091],[-75.578323,6.200905]],[[-75.578004,6.201303],[-75.578003,6.200936],[-75.577949,6.200937],[-75.577972,6.201303],[-75.578004,6.201303]],[[-75.577983,6.201428],[-75.578075,6.201428],[-75.578067,6.20133],[-75.577974,6.201329],[-75.577983,6.201428]],[[-75.578472,6.200932],[-75.57846,6.20092],[-75.57846,6.200806],[-75.578429,6.20079],[-75.578431,6.201026],[-75.578405,6.201026],[-75.578403,6.200789],[-75.578348,6.200814],[-75.578349,6.200919],[-75.578342,6.20093],[-75.578029,6.200936],[-75.57803,6.201304],[-75.578417,6.201298],[-75.578415,6.201194],[-75.578441,6.201194],[-75.578443,6.201298],[-75.578822,6.201295],[-75.578816,6.200932],[-75.578472,6.200932]],[[-75.578278,6.201324],[-75.578094,6.201329],[-75.578101,6.201428],[-75.578278,6.201419],[-75.578278,6.201324]],[[-75.578827,6.201758],[-75.578823,6.201436],[-75.578545,6.20144],[-75.578546,6.201573],[-75.578533,6.201573],[-75.578533,6.201586],[-75.578318,6.201588],[-75.578318,6.201574],[-75.578305,6.201575],[-75.578302,6.201444],[-75.578102,6.201454],[-75.578099,6.201769],[-75.578827,6.201758]],[[-75.578705,6.199533],[-75.578695,6.199196],[-75.578639,6.199188],[-75.578239,6.199205],[-75.578234,6.19931],[-75.578262,6.199322],[-75.578269,6.199497],[-75.578283,6.199525],[-75.578705,6.199533]],[[-75.578687,6.199036],[-75.578241,6.199041],[-75.57824,6.199179],[-75.578639,6.199161],[-75.578694,6.199169],[-75.578687,6.199036]],[[-75.578583,6.201413],[-75.578582,6.201323],[-75.578304,6.201324],[-75.578304,6.201418],[-75.578531,6.201413],[-75.578532,6.201427],[-75.578532,6.201413],[-75.578583,6.201413]],[[-75.578519,6.201453],[-75.578435,6.201515],[-75.578328,6.201454],[-75.578331,6.201561],[-75.57852,6.20156],[-75.578519,6.201453]],[[-75.578434,6.201486],[-75.578492,6.20144],[-75.578361,6.201443],[-75.578434,6.201486]],[[-75.579046,6.200594],[-75.579056,6.200582],[-75.579093,6.200583],[-75.579126,6.200574],[-75.579136,6.20051],[-75.579075,6.200508],[-75.579064,6.200498],[-75.579071,6.20024],[-75.578982,6.200194],[-75.578819,6.200195],[-75.578708,6.200114],[-75.578648,6.200131],[-75.57859,6.200197],[-75.57853,6.200242],[-75.578428,6.200259],[-75.578429,6.200761],[-75.578485,6.200793],[-75.578487,6.200906],[-75.578815,6.200906],[-75.57881,6.200252],[-75.578836,6.200252],[-75.578841,6.200906],[-75.579046,6.200905],[-75.579046,6.200594]],[[-75.578822,6.201321],[-75.578608,6.201323],[-75.578609,6.201412],[-75.578823,6.20141],[-75.578822,6.201321]],[[-75.578998,6.198088],[-75.578885,6.19808],[-75.578879,6.198069],[-75.578889,6.19803],[-75.578692,6.198011],[-75.578668,6.198138],[-75.578693,6.198168],[-75.578739,6.198172],[-75.578804,6.198193],[-75.578876,6.198205],[-75.578982,6.198206],[-75.578998,6.198196],[-75.578998,6.198088]],[[-75.578912,6.198008],[-75.578918,6.198019],[-75.578909,6.198058],[-75.578954,6.19806],[-75.57895,6.197935],[-75.578738,6.197894],[-75.5787,6.197985],[-75.578912,6.198008]],[[-75.578999,6.198777],[-75.578739,6.198774],[-75.578711,6.19884],[-75.578711,6.198961],[-75.578999,6.19896],[-75.578999,6.198777]],[[-75.578995,6.198986],[-75.578711,6.198988],[-75.57872,6.199171],[-75.578999,6.199173],[-75.578995,6.198986]],[[-75.578725,6.199272],[-75.578999,6.19927],[-75.578999,6.199199],[-75.578721,6.199197],[-75.578725,6.199272]],[[-75.578765,6.199635],[-75.578732,6.199592],[-75.578723,6.200093],[-75.578811,6.200158],[-75.578822,6.199992],[-75.578843,6.199918],[-75.578892,6.199829],[-75.578972,6.199754],[-75.578973,6.199633],[-75.578765,6.199635]],[[-75.578731,6.199497],[-75.578897,6.199497],[-75.578894,6.199297],[-75.578726,6.199299],[-75.578731,6.199497]],[[-75.578996,6.199525],[-75.578731,6.199523],[-75.578732,6.199542],[-75.578774,6.199608],[-75.578977,6.199607],[-75.578996,6.199556],[-75.578996,6.199525]],[[-75.578999,6.198562],[-75.578751,6.198561],[-75.578744,6.198748],[-75.578999,6.19875],[-75.578999,6.198562]],[[-75.578998,6.198226],[-75.578874,6.198231],[-75.578749,6.198203],[-75.57875,6.198336],[-75.578998,6.198337],[-75.578998,6.198226]],[[-75.578999,6.198363],[-75.57875,6.198362],[-75.578751,6.198535],[-75.578999,6.198536],[-75.578999,6.198363]],[[-75.578912,6.199846],[-75.578868,6.199927],[-75.578848,6.199996],[-75.578837,6.20017],[-75.578972,6.200168],[-75.578972,6.19979],[-75.578912,6.199846]],[[-75.578997,6.199497],[-75.578999,6.199297],[-75.57892,6.199297],[-75.578923,6.199497],[-75.578997,6.199497]],[[-75.579026,6.199284],[-75.579023,6.199462],[-75.579231,6.199462],[-75.579235,6.19943],[-75.579266,6.199426],[-75.579351,6.199125],[-75.579406,6.199062],[-75.579025,6.199065],[-75.579026,6.199283],[-75.579013,6.199283],[-75.579026,6.199284]],[[-75.579025,6.198532],[-75.579128,6.198531],[-75.579121,6.198094],[-75.579025,6.198089],[-75.579025,6.198532]],[[-75.579026,6.198915],[-75.579083,6.198871],[-75.579131,6.198771],[-75.579129,6.198557],[-75.579025,6.198559],[-75.579026,6.198915]],[[-75.579375,6.198755],[-75.579342,6.198781],[-75.579153,6.198786],[-75.579103,6.198889],[-75.579026,6.198948],[-75.579025,6.199039],[-75.579422,6.199035],[-75.579407,6.198786],[-75.579407,6.198636],[-75.579442,6.19856],[-75.579375,6.198559],[-75.579375,6.198755]],[[-75.579268,6.198101],[-75.579147,6.198095],[-75.579155,6.198531],[-75.579349,6.198532],[-75.579348,6.198163],[-75.579379,6.19811],[-75.579295,6.198103],[-75.579288,6.198311],[-75.579262,6.19831],[-75.579268,6.198101]],[[-75.579155,6.198557],[-75.579157,6.19876],[-75.579336,6.198755],[-75.579349,6.198746],[-75.579349,6.198558],[-75.579155,6.198557]],[[-75.579449,6.198116],[-75.579408,6.198112],[-75.579374,6.198168],[-75.579375,6.198532],[-75.579449,6.198533],[-75.579449,6.198116]]]}},{"type":"Feature","properties":{"k":"sendero"},"geometry":{"type":"Polygon","coordinates":[[[-75.577702,6.200169],[-75.577705,6.200068],[-75.577689,6.200065],[-75.577694,6.200039],[-75.57773,6.200052],[-75.577726,6.200148],[-75.577746,6.200151],[-75.577743,6.200177],[-75.577702,6.200169]]]}},{"type":"Feature","properties":{"k":"sendero"},"geometry":{"type":"Polygon","coordinates":[[[-75.577833,6.199532],[-75.577957,6.199532],[-75.578,6.199266],[-75.578026,6.19927],[-75.577981,6.199545],[-75.577988,6.199735],[-75.577962,6.199735],[-75.577955,6.199558],[-75.577833,6.199559],[-75.577833,6.199532]]]}},{"type":"Feature","properties":{"k":"sendero"},"geometry":{"type":"Polygon","coordinates":[[[-75.578486,6.197828],[-75.578462,6.197819],[-75.578599,6.197471],[-75.578624,6.197481],[-75.578486,6.197828]]]}},{"type":"Feature","properties":{"k":"sendero"},"geometry":{"type":"Polygon","coordinates":[[[-75.578626,6.201822],[-75.578623,6.202099],[-75.578596,6.202098],[-75.5786,6.201822],[-75.578626,6.201822]]]}},{"type":"Feature","properties":{"k":"sendero"},"geometry":{"type":"Polygon","coordinates":[[[-75.578635,6.197861],[-75.57861,6.197851],[-75.578744,6.197501],[-75.578769,6.19751],[-75.578635,6.197861]]]}},{"type":"Feature","properties":{"k":"sendero"},"geometry":{"type":"Polygon","coordinates":[[[-75.579044,6.197542],[-75.578983,6.197717],[-75.578958,6.197708],[-75.579019,6.197533],[-75.579044,6.197542]]]}},{"type":"Feature","properties":{"k":"sendero"},"geometry":{"type":"Polygon","coordinates":[[[-75.579314,6.199609],[-75.579016,6.199605],[-75.579016,6.199579],[-75.579314,6.199578],[-75.579332,6.199597],[-75.579314,6.199609]]]}},{"type":"Feature","properties":{"k":"sendero"},"geometry":{"type":"Polygon","coordinates":[[[-75.57914,6.197967],[-75.579113,6.197966],[-75.57913,6.19755],[-75.579156,6.197551],[-75.57914,6.197967]]]}},{"type":"Feature","properties":{"k":"sendero"},"geometry":{"type":"Polygon","coordinates":[[[-75.579289,6.197567],[-75.579265,6.198031],[-75.579239,6.19803],[-75.579263,6.197566],[-75.579289,6.197567]]]}}]}